School Name,LAT,LNG,School Type,City,County,5 DTaP,4 Polio,2 MMR,3 Hep B,Immunity to Chickenpox,Series,Exemption
CENTER ELEMENTARY SCHOOL,42.1048228,-70.9453218,Public,ABINGTON,Plymouth,98%,99%,100%,99%,99%,98%,0%
ST BRIDGET SCHOOL,42.1168659,-70.937069,Private,ABINGTON,Plymouth, , , , , , , 
C.T. DOUGLAS,42.4816957,-71.4716724,Public,ACTON,Middlesex,97%,98%,97%,97%,97%,97%,3.30%
LUTHER CONANT,42.4751878,-71.4363831,Public,ACTON,Middlesex,100%,100%,100%,100%,100%,100%,0%
MCCARTHY-TOWNE,42.4769577,-71.4539435,Public,ACTON,Middlesex,98%,97%,100%,97%,97%,95%,0%
MERRIAM SCHOOL,42.4778,-71.4556,Public,ACTON,Middlesex,96%,98%,100%,98%,98%,96%,0%
P.P. GATES,42.4792045,-71.4736581,Public,ACTON,Middlesex,98%,100%,98%,100%,98%,97%,3.30%
ACUSHNET ELEMENTARY,41.7254237,-70.9059014,Public,ACUSHNET,Bristol,99%,99%,100%,100%,100%,99%,0%
ST FRANCIS XAVIER SCHOOL,41.6879311,-70.9065177,Private,ACUSHNET,Bristol, , , , , , , 
PLUNKETT ELEMENTARY,42.6189718,-73.1203807,Public,ADAMS,Berkshire,99%,100%,100%,100%,100%,96%,0%
ST STANISLAUS KOSTKA,42.6245272,-73.1128805,Private,ADAMS,Berkshire, , , , , , , 
BENJAMIN PHELPS,42.0703152,-72.6134071,Public,AGAWAM,Hampden,96%,97%,97%,99%,97%,96%,3.90%
JAMES CLARK SCHOOL,42.0455116,-72.631502,Public,AGAWAM,Hampden,96%,98%,98%,98%,98%,94%,6.00%
ROBINSON PARK SCHOOL,42.0898205,-72.6418162,Public,AGAWAM,Hampden,93%,94%,93%,97%,93%,90%,5.70%
GARDNER PILOT ACADEMY,42.3607731,-71.1339972,Public,ALLSTON,Suffolk,90%,92%,94%,94%,94%,94%,0%
GERMAN INTERNATIONAL SCHOOL,42.3604063,-71.13608,Private,ALLSTON,Suffolk, , , , , , , 
HORACE MANN SCHOOL FOR THE DEAF,42.3520643,-71.1377015,Public,ALLSTON,Suffolk, , , , , , , 
JACKSON MANN SCHOOL,42.3517771,-71.137231,Public,ALLSTON,Suffolk,66%,76%,73%,70%,70%,70%,0%
ST HERMAN OF ALASKA,42.3541674,-71.1320059,Private,ALLSTON,Suffolk,*,*,*,*,*,*,*
AMESBURY ELEMENTARY SCHOOL,42.8660036,-70.9318688,Public,AMESBURY,Essex,98%,99%,98%,99%,98%,98%,1.10%
AMESBURY MONTESSORI,42.854706,-70.938637,Private,AMESBURY,Essex, , , , , , , 
CASHMAN ELEMENTARY SCHOOL,42.8567624,-70.9492673,Public,AMESBURY,Essex,94%,96%,95%,98%,95%,94%,1.20%
SPARHAWK SCHOOL,42.8503828,-70.9096347,Private,AMESBURY,Essex, , , , , , , 
AMHERST MONTESSORI SCHOOL,42.3389252,-72.5183217,Private,AMHERST,Hampshire, , , , , , , 
COMMON SCHOOL,42.359575,-72.52309,Private,AMHERST,Hampshire, , , , , , , 
CROCKER FARM ELEMENTARY,42.3472776,-72.5175329,Public,AMHERST,Hampshire,68%,71%,49%,88%,49%,46%,0%
FORT RIVER ELEMENTARY,42.3753662,-72.4987466,Public,AMHERST,Hampshire,85%,95%,98%,98%,98%,80%,2.40%
WILDWOOD ELEMENTARY,42.3872429,-72.5132239,Public,AMHERST,Hampshire,100%,100%,98%,98%,98%,98%,0%
ANDOVER SCHOOL OF MONTESSORI,42.6218817,-71.1245201,Private,ANDOVER,Essex, , , , , , , 
BANCROFT ELEMENTARY,42.6370369,-71.1258895,Public,ANDOVER,Essex,98%,98%,98%,98%,98%,98%,1.50%
HENRY C SANBORN,42.6420646,-71.1786014,Public,ANDOVER,Essex,100%,100%,98%,100%,98%,98%,0%
HIGH PLAIN ELEMENTARY,42.664198,-71.212349,Public,ANDOVER,Essex,98%,98%,98%,96%,96%,95%,3.60%
MELMARK NEW ENGLAND SCHOOL,42.6583356,-71.1367953,Private,ANDOVER,Essex, , , , , , , 
PIKE SCHOOL,42.6320084,-71.1318087,Private,ANDOVER,Essex, , , , , , , 
PROFESSIONAL CTR FOR CHILD DEVELOPMENT,42.6583356,-71.1367953,Private,ANDOVER,Essex, , , , , , , 
SHAWSHEEN SCHOOL,42.6762515,-71.1549495,Public,ANDOVER,Essex,93%,96%,95%,96%,96%,91%,2.70%
SOUTH ELEMENTARY,42.626287,-71.1498038,Public,ANDOVER,Essex,94%,99%,99%,97%,99%,94%,1.40%
ST AUGUSTINE ELEMENTARY,42.6583356,-71.1367953,Private,ANDOVER,Essex,80%,96%,89%,87%,84%,78%,2.20%
WEST ELEMENTARY,42.664198,-71.212349,Public,ANDOVER,Essex,100%,100%,100%,99%,99%,99%,1.40%
ARLINGTON CHILDRENS CENTER,42.4140682,-71.1557103,Private,ARLINGTON,Middlesex, , , , , , , 
BRACKETT ELEMENTARY,42.4124419,-71.1763788,Public,ARLINGTON,Middlesex,93%,91%,96%,95%,95%,91%,7.20%
CYRUS DALLIN ELEMENTARY,42.4176518,-71.1878321,Public,ARLINGTON,Middlesex,99%,99%,99%,99%,97%,97%,1.40%
HARDY ELEMENTARY,42.4044261,-71.1453619,Public,ARLINGTON,Middlesex,96%,96%,98%,98%,99%,96%,0%
INTERNATIONAL SCHOOL OF BOSTON,42.4123876,-71.1587694,Private,ARLINGTON,Middlesex,86%,93%,91%,93%,84%,80%,2.30%
JOHN A BISHOP ELEMENTARY,42.4243203,-71.1546251,Public,ARLINGTON,Middlesex,100%,100%,100%,100%,100%,100%,0%
LESLEY ELLIS SCHOOL,42.4104341,-71.1452688,Private,ARLINGTON,Middlesex, , , , , , , 
M NORCROSS STRATTON SCHOOL,42.4153925,-71.1564729,Public,ARLINGTON,Middlesex,92%,98%,98%,98%,98%,92%,1.50%
NEW COVENANT SCHOOL,42.426377,-71.181886,Private,ARLINGTON,Middlesex, , , , , , , 
PEIRCE SCHOOL,42.4285789,-71.178963,Public,ARLINGTON,Middlesex,96%,98%,98%,98%,98%,96%,2.10%
ST AGNES ELEMENTARY,42.4153925,-71.1564729,Private,ARLINGTON,Middlesex, , , , , , , 
THOMPSON,42.451727,-71.1370672,Public,ARLINGTON,Middlesex,81%,93%,86%,93%,85%,81%,1.20%
BRIGGS ELEMENTARY,42.6149195,-71.9270564,Public,ASHBURNHAM,Worcester,94%,97%,97%,97%,97%,92%,2.80%
ASHBY ELEMENTARY,42.678931,-71.824322,Public,ASHBY,Middlesex,95%,98%,95%,98%,95%,95%,4.70%
SANDERSON ACADEMY,42.508023,-72.81124,Public,ASHFIELD,Franklin, , , , , , , 
HENRY E WARREN ELEMENTARY,42.2421223,-71.4450779,Public,ASHLAND,Middlesex,99%,99%,99%,99%,99%,98%,1.00%
METROWEST CHRISTIAN ACADEMY,42.261484,-71.478921,Private,ASHLAND,Middlesex, , , , , , , 
PINCUSHION HILL MONTESSORI,42.269726,-71.452415,Private,ASHLAND,Middlesex, , , , , , , 
PLEASANT STREET,42.5748332,-72.2188724,Public,ATHOL,Worcester,89%,89%,89%,93%,91%,85%,8.70%
SANDERS STREET SCHOOL,42.586476,-72.2306386,Public,ATHOL,Worcester,91%,96%,96%,96%,96%,91%,2.20%
GRACE BAPTIST CHRISTIAN ACADEMY,41.9127584,-71.2649273,Private,ATTLEBORO,Bristol, , , , , , , 
HYMAN FINE ELEMENTARY,41.9161838,-71.2719878,Public,ATTLEBORO,Bristol,97%,97%,100%,99%,100%,97%,0%
PETER THACHER ELEMENTARY,41.9317562,-71.280343,Public,ATTLEBORO,Bristol,100%,100%,100%,99%,100%,96%,1.30%
ST JOHN THE EVANGELIST,41.9466479,-71.2892702,Private,ATTLEBORO,Bristol,77%,87%,83%,93%,77%,77%,0%
STUDLEY ELEMENTARY,41.9369718,-71.3058721,Public,ATTLEBORO,Bristol,99%,100%,99%,100%,99%,99%,1.10%
THOMAS E WILLETT SCHOOL,41.9462107,-71.2914418,Public,ATTLEBORO,Bristol,96%,96%,99%,100%,99%,98%,0%
BRYN MAWR,42.204816,-71.8453496,Public,AUBURN,Worcester,100%,100%,100%,100%,100%,100%,0%
MARY D STONE,42.1951773,-71.8365643,Public,AUBURN,Worcester,100%,100%,100%,100%,100%,100%,0%
MONTESSORI CHILDRENS HOUSE,42.2044133,-71.8464657,Private,AUBURN,Worcester, , , , , , , 
C C BURR ELEMENTARY,42.3522553,-71.2420665,Public,AUBURNDALE,Middlesex,97%,100%,100%,100%,100%,97%,0%
WILLIAMS,42.3420411,-71.2497782,Public,AUBURNDALE,Middlesex,100%,100%,100%,100%,100%,100%,0%
RALPH BUTLER SCHOOL,42.1306554,-71.0411582,Public,AVON,Norfolk,98%,100%,98%,100%,98%,98%,0%
PAGE HILLTOP ELEMENTARY,42.5611947,-71.5899054,Public,AYER,Middlesex,97%,97%,92%,100%,92%,92%,0%
TRINITY CHRISTIAN ACADEMY,41.684707,-70.281802,Private,BARNSTABLE,Barnstable, , , , , , , 
RUGGLES LANE ELEMENTARY,42.429571,-72.1087019,Public,BARRE,Worcester,88%,87%,83%,96%,87%,83%,2.90%
BECKET WASHINGTON SCHOOL,42.3314762,-73.0828803,Public,BECKET,Berkshire, , , , , , , 
LT ELEAZAR DAVIS SCHOOL,42.4848356,-71.3093214,Public,BEDFORD,Middlesex,98%,100%,100%,99%,100%,97%,0.50%
NASHOBA LEARNING GROUP,42.5152342,-71.2499928,Private,BEDFORD,Middlesex, , , , , , , 
COLD SPRING SCHOOL,42.2744371,-72.3961552,Public,BELCHERTOWN,Hampshire,94%,99%,99%,100%,99%,95%,3.00%
CLARA MACY ELEMENTARY,42.107377,-71.478494,Public,BELLINGHAM,Norfolk,100%,100%,100%,100%,98%,98%,0%
SOUTH ELEMENTARY,42.0344267,-71.4894753,Public,BELLINGHAM,Norfolk,100%,100%,99%,100%,99%,99%,1.20%
STALL BROOK SCHOOL,42.1225,-71.4573,Public,BELLINGHAM,Norfolk,89%,95%,100%,100%,100%,89%,0%
BELMONT DAY,42.3961401,-71.1857066,Private,BELMONT,Middlesex, , , , , , , 
DANIEL BUTLER SCHOOL,42.3859776,-71.1878295,Public,BELMONT,Middlesex,92%,95%,96%,96%,96%,92%,3.90%
MARY LEE BURBANK SCHOOL,42.3884725,-71.1641812,Public,BELMONT,Middlesex,100%,100%,100%,97%,100%,97%,0%
ROGER WELLINGTON,42.3922262,-71.1719884,Public,BELMONT,Middlesex,94%,98%,97%,99%,98%,95%,0.90%
WINN BROOK SCHOOL,42.3956405,-71.1776114,Public,BELMONT,Middlesex,93%,97%,97%,95%,95%,95%,2.10%
BERKLEY COMMUNITY SCHOOL,41.8329083,-71.0885395,Public,BERKLEY,Bristol,96%,98%,99%,100%,99%,91%,1.20%
BERLIN MEMORIAL,42.3780187,-71.6386453,Public,BERLIN,Worcester, , , , , , , 
BERNARDSTON ELEMENTARY,42.6653739,-72.5609892,Public,BERNARDSTON,Franklin, , , , , , , 
FULL CIRCLE SCHOOL,42.6705063,-72.5234031,Private,BERNARDSTON,Franklin, , , , , , , 
AYERS RYAL SIDE SCHOOL,42.5512062,-70.890327,Public,BEVERLY,Essex,96%,99%,98%,98%,98%,96%,2.00%
CENTERVILLE ELEMENTARY,42.5801084,-70.8415917,Public,BEVERLY,Essex,98%,100%,100%,100%,100%,98%,0%
CHILDRENS CTR FOR COMMUNICATION,42.5584283,-70.880049,Private,BEVERLY,Essex, , , , , , , 
COVE ELEMENTARY,42.5560175,-70.8584402,Public,BEVERLY,Essex,96%,98%,98%,98%,98%,95%,1.90%
FUTURES SCHOOL,42.5584283,-70.880049,Private,BEVERLY,Essex, , , , , , , 
GLEN URQUHART,42.5693521,-70.8160517,Private,BEVERLY,Essex, , , , , , , 
HANNAH ELEMENTARY SCHOOL,42.5673172,-70.8683822,Public,BEVERLY,Essex,98%,98%,97%,98%,97%,97%,3.10%
HARBORLIGHT-STONERIDGE MONTESSORI,42.5651764,-70.8638407,Private,BEVERLY,Essex, , , , , , , 
MRS ALEXANDERS,42.545933,-70.874294,Private,BEVERLY,Essex, , , , , , , 
NORTH BEVERLY SCHOOL,42.5805,-70.8793,Public,BEVERLY,Essex,98%,98%,98%,98%,98%,97%,1.70%
NORTH SHORE CHRISTIAN SCHOOL,42.5584283,-70.880049,Private,BEVERLY,Essex, , , , , , , 
NORTH SHORE ED CONSORTIUM,42.5693043,-70.8791434,Private,BEVERLY,Essex, , , , , , , 
SHORE COUNTRY DAY SCHOOL,42.568875,-70.88745,Private,BEVERLY,Essex, , , , , , , 
ST JOHN THE EVANGELIST,42.5678118,-70.8921293,Private,BEVERLY,Essex, , , , , , , 
ST MARY STAR OF THE SEA,42.5494701,-70.8794275,Private,BEVERLY,Essex, , , , , , , 
WALDORF SCHOOL AT MORAINE FARM,42.5822055,-70.8977687,Private,BEVERLY,Essex, , , , , , , 
DUTILE ELEMENTARY,42.5635618,-71.2940433,Public,BILLERICA,Middlesex,100%,100%,100%,100%,100%,100%,0%
EUGENE C VINING,42.5337263,-71.2593474,Public,BILLERICA,Middlesex,100%,100%,100%,100%,100%,100%,0%
FAULKNER KINDERGARTEN,42.592806,-71.283433,Private,BILLERICA,Middlesex,*,*,*,*,*,*,*
HAJJAR ELEMENTARY,42.5584218,-71.2689461,Public,BILLERICA,Middlesex,98%,98%,98%,98%,98%,98%,1.50%
KENNEDY SCHOOL,42.5663329,-71.2320578,Public,BILLERICA,Middlesex,100%,100%,100%,100%,100%,100%,0%
PARKER SCHOOL,42.5581154,-71.2761974,Public,BILLERICA,Middlesex,99%,100%,100%,100%,100%,99%,1.40%
THOMAS DITSON SCHOOL,42.5369964,-71.2239296,Public,BILLERICA,Middlesex,98%,98%,99%,99%,99%,98%,1.10%
JOHN F KENNEDY ELEMENTARY,42.0290268,-71.5453968,Public,BLACKSTONE,Worcester,93%,98%,98%,98%,98%,93%,2.20%
FLORENCE SAWYER SCHOOL,42.4300454,-71.6088653,Public,BOLTON,Worcester,100%,100%,97%,100%,97%,97%,0%
ADVENT SCHOOL,42.3607841,-71.0698354,Private,BOSTON,Suffolk,97%,97%,97%,97%,97%,97%,2.90%
BEACON HILL NURSERY,42.360752,-71.0653153,Private,BOSTON,Suffolk, , , , , , , 
BLACKSTONE COMMUNITY,42.3600825,-71.0588801,Public,BOSTON,Suffolk,96%,96%,99%,100%,99%,96%,0%
BOSTON CHILDRENS SCHOOL ANNEX,42.3600825,-71.0588801,Private,BOSTON,Suffolk, , , , , , , 
ELIOT ELEMENTARY,42.3662107,-71.0535086,Public,BOSTON,Suffolk,*,*,*,*,*,*,*
JOSEPH J HURLEY,42.3600825,-71.0588801,Public,BOSTON,Suffolk,73%,58%,44%,76%,51%,51%,0%
JOSIAH QUINCY,42.3480522,-71.064914,Public,BOSTON,Suffolk,99%,98%,99%,99%,99%,98%,0.70%
KIDS ARE PEOPLE,42.3484252,-71.0961567,Private,BOSTON,Suffolk, , , , , , , 
KINGSLEY MONTESSORI,42.3503128,-71.0823274,Private,BOSTON,Suffolk,76%,76%,81%,86%,57%,45%,19.00%
LEARNING PROJECT ELEMENTARY,42.3534999,-71.0772,Private,BOSTON,Suffolk, , , , , , , 
PARK STREET SCHOOL,42.3564907,-71.0717074,Private,BOSTON,Suffolk,97%,92%,92%,92%,94%,86%,2.80%
ST JOHN ELEMENTARY,42.3637843,-71.0525972,Private,BOSTON,Suffolk, , , , , , , 
WILLIAM MCKINLEY SCHOOL,42.3600825,-71.0588801,Public,BOSTON,Suffolk, , , , , , , 
PEEBLES ELEMENTARY,41.7401336,-70.5910568,Public,BOURNE,Barnstable,95%,100%,95%,100%,92%,90%,5.00%
BOURNEDALE ELEMENTARY,42.4072107,-71.3824374,Public,BOURNEDALE,Barnstable,97%,97%,98%,98%,97%,98%,3.10%
BLANCHARD MEMORIAL,42.4821128,-71.505959,Public,BOXBORO,Middlesex,97%,100%,100%,100%,100%,97%,0%
BOXFORD ACADEMY,42.6636534,-70.9980969,Private,BOXFORD,Essex,*,*,*,*,*,*,*
HARRY LEE COLE,42.6603707,-71.0019984,Public,BOXFORD,Essex,99%,99%,100%,99%,100%,98%,1.20%
BOYLSTON ELEMENTARY SCHOOL,42.3312464,-71.7396994,Public,BOYLSTON,Worcester,97%,100%,100%,100%,100%,97%,0%
SACRED HEARTS ELEMENTARY,42.7690423,-71.0756425,Private,BRADFORD,Essex,75%,83%,81%,92%,83%,75%,8.30%
HOLLIS SCHOOL,42.2157441,-71.0029983,Public,BRAINTREE,Norfolk, , , , , , , 
KINDER CARE LEARNING CTR,42.2079017,-71.0040013,Private,BRAINTREE,Norfolk,*,*,*,*,*,*,*
MARY E FLAHERTY SCHOOL,42.220779,-71.017363,Public,BRAINTREE,Norfolk, , , , , , , 
MEETING HOUSE MONTESSORI,42.2107306,-71.006529,Private,BRAINTREE,Norfolk, , , , , , , 
MONATIQUOT KINDERGARTEN CENTER,42.2109718,-71.0064625,Public,BRAINTREE,Norfolk,95%,99%,100%,100%,100%,94%,0.30%
MORRISON ELEMENTARY,42.2103133,-70.9791444,Public,BRAINTREE,Norfolk, , , , , , , 
ST FRANCIS OF ASSISI SCHOOL,42.2038274,-71.0041574,Private,BRAINTREE,Norfolk, , , , , , , 
STONY BROOK ELEMENTARY,41.7574097,-70.0692559,Public,BREWSTER,Barnstable,94%,96%,92%,95%,90%,86%,3.90%
THE LAUREL SCHOOL,41.734777,-70.0505152,Private,BREWSTER,Barnstable, , , , , , , 
MITCHELL ELEMENTARY @ NORTH HOUSE,41.9903519,-70.9750541,Public,BRIDGEWATER,Plymouth,98%,100%,100%,100%,100%,98%,0%
MITCHELL ELEMENTARY @ SOUTH HOUSE,41.9903519,-70.9750541,Public,BRIDGEWATER,Plymouth,*,*,*,*,*,*,*
BALDWIN EARLY LEARNING CENTER,42.341947,-71.140567,Public,BRIGHTON,Suffolk,49%,64%,47%,94%,49%,47%,0%
CONSERVATORY LAB CHARTER,42.3524089,-71.1529138,Public,BRIGHTON,Suffolk,87%,91%,91%,100%,91%,87%,0%
EDISON K-8 SCHOOL,42.3463503,-71.1626756,Public,BRIGHTON,Suffolk,51%,66%,59%,77%,56%,54%,1.30%
KENNEDY DAY SCHOOL,42.3498855,-71.1451766,Private,BRIGHTON,Suffolk, , , , , , , 
MARY LYON K-8 SCHOOL,42.3463503,-71.1626756,Public,BRIGHTON,Suffolk, , , , , , , 
SHALOH HOUSE,42.3478686,-71.1544295,Private,BRIGHTON,Suffolk, , , , , , , 
ST COLUMBKILLE ELEMENTARY,42.3463503,-71.1626756,Private,BRIGHTON,Suffolk,93%,98%,95%,98%,88%,86%,2.40%
WINSHIP SCHOOL,42.3475792,-71.1553501,Public,BRIGHTON,Suffolk,*,*,*,*,*,*,*
BRIMFIELD ELEMENTARY,42.119261,-72.201745,Public,BRIMFIELD,Hampden,100%,100%,100%,100%,100%,100%,0%
BB RUSSELL SCHOOL,42.0824626,-71.0231467,Public,BROCKTON,Plymouth,84%,92%,91%,94%,91%,90%,0%
BROCKTON SDA ACADEMY,42.0863559,-71.0104778,Private,BROCKTON,Plymouth,*,*,*,*,*,*,*
BROOKFIELD SCHOOL,42.1181511,-71.0103942,Public,BROCKTON,Plymouth,94%,98%,100%,100%,99%,93%,0.90%
DOWNEY SCHOOL,42.0778781,-70.9939334,Public,BROCKTON,Plymouth,95%,95%,98%,99%,98%,96%,1.80%
DR W ARNONE SCHOOL,42.0801741,-71.0250345,Public,BROCKTON,Plymouth,95%,99%,98%,100%,96%,96%,0.70%
EDGAR B DAVIS ELEMENTARY,42.0834335,-71.0183787,Public,BROCKTON,Plymouth,95%,93%,96%,100%,95%,94%,0%
GILMORE SCHOOL EARLY CHILDHOOD CTR,42.0834335,-71.0183787,Public,BROCKTON,Plymouth,82%,89%,88%,84%,87%,82%,2.40%
HANCOCK ELEMENTARY,42.0853129,-71.0667116,Public,BROCKTON,Plymouth,98%,99%,99%,99%,99%,99%,1.00%
HUNTINGTON SCHOOL,42.0626485,-71.0196712,Public,BROCKTON,Plymouth,98%,100%,100%,100%,100%,95%,0%
JOHN F KENNEDY ELEMENTARY,42.0834335,-71.0183787,Public,BROCKTON,Plymouth,96%,99%,100%,96%,100%,96%,0%
LOUIS F ANGELO ELEMENTARY,42.0952328,-71.0198651,Public,BROCKTON,Plymouth,85%,95%,98%,100%,98%,86%,0%
MANTHALA GEORGE SCHOOL,42.0964516,-71.0399982,Public,BROCKTON,Plymouth,88%,97%,97%,99%,97%,92%,0%
MARY E BAKER SCHOOL,42.0940192,-70.9894135,Public,BROCKTON,Plymouth,89%,96%,94%,100%,93%,93%,0%
OSCAR F RAYMOND,42.1042666,-71.0294906,Public,BROCKTON,Plymouth,95%,99%,98%,99%,98%,95%,0%
TRINITY CATHOLIC ACADEMY LOWER CAMP,42.0834335,-71.0183787,Private,BROCKTON,Plymouth,83%,98%,90%,98%,75%,69%,0%
BROOKFIELD ELEMENTARY,42.2141158,-72.0975411,Public,BROOKFIELD,Worcester,100%,100%,100%,100%,100%,100%,0%
BRIMMER AND MAY,42.3317642,-71.1211635,Private,BROOKLINE,Norfolk, , , , , , , 
DEXTER SCHOOL,42.3080925,-71.1375488,Private,BROOKLINE,Norfolk, , , , , , , 
EDITH C BAKER,42.302802,-71.158208,Public,BROOKLINE,Norfolk,*,*,*,*,*,*,*
EDWARD DEVOTION,42.3317642,-71.1211635,Public,BROOKLINE,Norfolk,96%,98%,98%,97%,92%,78%,1.70%
GAN TORAH ACADEMY,42.339,-71.1391,Private,BROOKLINE,Norfolk,56%,64%,64%,72%,44%,50%,0%
HEATH,42.328681,-71.110559,Public,BROOKLINE,Norfolk,100%,99%,100%,99%,100%,97%,1.40%
JOHN D RUNKLE,42.3341696,-71.1421509,Public,BROOKLINE,Norfolk,95%,98%,98%,98%,97%,94%,3.20%
LAWRENCE,42.7153681,-71.1414683,Public,BROOKLINE,Norfolk,99%,99%,100%,99%,98%,97%,0%
LINCOLN ELEMENTARY,42.3284892,-71.1293765,Public,BROOKLINE,Norfolk,94%,91%,100%,97%,95%,85%,3.00%
MAIMONIDES,42.329978,-71.1303594,Private,BROOKLINE,Norfolk, , , , , , , 
MICHAEL DRISCOLL,42.3411198,-71.136419,Public,BROOKLINE,Norfolk,94%,97%,94%,96%,96%,90%,4.30%
NEW ENGLAND HEBREW ACADEMY,42.3488104,-71.1109976,Private,BROOKLINE,Norfolk, , , , , , , 
PARK SCHOOL,42.314877,-71.133202,Private,BROOKLINE,Norfolk,96%,100%,94%,100%,94%,87%,0%
PIERCE SCHOOL,42.335722,-71.1220134,Public,BROOKLINE,Norfolk,97%,98%,98%,100%,97%,94%,0%
SOUTHFIELD SCHOOL,42.3317642,-71.1211635,Private,BROOKLINE,Norfolk, , , , , , , 
ST MARY OF ASSUMPTION,42.3355575,-71.1195036,Private,BROOKLINE,Norfolk, , , , , , , 
FOX HILL SCHOOL,42.5293023,-71.1890244,Public,BURLINGTON,Middlesex,100%,100%,100%,100%,100%,100%,0%
FRANCIS WYMAN ELEMENTARY,42.5005115,-71.2155474,Public,BURLINGTON,Middlesex,98%,98%,98%,98%,98%,98%,2.30%
MEMORIAL SCHOOL,42.5005994,-71.1836528,Public,BURLINGTON,Middlesex,92%,95%,95%,95%,95%,92%,2.70%
MOUNT HOPE CHRISTIAN SCHOOL,42.5026668,-71.198445,Private,BURLINGTON,Middlesex,87%,97%,94%,97%,94%,87%,0%
OPEN BIBLE ACADEMY,42.4890305,-71.1716781,Private,BURLINGTON,Middlesex, , , , , , , 
PINE GLEN ELEMENTARY,42.5217409,-71.2058802,Public,BURLINGTON,Middlesex,98%,100%,100%,100%,100%,98%,0%
ST MARGARET REG SCHOOL,41.7464694,-70.6116092,Private,BUZZARDS BAY,Barnstable, , , , , , , 
AMIGOS SCHOOL,42.3628407,-71.1083114,Public,CAMBRIDGE,Middlesex,100%,100%,100%,100%,99%,99%,0%
BENJAMIN BANNEKER CHARTER SCHOOL,42.392112,-71.13156,Public,CAMBRIDGE,Middlesex,100%,100%,100%,100%,100%,100%,0%
BUCKINGHAM BROWNE AND NICHOLS,42.3790767,-71.1293219,Private,CAMBRIDGE,Middlesex,100%,100%,100%,95%,100%,95%,0%
CAMBRIDGE FRIENDS,42.3878697,-71.1304558,Private,CAMBRIDGE,Middlesex,81%,91%,88%,97%,84%,75%,3.10%
CAMBRIDGE MONTESSORI SCHOOL,42.3857922,-71.1322947,Private,CAMBRIDGE,Middlesex, , , , , , , 
CAMBRIDGEPORT SCHOOL,42.3693201,-71.0977649,Public,CAMBRIDGE,Middlesex,95%,97%,99%,99%,97%,95%,0%
FAYERWEATHER STREET SCHOOL,42.3914024,-71.1541769,Private,CAMBRIDGE,Middlesex, , , , , , , 
FLETCHER-MAYNARD ACADEMY,42.3668215,-71.0957828,Public,CAMBRIDGE,Middlesex,96%,99%,98%,100%,95%,95%,0%
GRAHAM & PARKS SCHOOL,42.3826912,-71.1236775,Public,CAMBRIDGE,Middlesex,95%,97%,97%,93%,95%,92%,8.10%
HAGGERTY,42.3780477,-71.1525611,Public,CAMBRIDGE,Middlesex,98%,100%,100%,100%,100%,96%,0%
HENRY BUCKNER SCHOOL,42.3656313,-71.1017021,Private,CAMBRIDGE,Middlesex, , , , , , , 
JOHN M TOBIN SCHOOL,42.383865,-71.139656,Public,CAMBRIDGE,Middlesex,94%,96%,95%,97%,92%,86%,1.30%
KENNEDY-LONGFELLOW  SCHOOL,42.3690748,-71.0866794,Public,CAMBRIDGE,Middlesex,90%,94%,100%,99%,100%,99%,0%
KING OPEN SCHOOL,42.3719969,-71.0916277,Public,CAMBRIDGE,Middlesex,97%,97%,98%,97%,97%,95%,1.60%
MARIA L BALDWIN,42.3823462,-71.1166645,Public,CAMBRIDGE,Middlesex,91%,92%,97%,97%,94%,86%,1.00%
MARTIN LUTHER KING JR SCHOOL,42.3669163,-71.1135181,Public,CAMBRIDGE,Middlesex,93%,98%,96%,100%,96%,72%,1.10%
MORSE SCHOOL,42.3559633,-71.1124071,Public,CAMBRIDGE,Middlesex,100%,100%,100%,100%,100%,100%,0%
PEABODY SCHOOL,42.3920909,-71.128184,Public,CAMBRIDGE,Middlesex,88%,99%,99%,99%,99%,88%,0%
SHADY HILL,42.3794111,-71.1086037,Private,CAMBRIDGE,Middlesex,100%,100%,100%,98%,95%,91%,0%
ST PETERS SCHOOL,42.3811188,-71.1295682,Private,CAMBRIDGE,Middlesex,81%,90%,81%,93%,79%,74%,0%
BLUE HILL MONTESSORI SCHOOL,42.1826584,-71.1145486,Private,CANTON,Norfolk,*,*,*,*,*,*,*
CLARKE SCHOOL EAST,42.170938,-71.1060059,Private,CANTON,Norfolk, , , , , , , 
DEAN S LUCE,42.1603866,-71.1330148,Public,CANTON,Norfolk,99%,100%,100%,99%,100%,97%,1.10%
JOHN F KENNEDY,42.1752436,-71.1425876,Public,CANTON,Norfolk,97%,97%,95%,97%,95%,95%,4.80%
JUDGE ROTENBERG SCHOOL,42.1584324,-71.1447732,Private,CANTON,Norfolk,*,*,*,*,*,*,*
LT PETER M HANSEN SCHOOL,42.1833533,-71.1289722,Public,CANTON,Norfolk,100%,98%,100%,100%,100%,100%,0%
ST JOHN THE EVANGELIST,42.1584324,-71.1447732,Private,CANTON,Norfolk, , , , , , , 
CARLISLE SCHOOL,42.52644,-71.3490047,Public,CARLISLE,Middlesex,96%,96%,96%,98%,96%,96%,1.90%
CARVER ELEMENTARY,41.8914421,-70.7745317,Public,CARVER,Plymouth,98%,98%,99%,99%,98%,98%,0.80%
CENTERVILLE ELEMENTARY,41.646175,-70.353557,Public,CENTERVILLE,Barnstable,97%,100%,97%,100%,97%,96%,2.70%
HAWLEMONT REGIONAL,42.6273064,-72.873985,Public,CHARLEMONT,Franklin, , , , , , , 
HEATH ELEMENTARY,42.7041032,-72.8314694,Public,CHARLEMONT,Franklin, , , , , , , 
HARVARD-KENT SCHOOL,42.3765831,-71.0578957,Public,CHARLESTOWN,Suffolk,3%,81%,75%,98%,68%,3%,0%
WARREN PRESCOTT,42.3779169,-71.0645135,Public,CHARLESTOWN,Suffolk,79%,81%,86%,100%,83%,70%,0%
CHARLTON ELEMENTARY SCHOOL,42.1321725,-71.9711689,Public,CHARLTON,Worcester,99%,100%,99%,99%,99%,98%,1.40%
CHATHAM ELEMENTARY,41.6864253,-69.9616363,Public,CHATHAM,Barnstable,84%,90%,86%,88%,84%,82%,12.00%
BYAM SCHOOL,42.5728258,-71.3823313,Public,CHELMSFORD,Middlesex,96%,99%,97%,99%,99%,97%,2.60%
CENTER ELEMENTARY,42.6003543,-71.3434814,Public,CHELMSFORD,Middlesex,99%,97%,99%,99%,99%,97%,1.40%
MURPHY & DWYER ACADEMY,42.5758755,-71.3479121,Private,CHELMSFORD,Middlesex,*,*,*,*,*,*,*
SOUTH ROW SCHOOL,42.5773859,-71.3355578,Public,CHELMSFORD,Middlesex,100%,100%,100%,100%,100%,100%,0%
SHORE EDUCATIONAL COLLABORATIVE,42.3917638,-71.0328284,Private,CHELSEA,Suffolk, , , , , , , 
SHURTLEFF EARLY CHILDHOOD,42.3899,-71.0354,Public,CHELSEA,Suffolk,98%,98%,100%,100%,100%,98%,0%
ST ROSE ELEMENTARY,42.3917638,-71.0328284,Private,CHELSEA,Suffolk, , , , , , , 
CHESHIRE ELEMENTARY,42.5636944,-73.1584364,Public,CHESHIRE,Berkshire,88%,94%,94%,97%,97%,85%,0%
CHESTER ELEMENTARY,42.301134,-72.984098,Public,CHESTER,Hampden, , , , , , , 
NEW HINGHAM REG ELEMENTARY,42.4031009,-72.8481979,Public,CHESTERFIELD,Hampshire, , , , , , , 
B C CAMPUS DAY SCHOOL,42.3303798,-71.166187,Private,CHESTNUT HILL,Middlesex, , , , , , , 
CHESTNUT HILL SCHOOL,42.3286189,-71.1650322,Private,CHESTNUT HILL,Middlesex,97%,97%,97%,100%,97%,94%,2.80%
MT ALVERNIA ACADEMY,42.3384541,-71.1737646,Private,CHESTNUT HILL,Middlesex,93%,100%,97%,97%,97%,83%,3.30%
ANNA E BARRY,42.1662428,-72.5878661,Public,CHICOPEE,Hampden,100%,100%,100%,100%,100%,100%,0%
BELCHER SCHOOL,42.1542599,-72.5759219,Public,CHICOPEE,Hampden,92%,93%,92%,99%,92%,92%,0%
BOWIE MEMORIAL SCHOOL,42.1978307,-72.5588114,Public,CHICOPEE,Hampden,82%,93%,93%,93%,93%,91%,0%
JOHN J STEFANIK SCHOOL,42.1487043,-72.6078672,Public,CHICOPEE,Hampden,93%,96%,96%,97%,93%,87%,0%
LAMBERT-LAVOIE,42.1762198,-72.5953554,Public,CHICOPEE,Hampden,98%,98%,98%,100%,98%,98%,0%
LITWIN SCHOOL,42.1748101,-72.5240316,Public,CHICOPEE,Hampden, , , , , , , 
PATRICK E BOWE,42.140567,-72.6085584,Public,CHICOPEE,Hampden,86%,93%,86%,100%,86%,86%,0%
SELSER MEMORIAL SCHOOL,42.1487043,-72.6078672,Public,CHICOPEE,Hampden,100%,100%,100%,100%,100%,100%,0%
ST JOAN OF ARC SCHOOL,42.1707531,-72.5975315,Private,CHICOPEE,Hampden, , , , , , , 
ST STANISLAUS,42.1468313,-72.5950694,Private,CHICOPEE,Hampden,*,*,*,*,*,*,*
STREIBER MEMORIAL,42.1945509,-72.5783757,Public,CHICOPEE,Hampden,100%,98%,100%,98%,98%,98%,0%
CHILMARK ELEMENTARY,41.34169,-70.743713,Public,CHILMARK,Dukes, , , , , , , 
CLARKSBURG ELEMENTARY,42.7207713,-73.0999303,Public,CLARKSBURG,Berkshire, , , , , , , 
CLINTON ELEMENTARY,42.4185291,-71.6864436,Public,CLINTON,Worcester,99%,100%,100%,100%,100%,99%,0%
JOSEPH OSGOOD,42.242323,-70.8092101,Public,COHASSET,Norfolk,98%,98%,100%,99%,100%,95%,2.00%
COLRAIN CENTRAL,42.675501,-72.697485,Public,COLRAIN,Franklin, , , , , , , 
ALCOTT,42.4532857,-71.3462004,Public,CONCORD,Middlesex,97%,97%,97%,95%,96%,93%,1.30%
NASHOBA BROOKS SCHOOL,42.477879,-71.379878,Private,CONCORD,Middlesex, , , , , , , 
THOREAU SCHOOL,42.4536762,-71.4015102,Public,CONCORD,Middlesex,86%,93%,85%,92%,80%,76%,0%
WILLARD ELEMENTARY,42.4294199,-71.3820663,Public,CONCORD,Middlesex,100%,100%,100%,100%,100%,98%,0%
CONWAY GRAMMAR SCHOOL,42.5093034,-72.6731014,Public,CONWAY,Franklin, , , , , , , 
WALDORF SCHOOL OF CAPE COD,41.623691,-70.440977,Private,COTUIT,Barnstable, , , , , , , 
BERKSHIRE TRAIL ELEMENTARY,42.4575863,-72.8889847,Public,CUMMINGTON,Hampshire, , , , , , , 
CRANEVILLE,42.4753813,-73.1777007,Public,DALTON,Berkshire,96%,98%,98%,96%,98%,96%,1.80%
ST AGNES ACADEMY,42.4736959,-73.1662138,Private,DALTON,Berkshire, , , , , , , 
CLARK CREATIVE LEARN,42.6052,-70.9379,Private,DANVERS,Essex, , , , , , , 
GREAT OAK,42.5698692,-70.9487626,Public,DANVERS,Essex,95%,95%,95%,97%,95%,93%,4.90%
HIGHLANDS,42.5648168,-70.9594957,Public,DANVERS,Essex,95%,92%,97%,97%,97%,90%,1.60%
IVAN G SMITH,42.5876299,-70.95392,Public,DANVERS,Essex,100%,100%,100%,100%,100%,100%,0%
RIVERSIDE ELEMENTARY,42.5750009,-70.932122,Public,DANVERS,Essex,98%,100%,100%,100%,100%,98%,0%
ST MARY OF THE ANNUNCIATION,42.5682551,-70.9482933,Private,DANVERS,Essex, , , , , , , 
WILLIS E THORPE,42.5725,-70.9205,Public,DANVERS,Essex,89%,77%,89%,89%,89%,90%,1.60%
CUSHMAN SCHOOL,41.5980959,-70.9414674,Public,DARTMOUTH,Bristol,93%,94%,93%,94%,93%,90%,7.00%
JAMES M QUINN SCHOOL,41.6274035,-70.9601549,Public,DARTMOUTH,Bristol,95%,96%,94%,92%,93%,92%,1.90%
DEDHAM COUNTRY DAY,42.2389,-71.1864,Private,DEDHAM,Norfolk, , , , , , , 
EARLY CHILDHOOD EDUCATION CTR,42.2436085,-71.1676536,Public,DEDHAM,Norfolk,97%,98%,99%,98%,99%,96%,1.50%
RASHI SCHOOL,42.2676056,-71.1971649,Private,DEDHAM,Norfolk,90%,100%,95%,98%,93%,88%,2.40%
BEMENT,42.5482791,-72.6037161,Private,DEERFIELD,Franklin, , , , , , , 
DIGHTON ELEMENTARY,41.835463,-71.121908,Public,DIGHTON,Bristol,93%,98%,95%,100%,95%,95%,0%
BRIDGE BOSTON CHARTER SCHOOL,42.2993486,-71.0836406,Public,DORCHESTER,Suffolk,69%,70%,75%,79%,75%,64%,1.30%
CODMAN ACADEMY CHARTER SCHOOL,42.289497,-71.0719905,Public,DORCHESTER,Suffolk,67%,78%,69%,91%,67%,62%,0%
COMPASS SCHOOL,42.3016305,-71.067605,Private,DORCHESTER,Suffolk,*,*,*,*,*,*,*
DR WILLIAM HENDERSON SCHOOL,42.2938872,-71.0623448,Public,DORCHESTER,Suffolk,78%,88%,79%,100%,67%,95%,1.70%
EDWARD EVERETT,42.3136479,-71.0597921,Public,DORCHESTER,Suffolk,*,*,*,*,*,*,*
JOHN P HOLLAND,42.3061086,-71.0737194,Public,DORCHESTER,Suffolk,79%,77%,79%,83%,81%,75%,0%
JOHN WINTHROP,42.3016305,-71.067605,Public,DORCHESTER,Suffolk,24%,24%,18%,60%,43%,24%,0%
JOSEPH LEE SCHOOL,42.2922853,-71.0804479,Public,DORCHESTER,Suffolk,91%,91%,91%,94%,87%,87%,0%
KING K-8,42.292246,-71.061936,Public,DORCHESTER,Suffolk,49%,53%,56%,77%,58%,49%,0%
LEE ACADEMY,42.2922752,-71.0803579,Public,DORCHESTER,Suffolk,79%,81%,82%,92%,84%,74%,1.60%
MATHER SCHOOL,42.3083614,-71.0610281,Public,DORCHESTER,Suffolk,92%,94%,90%,97%,90%,89%,0%
NEIGHBORHOOD HOUSE CHARTER,42.2932146,-71.0533014,Public,DORCHESTER,Suffolk,91%,96%,91%,99%,91%,90%,1.20%
NOTRE DAME MONTESSORI,42.3186357,-71.0448587,Private,DORCHESTER,Suffolk,*,*,*,*,*,*,*
O W HOLMES SCHOOL,42.2966849,-71.0748947,Public,DORCHESTER,Suffolk,26%,34%,26%,44%,26%,26%,1.20%
PAUL DEVER SCHOOL,42.317679,-71.0426997,Public,DORCHESTER,Suffolk,54%,54%,54%,54%,54%,54%,0%
POPE JOHN II COLUMBIA CAMPUS,42.3016305,-71.067605,Private,DORCHESTER,Suffolk,*,*,*,*,*,*,*
POPE JOHN PAUL II /NEPONSET CAMPUS,42.3016305,-71.067605,Private,DORCHESTER,Suffolk,88%,99%,88%,99%,88%,88%,1.10%
POPE JOHN PAUL II ACADEMY (LOWER),42.2743794,-71.0671308,Private,DORCHESTER,Suffolk,100%,100%,97%,100%,97%,100%,2.70%
RICHARD J MURPHY SCHOOL,42.2940401,-71.0490059,Public,DORCHESTER,Suffolk,95%,95%,94%,100%,95%,94%,0%
ROGER CLAP INNOVATION SCHOOL,42.3232057,-71.0581739,Public,DORCHESTER,Suffolk,83%,83%,83%,83%,83%,83%,0%
SARAH GREENWOOD,42.3016305,-71.067605,Public,DORCHESTER,Suffolk,76%,78%,76%,93%,80%,76%,0%
ST BRENDAN SCHOOL,42.2825146,-71.0512049,Private,DORCHESTER,Suffolk,53%,67%,47%,89%,50%,42%,0%
THOMAS KENNY,42.2865213,-71.0531934,Public,DORCHESTER,Suffolk,*,*,*,*,*,*,*
UP ACADEMY DORCHESTER,42.2996045,-71.0707302,Public,DORCHESTER,Suffolk,75%,75%,75%,83%,75%,70%,1.60%
WILLIAM E RUSSELL,42.3203616,-71.059592,Public,DORCHESTER,Suffolk,99%,99%,99%,99%,99%,99%,0%
WILLIAM MONROE TROTTER,42.315789,-71.0879068,Public,DORCHESTER,Suffolk,67%,74%,76%,91%,74%,74%,0%
DOUGLAS PRIMARY,42.0705563,-71.7089133,Public,DOUGLAS,Worcester,95%,97%,98%,98%,97%,95%,4.60%
CHARLES RIVER SCHOOL,42.2447584,-71.2787353,Private,DOVER,Norfolk, , , , , , , 
CHICKERING,42.2572881,-71.2847622,Public,DOVER,Norfolk,90%,96%,100%,96%,94%,86%,0%
BROOKSIDE ELEMENTARY,42.6729872,-71.3417058,Public,DRACUT,Middlesex,92%,98%,100%,100%,100%,90%,0%
GREENMONT AVENUE,42.6701525,-71.3087381,Public,DRACUT,Middlesex,100%,100%,100%,100%,100%,100%,0%
JOSEPH A. CAMPBELL,42.6631902,-71.2641698,Public,DRACUT,Middlesex,93%,99%,99%,99%,99%,99%,0%
MASON ROAD SCHOOL,42.0461151,-71.9052453,Public,DUDLEY,Worcester,98%,100%,100%,100%,100%,98%,0%
SWALLOW UNION SCHOOL,42.6731964,-71.4826354,Public,DUNSTABLE,Middlesex,91%,98%,100%,98%,100%,89%,0%
BAY FARM MONTESSORI,42.0080221,-70.7181201,Private,DUXBURY,Plymouth, , , , , , , 
CHANDLER ELEMENTARY,42.0358072,-70.737355,Public,DUXBURY,Plymouth,99%,99%,98%,98%,98%,89%,1.80%
CURTIS GUILD SCHOOL,42.3883127,-71.0042353,Public,EAST BOSTON,Suffolk,87%,87%,87%,100%,87%,87%,0%
DANTE ALIGHIERI,42.371514,-71.0376604,Public,EAST BOSTON,Suffolk, , , , , , , 
DONALD MCKAY,42.3692724,-71.0342448,Public,EAST BOSTON,Suffolk,*,*,*,*,*,*,*
EAST BOSTON CENTRAL CATHOLIC,42.3715682,-71.0399722,Private,EAST BOSTON,Suffolk, , , , , , , 
EDWARD BROOKE CHARTER SCHOOL 3,42.2818841,-71.1218834,Public,EAST BOSTON,Suffolk,92%,98%,95%,100%,94%,90%,0%
EEC/EAST BOSTON,42.3698437,-71.0342062,Public,EAST BOSTON,Suffolk,54%,87%,57%,95%,55%,54%,0%
HUGH ROE ODONNELL,42.3702137,-71.0388601,Public,EAST BOSTON,Suffolk,62%,82%,62%,85%,59%,59%,0%
JAMES OTIS,42.375254,-71.033871,Public,EAST BOSTON,Suffolk,47%,84%,53%,95%,51%,47%,0%
MANASSAH BRADLEY,42.3917518,-71.0049881,Public,EAST BOSTON,Suffolk,87%,87%,87%,100%,87%,87%,0%
MARIO UMANA ACADEMY,42.3783494,-71.0407923,Public,EAST BOSTON,Suffolk,81%,90%,83%,90%,79%,76%,0%
PATRICK J KENNEDY SCHOOL,42.3784286,-71.0303293,Public,EAST BOSTON,Suffolk,78%,96%,82%,99%,78%,78%,0%
SAMUEL ADAMS SCHOOL,42.3655301,-71.0348347,Public,EAST BOSTON,Suffolk,76%,92%,81%,97%,78%,74%,1.10%
CENTRAL SCHOOL,42.0300311,-70.9571861,Public,EAST BRIDGEWATER,Plymouth,83%,97%,83%,97%,82%,78%,0.70%
EAST BROOKFIELD ELEMENTARY,42.2293711,-72.036935,Public,EAST BROOKFIELD,Worcester, , , , , , , 
EAST FALMOUTH ELEMENTARY,41.5768949,-70.5602903,Public,EAST FALMOUTH,Barnstable,100%,100%,100%,100%,100%,100%,0%
FREETOWN ELEMENTARY,41.7610549,-71.0147743,Public,EAST FREETOWN,Bristol,98%,100%,100%,100%,100%,98%,0%
MEADOW BROOK,42.0787061,-72.4836966,Public,EAST LONGMEADOW,Hampden,100%,100%,99%,99%,99%,98%,1.50%
EAST TAUNTON ELEMENTARY,41.8713964,-71.0411058,Public,EAST TAUNTON,Bristol,99%,99%,99%,99%,99%,99%,0.90%
OLD POST RD ELEMENTARY,42.145605,-71.222725,Public,EAST WALPOLE,Norfolk,100%,100%,100%,99%,100%,99%,0%
EASTHAM ELEMENTARY SCHOOL,41.8410405,-69.973765,Public,EASTHAM,Barnstable, , , , , , , 
CALVARY BAPTIST SCHOOL,42.255995,-72.698144,Private,EASTHAMPTON,Hampshire,*,*,*,*,*,*,*
CENTER SCHOOL,42.2654031,-72.6695202,Public,EASTHAMPTON,Hampshire, , , , , , , 
MAPLE,42.2653796,-72.661615,Public,EASTHAMPTON,Hampshire,100%,100%,100%,98%,100%,98%,2.10%
NEIL A PEPIN SCHOOL,42.2687012,-72.6737024,Public,EASTHAMPTON,Hampshire,92%,96%,96%,98%,94%,90%,2.00%
EDGARTOWN ELEMENTARY,41.3890052,-70.5133599,Public,EDGARTOWN,Dukes,82%,96%,96%,96%,93%,82%,6.70%
ERVING ELEMENTARY,42.5895306,-72.4848097,Public,ERVING,Franklin, , , , , , , 
ESSEX ELEMENTARY SCHOOL,42.6320387,-70.7903257,Public,ESSEX,Essex,92%,97%,97%,92%,95%,92%,2.60%
KEVERIAN SCHOOL,42.4089053,-71.0447697,Public,EVERETT,Middlesex,92%,96%,96%,96%,96%,89%,0%
LAFAYETTE SCHOOL,42.4219614,-71.0510241,Public,EVERETT,Middlesex,99%,99%,99%,99%,99%,96%,1.10%
MADELINE ENGLISH SCHOOL,42.4135,-71.0691,Public,EVERETT,Middlesex,98%,100%,100%,99%,98%,98%,1.10%
PARLIN SCHOOL,42.4108565,-71.0506667,Public,EVERETT,Middlesex,95%,88%,86%,95%,87%,82%,1.10%
ST ANTHONY ELEMENTARY,42.405532,-71.058913,Private,EVERETT,Middlesex,100%,100%,100%,100%,100%,100%,0%
SUMNER G WHITTIER SCHOOL,42.4039982,-71.0576951,Public,EVERETT,Middlesex,94%,100%,99%,100%,98%,89%,0%
WEBSTER SCHOOL,42.4125307,-71.0389441,Public,EVERETT,Middlesex,100%,100%,100%,100%,100%,100%,0%
EAST FAIRHAVEN,41.6501137,-70.8625103,Public,FAIRHAVEN,Bristol,97%,98%,98%,98%,97%,95%,1.70%
LEROY WOOD SCHOOL,41.6362156,-70.8805925,Public,FAIRHAVEN,Bristol,99%,100%,99%,100%,99%,98%,1.20%
ST JOSEPH,41.6410166,-70.8786157,Private,FAIRHAVEN,Bristol, , , , , , , 
ACESE,41.6987277,-71.1411647,Public,FALL RIVER,Bristol, , , , , , , 
ANTIOCH SCHOOL,41.7100548,-71.1512831,Private,FALL RIVER,Bristol, , , , , , , 
ATLANTIS CHARTER SCHOOL,41.6940842,-71.1630732,Public,FALL RIVER,Bristol,95%,97%,100%,100%,99%,94%,0.90%
CARLTON VIVEIROS ELEMENTARY,41.6859107,-71.1768235,Public,FALL RIVER,Bristol,98%,98%,98%,100%,98%,98%,2.50%
EAST GATE CHRISTIAN ACADEMY,41.6946579,-71.177999,Private,FALL RIVER,Bristol, , , , , , , 
ESPIRITO SANTO,41.6879292,-71.1344548,Private,FALL RIVER,Bristol, , , , , , , 
FRANK M SILVIA SCHOOL,41.7332619,-71.1109868,Public,FALL RIVER,Bristol,96%,97%,97%,97%,97%,95%,5.10%
HENRY LORD COMMUNITY SCHOOL,41.6725776,-71.1688767,Public,FALL RIVER,Bristol,96%,98%,99%,98%,98%,96%,1.20%
HOLY NAME SCHOOL,41.713039,-71.1400251,Private,FALL RIVER,Bristol, , , , , , , 
HOLY TRINITY SCHOOL,41.676137,-71.1557679,Private,FALL RIVER,Bristol, , , , , , , 
JAMES TANSEY ELEMENTARY,41.7187134,-71.1322668,Public,FALL RIVER,Bristol,98%,100%,98%,100%,98%,96%,2.00%
JOHN J DORAN SCHOOL,41.7001689,-71.1650253,Public,FALL RIVER,Bristol,95%,97%,100%,100%,100%,95%,0%
LETOURNEAU ELEMENTARY,41.6729151,-71.1558425,Public,FALL RIVER,Bristol,95%,100%,99%,100%,100%,95%,2.50%
MARY FONSECA ELEMENTARY,41.7012262,-71.1384181,Public,FALL RIVER,Bristol,94%,95%,100%,100%,100%,89%,0%
SAMUEL WATSON,41.6843509,-71.1305751,Public,FALL RIVER,Bristol,89%,94%,98%,98%,98%,85%,0%
SPENCER BORDEN,41.7133259,-71.1310162,Public,FALL RIVER,Bristol,94%,94%,99%,99%,99%,94%,1.40%
ST MICHAEL SCHOOL,41.7233821,-71.1466715,Private,FALL RIVER,Bristol, , , , , , , 
ST STANISLAUS,41.6911082,-71.1685675,Private,FALL RIVER,Bristol, , , , , , , 
WILLIAM S GREENE,41.6861908,-71.1523125,Public,FALL RIVER,Bristol,*,*,*,*,*,*,*
MULLEN-HALL ELEMENTARY,41.5532208,-70.6085886,Public,FALMOUTH,Barnstable,88%,93%,97%,93%,92%,84%,5.20%
TEATICKET ELEMENTARY,41.5676324,-70.5909132,Public,FALMOUTH,Barnstable,100%,100%,100%,100%,100%,100%,0%
CLIFFORD M GRANGER,42.0660239,-72.6774348,Public,FEEDING HILLS,Hampden,94%,94%,94%,94%,94%,94%,5.60%
APPLEWILD SCHOOL,42.5927,-71.8087,Private,FITCHBURG,Worcester, , , , , , , 
CROCKER ELEMENTARY SCHOOL,42.6038746,-71.8062748,Public,FITCHBURG,Worcester,96%,98%,99%,100%,97%,96%,0%
MCKAY ARTS ACADEMY,42.5949643,-71.7894771,Public,FITCHBURG,Worcester,96%,99%,99%,99%,99%,96%,0%
REINGOLD ELEMENTARY,42.571385,-71.830917,Public,FITCHBURG,Worcester,99%,100%,99%,99%,99%,98%,0%
SOUTH ST ELEMENTARY,42.5710555,-71.797735,Public,FITCHBURG,Worcester,98%,100%,98%,100%,97%,96%,3.90%
ST ANTHONY ELEMENTARY,42.5903672,-71.7928509,Private,FITCHBURG,Worcester, , , , , , , 
ST BERNARD ELEMENTARY,42.573893,-71.7806569,Private,FITCHBURG,Worcester, , , , , , , 
HILL INSTITUTE,42.3325228,-72.6708927,Private,FLORENCE,Hampshire, , , , , , , 
ROBERT K FINN SCHOOL,42.3173115,-72.6934248,Public,FLORENCE,Hampshire,97%,94%,97%,94%,97%,94%,3.10%
ABBOTT MEMORIAL,42.6756385,-73.0370458,Public,FLORIDA,Berkshire, , , , , , , 
FORESTDALE ELEMENTARY,41.6917744,-70.4994721,Public,FORESTDALE,Barnstable,99%,99%,99%,100%,99%,99%,1.50%
ACADEMY AT FOXBOROUGH,42.0743889,-71.236836,Private,FOXBORO,Norfolk, , , , , , , 
CHARLES TAYLOR ELEMENTARY,42.0486549,-71.253691,Public,FOXBORO,Norfolk,95%,98%,98%,98%,98%,95%,2.30%
FOXBORO REG CHARTER SCHOOL,42.05689,-71.244916,Public,FOXBORO,Norfolk,86%,86%,90%,97%,95%,86%,1.00%
KINGS WOOD MONTESSORI,42.0665127,-71.2536801,Private,FOXBORO,Norfolk, , , , , , , 
MABELLE BURRELL ELEMENTARY,42.0610368,-71.2061374,Public,FOXBORO,Norfolk,97%,94%,97%,97%,97%,94%,3.00%
SAGE SCHOOL,42.0813061,-71.2301237,Private,FOXBORO,Norfolk, , , , , , , 
VINCENT M IGO ELEMENTARY,42.0609593,-71.249785,Public,FOXBORO,Norfolk,97%,98%,99%,98%,100%,90%,1.10%
BARBIERI ELEMENTARY,42.2795401,-71.4322836,Public,FRAMINGHAM,Middlesex,99%,98%,97%,100%,99%,97%,0%
BRIGHTON SCHOOL,42.325375,-71.415955,Private,FRAMINGHAM,Middlesex, , , , , , , 
BROPHY SCHOOL,42.3063804,-71.4643059,Public,FRAMINGHAM,Middlesex,94%,97%,94%,100%,93%,93%,0%
CHARLOTTE A DUNNING,42.3213902,-71.4305981,Public,FRAMINGHAM,Middlesex,95%,94%,94%,95%,94%,91%,0%
HEMENWAY ELEMENTARY,42.3301628,-71.4322143,Public,FRAMINGHAM,Middlesex,84%,82%,86%,93%,84%,83%,9.00%
KING ELEMENTARY,42.279286,-71.4161565,Public,FRAMINGHAM,Middlesex,100%,99%,100%,100%,100%,100%,0%
LEARNING CENTER FOR DEAF,42.3068825,-71.426765,Private,FRAMINGHAM,Middlesex, , , , , , , 
MARY E STAPLETON,42.3267027,-71.3998737,Public,FRAMINGHAM,Middlesex,95%,98%,98%,98%,98%,98%,1.80%
METRO WEST JEWISH DAY SCHOOL,42.3042941,-71.4522671,Private,FRAMINGHAM,Middlesex, , , , , , , 
MIRIAM MCCARTHY SCHOOL,42.2912068,-71.4158942,Public,FRAMINGHAM,Middlesex,99%,99%,99%,99%,99%,99%,0%
POTTER ROAD,42.3389353,-71.4140563,Public,FRAMINGHAM,Middlesex,99%,99%,99%,99%,99%,99%,1.40%
ST BRIDGET ELEMENTARY,42.2986999,-71.432,Private,FRAMINGHAM,Middlesex,89%,89%,89%,89%,89%,89%,11.10%
SUDBURY VALLEY,42.3245524,-71.4642976,Private,FRAMINGHAM,Middlesex, , , , , , , 
SUMMIT MONTESSORI,42.3046367,-71.4486818,Private,FRAMINGHAM,Middlesex, , , , , , , 
WOODROW WILSON,42.2710858,-71.3979395,Public,FRAMINGHAM,Middlesex,94%,96%,92%,83%,93%,91%,0%
BENJAMIN FRANKLIN CLASSICAL CHARTER SCHOOL,42.0890574,-71.400625,Public,FRANKLIN,Norfolk,96%,98%,100%,100%,100%,96%,0%
DAVIS THAYER SCHOOL,42.0841827,-71.4023526,Public,FRANKLIN,Norfolk,98%,100%,100%,100%,100%,98%,0%
HELEN KELLER ELEMENTARY SCHOOL,42.1092193,-71.3976517,Public,FRANKLIN,Norfolk,100%,100%,100%,100%,100%,100%,0%
J F KENNEDY MEMORIAL SCHOOL,42.1082879,-71.4276927,Public,FRANKLIN,Norfolk,100%,100%,100%,98%,100%,98%,2.00%
JEFFERSON ELEMENTARY SCHOOL,42.0524881,-71.4181624,Public,FRANKLIN,Norfolk,97%,98%,100%,100%,100%,97%,0%
OAK STREET ELEMENTARY,42.0915365,-71.4061334,Public,FRANKLIN,Norfolk,95%,92%,90%,95%,92%,87%,1.70%
PARMENTER SCHOOL,42.071802,-71.395426,Public,FRANKLIN,Norfolk,94%,97%,98%,98%,98%,92%,1.60%
SUNRISE MONTESSORI SCHOOL,42.082808,-71.410043,Private,FRANKLIN,Norfolk, , , , , , , 
HOLY FAMILY,42.5739818,-71.9988879,Private,GARDNER,Worcester,100%,100%,100%,100%,93%,93%,6.70%
WATERFORD ST SCHOOL,42.5725883,-72.0036887,Public,GARDNER,Worcester,100%,100%,99%,100%,100%,99%,0.50%
PERLEY ELEMENTARY,42.726259,-70.9885797,Public,GEORGETOWN,Essex,98%,98%,97%,98%,97%,95%,1.10%
HARDWICK ELEMENTARY SCHOOL,42.317509,-72.1847049,Public,GILBERTVILLE,Worcester, , , , , , , 
GILL ELEMENTARY,42.6492516,-72.4975881,Public,GILL,Franklin, , , , , , , 
BEEMAN SCHOOL,42.6369194,-70.6724496,Public,GLOUCESTER,Essex,100%,100%,100%,97%,97%,93%,1.70%
EAST GLOUCESTER ELEMENTARY,42.608977,-70.6481869,Public,GLOUCESTER,Essex,91%,98%,98%,100%,98%,88%,0%
EASTERN POINT DAY SCHOOL,42.6159285,-70.6619888,Private,GLOUCESTER,Essex, , , , , , , 
FAITH CHRISTIAN SCHOOL,42.632607,-70.678602,Private,GLOUCESTER,Essex, , , , , , , 
PLUM COVE,42.6748468,-70.6666633,Public,GLOUCESTER,Essex,89%,91%,89%,91%,89%,86%,5.70%
VETERANS MEMORIAL,42.6199802,-70.6499599,Public,GLOUCESTER,Essex,75%,78%,78%,84%,78%,72%,0%
WEST PARISH SCHOOL,42.6195394,-70.7119901,Public,GLOUCESTER,Essex,96%,96%,96%,96%,96%,93%,0%
TOUCHSTONE COMMUNITY SCHOOL,42.1827335,-71.6440551,Private,GRAFTON,Worcester, , , , , , , 
WEST ST ELEMENTARY,42.2576448,-72.5197185,Public,GRANBY,Hampshire,92%,100%,100%,100%,100%,92%,0%
GRANVILLE VILLAGE SCHOOL,42.0662049,-72.8542649,Public,GRANVILLE,Hampden, , , , , , , 
MUDDY BROOK ELEMENTARY,42.2457259,-73.3295297,Public,GREAT BARRINGTON,Berkshire,89%,89%,92%,92%,94%,77%,6.50%
RUDOLF STEINER,42.1895338,-73.4087248,Private,GREAT BARRINGTON,Berkshire, , , , , , , 
FEDERAL STREET SCHOOL,42.5913933,-72.5977013,Public,GREENFIELD,Franklin,100%,100%,100%,100%,100%,100%,0%
FOUR CORNERS,42.6089778,-72.588962,Public,GREENFIELD,Franklin,96%,96%,98%,96%,96%,96%,4.40%
GREENFIELD CENTER SCHOOL,42.5745304,-72.5828668,Private,GREENFIELD,Franklin, , , , , , , 
NEWTON SCHOOL,42.5861968,-72.6139785,Public,GREENFIELD,Franklin,*,*,*,*,*,*,*
COUNTRY DAY OF HOLY UNION,42.6007125,-71.5652474,Private,GROTON,Middlesex, , , , , , , 
FLORENCE ROCHE SCHOOL,42.6159235,-71.578401,Public,GROTON,Middlesex,89%,94%,93%,95%,93%,89%,4.60%
GROTON COMMUNITY SCHOOL,42.6112018,-71.5745152,Private,GROTON,Middlesex, , , , , , , 
SEVEN HILLS SCHOOL,42.6112018,-71.5745152,Private,GROTON,Middlesex, , , , , , , 
DR ELMER BAGNALL,42.7603688,-71.0314451,Public,GROVELAND,Essex,98%,98%,98%,98%,98%,98%,1.60%
HADLEY ELEMENTARY,42.3523156,-72.5863134,Public,HADLEY,Hampshire,97%,97%,97%,97%,93%,93%,0%
HARTSBROOK SCHOOL,42.3286796,-72.5651581,Private,HADLEY,Hampshire,27%,31%,0%,0%,13%,0%,46.70%
PIONEER VALLEY CHINESE CHARTER SCH,42.3530562,-72.5581874,Public,HADLEY,Hampshire,100%,100%,100%,100%,98%,98%,2.00%
HALIFAX ELEMENTARY SCHOOL,41.9907478,-70.8590792,Public,HALIFAX,Plymouth,99%,99%,99%,99%,99%,99%,1.30%
WINTHROP SCHOOL,42.6133646,-70.8704975,Public,HAMILTON,Essex,92%,98%,97%,95%,97%,92%,0%
GREEN MEADOWS,42.0664901,-72.4136158,Public,HAMPDEN,Hampden,97%,97%,100%,100%,100%,97%,0%
HANCOCK ELEMENTARY,42.5481362,-73.3109495,Public,HANCOCK,Berkshire, , , , , , , 
CEDAR ELEMENTARY SCHOOL,42.1312121,-70.867543,Public,HANOVER,Plymouth,*,*,*,*,*,*,*
CENTER ELEMENTARY SCHOOL,42.1189902,-70.8419866,Public,HANOVER,Plymouth,93%,95%,90%,95%,92%,90%,2.70%
MAQUAN ELEMENTARY SCHOOL,42.0630728,-70.8569189,Public,HANSON,Plymouth,98%,98%,99%,98%,99%,98%,1.00%
HILDRETH ELEMENTARY SCHOOL,42.4969958,-71.5812043,Public,HARVARD,Worcester,98%,98%,98%,98%,98%,98%,1.60%
HARWICH ELEMENTARY,41.692133,-70.069797,Public,HARWICH,Barnstable,89%,96%,94%,94%,94%,94%,4.20%
HATFIELD ELEMENTARY SCHOOL,42.3700892,-72.5981446,Public,HATFIELD,Hampshire,100%,97%,94%,97%,94%,94%,3.20%
BARTLETT KINDERGARTEN CTR,42.7762015,-71.0772796,Public,HAVERHILL,Essex,98%,100%,100%,99%,98%,98%,0.80%
BRADFORD ELEMENTARY,42.7571993,-71.0695248,Public,HAVERHILL,Essex,100%,100%,100%,100%,100%,100%,0%
CONSENTINO SCHOOL,42.7702254,-71.1030911,Public,HAVERHILL,Essex, , , , , , , 
CROWELL SCHOOL,42.7667111,-71.0538378,Public,HAVERHILL,Essex,94%,97%,97%,98%,97%,93%,0%
GOLDEN HILL SCHOOL,42.7755252,-71.0584311,Public,HAVERHILL,Essex,94%,98%,100%,98%,100%,94%,0%
GREENLEAF SCHOOL,42.7762015,-71.0772796,Public,HAVERHILL,Essex,*,*,*,*,*,*,*
HILLTOP NURSERY & KINDERGARTEN,42.7762015,-71.0772796,Private,HAVERHILL,Essex, , , , , , , 
HILLVIEW MONTESSORI CHARTER SCHOOL,42.7660307,-71.1199589,Public,HAVERHILL,Essex,89%,92%,86%,84%,86%,84%,2.70%
PENTUCKET LAKE SCHOOL,42.7951076,-71.0759643,Public,HAVERHILL,Essex,84%,84%,84%,84%,84%,84%,0%
SILVER HILL HORACE MANN CHARTER,42.7692216,-71.1011472,Public,HAVERHILL,Essex,97%,98%,98%,99%,99%,96%,0%
ST JOSEPH ELEMENTARY,42.7789791,-71.0917243,Private,HAVERHILL,Essex, , , , , , , 
TEACH,42.7885,-71.0866,Public,HAVERHILL,Essex, , , , , , , 
TILTON SCHOOL,42.7751151,-71.0955306,Public,HAVERHILL,Essex,97%,97%,100%,98%,100%,97%,0%
WALNUT SQUARE SCHOOL,42.7937011,-71.083391,Public,HAVERHILL,Essex,97%,97%,97%,97%,97%,97%,2.60%
HILLTOWN COOP CHARTER SCHOOL,42.376189,-72.705674,Public,HAYDENVILLE,Hampshire, , , , , , , 
DERBY ACADEMY,42.248505,-70.8938581,Private,HINGHAM,Plymouth, , , , , , , 
EAST ELEMENTARY SCHOOL,42.4031009,-72.8481979,Public,HINGHAM,Plymouth,79%,88%,88%,93%,84%,75%,3.60%
FOSTER ELEMENTARY,42.2530432,-70.9014699,Public,HINGHAM,Plymouth,98%,98%,98%,100%,98%,98%,2.00%
OLD COLONY MONTESSORI,42.1791795,-70.901723,Private,HINGHAM,Plymouth, , , , , , , 
PLYMOUTH RIVER SCHOOL,42.2104095,-70.9021461,Public,HINGHAM,Plymouth,100%,100%,100%,100%,100%,100%,0%
SOUTH ELEMENTARY,42.1988129,-70.883851,Public,HINGHAM,Plymouth,99%,99%,99%,95%,97%,92%,2.60%
SOUTH SHORE CONSERVATORY,42.2346031,-70.9125821,Private,HINGHAM,Plymouth, , , , , , , 
ST PAUL SCHOOL,42.2431557,-70.8906009,Private,HINGHAM,Plymouth, , , , , , , 
SU ESCUELA LANGUAGE ACADEMY,42.2480499,-70.920588,Private,HINGHAM,Plymouth, , , , , , , 
KITTREDGE,42.4384189,-73.1226022,Public,HINSDALE,Berkshire, , , , , , , 
JOHN F KENNEDY,42.1501694,-70.9989718,Public,HOLBROOK,Norfolk,100%,100%,100%,100%,100%,100%,0%
ST JOSEPH SCHOOL,42.1505944,-71.0061729,Private,HOLBROOK,Norfolk, , , , , , , 
DAVIS HILL ELEMENTARY,42.3567595,-71.8586651,Public,HOLDEN,Worcester,84%,84%,81%,88%,81%,74%,5.20%
DAWSON ELEMENTARY,42.3375123,-71.851119,Public,HOLDEN,Worcester,98%,98%,98%,97%,98%,97%,3.00%
HOLDEN CHRISTIAN ACADEMY,42.3406531,-71.8674956,Private,HOLDEN,Worcester, , , , , , , 
LEROY E MAYO SCHOOL,42.3497908,-71.8233454,Public,HOLDEN,Worcester,97%,96%,99%,99%,97%,95%,5.50%
HOLLAND ELEMENTARY,42.065373,-72.1597995,Public,HOLLAND,Hampden, , , , , , , 
PLACENTINO SCHOOL,42.2070725,-71.422187,Public,HOLLISTON,Middlesex,99%,98%,99%,97%,98%,97%,2.60%
BLESSED SACRAMENT SCHOOL,42.1955427,-72.6317149,Private,HOLYOKE,Hampden, , , , , , , 
E N WHITE SCHOOL,42.2250217,-72.6263237,Public,HOLYOKE,Hampden,96%,100%,100%,100%,100%,96%,0%
FIRST LUTHERAN,42.2042586,-72.6162009,Private,HOLYOKE,Hampden, , , , , , , 
HOLYOKE COMMUNITY CHARTER SCHOOL,42.1850306,-72.6289764,Public,HOLYOKE,Hampden,89%,91%,89%,92%,86%,81%,0%
KELLY ELEMENTARY,42.2064596,-72.6090848,Public,HOLYOKE,Hampden,99%,99%,100%,100%,100%,99%,0%
LT ELMER J MCMAHON ELEMENTARY,42.1844958,-72.6479324,Public,HOLYOKE,Hampden,100%,100%,100%,100%,100%,100%,0%
MATER DOLOROSA,42.2106715,-72.6053639,Private,HOLYOKE,Hampden, , , , , , , 
MAURICE A DONAHUE SCHOOL,42.177654,-72.640384,Public,HOLYOKE,Hampden,94%,96%,96%,97%,96%,94%,1.30%
MORGAN ELEMENTARY,42.196103,-72.6084825,Public,HOLYOKE,Hampden,62%,52%,88%,79%,74%,62%,0%
PECK-LAWRENCE FULL SERVICE COMM SCHOOL (LAWRENCE CAMPUS),42.2042586,-72.6162009,Public,HOLYOKE,Hampden,95%,100%,100%,100%,100%,95%,0%
SPRINGDALE EDUCATION CENTER,42.204617,-72.611667,Private,HOLYOKE,Hampden, , , , , , , 
SULLIVAN ELEMENTARY,42.2042586,-72.6162009,Public,HOLYOKE,Hampden,96%,96%,96%,97%,96%,93%,0%
THE CENTER SCHOOL,42.2042586,-72.6162009,Private,HOLYOKE,Hampden, , , , , , , 
MEMORIAL SCHOOL,42.131208,-71.5359284,Public,HOPEDALE,Worcester,99%,100%,100%,99%,100%,99%,0%
CENTER,42.2267212,-71.539093,Public,HOPKINTON,Middlesex,98%,98%,99%,99%,99%,98%,0.90%
BERKSHIRE MEADOWS (JRI),42.2542548,-73.3662214,Private,HOUSATONIC,Berkshire, , , , , , , 
HUBBARDSTON CENTER SCHOOL,42.4745854,-72.0074554,Public,HUBBARDSTON,Worcester,95%,97%,100%,100%,95%,92%,0%
FARLEY ELEMENTARY,42.391736,-71.566139,Public,HUDSON,Middlesex,99%,99%,99%,99%,99%,99%,1.30%
FIRST STEPS,42.384157,-71.566378,Private,HUDSON,Middlesex, , , , , , , 
FOREST AVE ELEMENTARY,42.3900934,-71.5453429,Public,HUDSON,Middlesex,96%,96%,100%,98%,100%,96%,1.80%
MULREADY ELEMENTARY,42.3971289,-71.5407701,Public,HUDSON,Middlesex,98%,100%,100%,100%,100%,98%,0%
LILLIAN JACOBS,42.3068131,-70.9089761,Public,HULL,Plymouth,72%,81%,81%,91%,76%,72%,3.40%
LITTLEVILLE ELEMENTARY,42.249773,-72.868946,Public,HUNTINGTON,Hampshire,*,*,*,*,*,*,*
ACADEMY OF EARLY LEARNING,41.662,-70.305,Private,HYANNIS,Barnstable, , , , , , , 
BCHMCPS ELEMENTARY,41.6524911,-70.2881124,Public,HYANNIS,Barnstable,99%,99%,97%,99%,99%,97%,1.30%
HYANNIS WEST ELEMENTARY,41.6497299,-70.3162316,Public,HYANNIS,Barnstable,98%,98%,95%,98%,98%,98%,0%
BOSTON RENAISSANCE CHARTER SCHOOL,42.2504852,-71.1266109,Public,HYDE PARK,Suffolk,98%,99%,99%,99%,99%,98%,0.80%
ELIHU GREENWOOD,42.2653839,-71.1174871,Public,HYDE PARK,Suffolk,86%,88%,88%,81%,88%,85%,5.10%
FRANKLIN ROOSEVELT LOWER CAMPUS,42.233938,-71.132846,Public,HYDE PARK,Suffolk,48%,65%,55%,88%,88%,48%,0%
HENRY GREW,42.256859,-71.1271725,Public,HYDE PARK,Suffolk,58%,56%,56%,64%,54%,50%,0%
NEW BEGINNINGS ACADEMY,42.2572815,-71.1216563,Private,HYDE PARK,Suffolk, , , , , , , 
PARKSIDE CHRISTIAN ACADEMY,42.2396336,-71.1371197,Private,HYDE PARK,Suffolk,*,*,*,*,*,*,*
WILLIAM ELLERY CHANNING ELEM,42.2565289,-71.1240559,Public,HYDE PARK,Suffolk,54%,67%,52%,77%,54%,43%,0%
INDIAN ORCHARD ELEMENTARY,42.1549991,-72.4939163,Public,INDIAN ORCHARD,Hampden,92%,93%,91%,100%,93%,91%,0%
CUVILLY ARTS & EARTH CENTER,42.6791832,-70.8411558,Private,IPSWICH,Essex, , , , , , , 
PAUL DOYON ELEMENTARY,42.6791832,-70.8411558,Public,IPSWICH,Essex,97%,95%,95%,97%,95%,95%,6.90%
WINTHROP ELEMENTARY,42.6818022,-70.8393172,Public,IPSWICH,Essex,81%,87%,83%,90%,75%,73%,0%
BOSTON TEACHERS UNION SCHOOL,42.2946217,-71.1159852,Public,JAMAICA PLAIN,Suffolk,*,*,*,*,*,*,*
BRITISH SCHOOL OF BOSTON,42.3094526,-71.1301196,Private,JAMAICA PLAIN,Suffolk, , , , , , , 
CURLEY K-8 SCHOOL,42.3185557,-71.1132315,Public,JAMAICA PLAIN,Suffolk,33%,47%,39%,65%,37%,33%,0.70%
EARLY LEARNING CENTER - WEST ZONE,42.3097365,-71.1151431,Public,JAMAICA PLAIN,Suffolk,94%,92%,92%,89%,92%,89%,0%
ITALIAN HOME FOR CHILDREN,42.3023342,-71.1266045,Private,JAMAICA PLAIN,Suffolk, , , , , , , 
J.F. KENNEDY,42.3219427,-71.1057648,Public,JAMAICA PLAIN,Suffolk,90%,92%,92%,100%,92%,87%,0%
JAMES HENNIGAN,42.325931,-71.1067185,Public,JAMAICA PLAIN,Suffolk,80%,80%,76%,83%,89%,76%,2.20%
JOSEPH P. MANNING,42.3055578,-71.1314643,Public,JAMAICA PLAIN,Suffolk, , , , , , , 
MATCH COMMUNITY CHARTER SCHOOL,42.3097365,-71.1151431,Public,JAMAICA PLAIN,Suffolk,*,*,*,*,*,*,*
MISSION HILL SCHOOL,42.3072595,-71.114297,Public,JAMAICA PLAIN,Suffolk, , , , , , , 
NEIGHBORHOOD SCHOOL,42.3108999,-71.1007,Private,JAMAICA PLAIN,Suffolk, , , , , , , 
KINGSTON ELEMENTARY,41.9851033,-70.7203169,Public,KINGSTON,Plymouth,99%,100%,98%,98%,98%,97%,1.60%
SACRED HEART ELEMENTARY,41.9518757,-70.7365244,Private,KINGSTON,Plymouth,94%,94%,94%,94%,100%,94%,5.70%
ASSAWOMPSET SCHOOL,41.8475675,-70.9470105,Public,LAKEVILLE,Plymouth,99%,98%,99%,99%,99%,99%,1.10%
MULLEIN HILL CHRISTIAN ACADEMY,41.8577947,-70.9313554,Private,LAKEVILLE,Plymouth, , , , , , , 
DR FRANKLIN PERKINS SCHOOL,42.4621694,-71.6720133,Private,LANCASTER,Worcester, , , , , , , 
MARY ROWLANDSON SCHOOL,42.4683348,-71.6756095,Public,LANCASTER,Worcester,97%,100%,100%,96%,99%,92%,4.10%
LANESBOROUGH ELEMENTARY,42.5140385,-73.2207325,Public,LANESBOROUGH,Berkshire, , , , , , , 
COMMUNITY DAY ARLINGTON SCHOOL,42.7172958,-71.1740356,Public,LAWRENCE,Essex,91%,98%,99%,98%,95%,85%,0%
COMMUNITY DAY CHARTER SCHOOL - GATEWAY,42.7070354,-71.1631137,Public,LAWRENCE,Essex,98%,100%,100%,100%,100%,98%,0%
COMMUNITY DAY CHARTER SCHOOL - PROSPECT,42.7094986,-71.1677022,Public,LAWRENCE,Essex,95%,98%,98%,100%,93%,90%,0%
COMMUNITY DAY CHARTER SCHOOL - WEBSTER,42.7070354,-71.1631137,Public,LAWRENCE,Essex,98%,100%,100%,100%,100%,98%,0%
COMMUNITY DAY LEARNING CTR,42.6910308,-71.1452017,Private,LAWRENCE,Essex,100%,100%,100%,100%,100%,100%,0%
EDWARD F PARTHUM SCHOOL,42.718558,-71.1432788,Public,LAWRENCE,Essex,93%,100%,100%,99%,99%,93%,1.50%
EMILY G WETHERBEE SCHOOL,42.7070354,-71.1631137,Public,LAWRENCE,Essex,97%,100%,100%,100%,98%,97%,0%
FRANCIS M LEAHY,42.7146346,-71.1614877,Public,LAWRENCE,Essex,86%,95%,99%,98%,97%,83%,0%
G.L.C.A.C. CHILD CARE CENTER,42.6900063,-71.1721127,Private,LAWRENCE,Essex, , , , , , , 
HENNESSEY,42.6970133,-71.1770135,Public,LAWRENCE,Essex,93%,99%,98%,97%,95%,91%,1.00%
JOHN BREEN SCHOOL,42.7070354,-71.1631137,Public,LAWRENCE,Essex,99%,100%,100%,100%,98%,98%,0%
LAWLOR EARLY CHILDHOOD CTR,42.7070354,-71.1631137,Public,LAWRENCE,Essex,95%,99%,99%,100%,99%,94%,0.60%
LAWRENCE CATHOLIC ACADEMY,42.6977481,-71.1594252,Private,LAWRENCE,Essex,70%,70%,81%,77%,81%,86%,0%
LAWRENCE FAMILY DEVELOP CHARTER SCH,42.7087168,-71.17375,Public,LAWRENCE,Essex,100%,100%,100%,100%,100%,100%,0%
LAWRENCE FAMILY PUBLIC ACADEMY,42.7007246,-71.1828554,Public,LAWRENCE,Essex,96%,97%,99%,100%,100%,96%,0%
ROBERT FROST SCHOOL,42.6848977,-71.1678028,Public,LAWRENCE,Essex,94%,100%,99%,100%,98%,97%,0%
ROLLINS EARLY CHILDHOOD CTR,42.7140441,-71.1485391,Public,LAWRENCE,Essex,97%,98%,100%,99%,99%,96%,0%
LEE ELEMENTARY,42.3061021,-73.2361078,Public,LEE,Berkshire,100%,100%,100%,100%,100%,100%,0%
ST MARY SCHOOL,42.3070314,-73.242606,Private,LEE,Berkshire, , , , , , , 
LEEDS ELEMENTARY,42.3519041,-72.6984349,Public,LEEDS,Hampshire,100%,96%,100%,100%,100%,96%,0%
LEICESTER PRIMARY SCHOOL,42.2538098,-71.9070424,Public,LEICESTER,Worcester,96%,100%,100%,100%,98%,95%,2.00%
MCAULEY NAZARETH SCHOOL,42.245926,-71.9086843,Private,LEICESTER,Worcester, , , , , , , 
BERKSHIRE CHRISTIAN SCHOOL,42.337802,-73.282819,Private,LENOX,Berkshire, , , , , , , 
BERKSHIRE COUNTRY DAY SCHOOL,42.345897,-73.326015,Private,LENOX,Berkshire, , , , , , , 
MONTESSORI SCHOOL OF THE BERKSHIRES,42.3329647,-73.2517851,Private,LENOX,Berkshire,*,*,*,*,*,*,*
MORRIS ELEMENTARY,42.355379,-73.297439,Public,LENOX,Berkshire,95%,95%,95%,95%,95%,95%,4.90%
FALL BROOK SCHOOL,42.495517,-71.7680784,Public,LEOMINSTER,Worcester,86%,91%,95%,99%,94%,88%,1.20%
JOHNNY APPLESEED SCHOOL,42.5517996,-71.7397629,Public,LEOMINSTER,Worcester,94%,96%,99%,100%,100%,90%,0%
NORTHWEST ELEMENTARY,42.5367837,-71.7653679,Public,LEOMINSTER,Worcester,98%,100%,98%,100%,98%,98%,0%
PRIEST STREET,42.537313,-71.752864,Public,LEOMINSTER,Worcester,92%,92%,93%,97%,93%,91%,0.70%
SOUTHEAST SCHOOL,42.5187701,-71.7445529,Public,LEOMINSTER,Worcester,64%,70%,73%,70%,73%,64%,0.90%
ST ANNA SCHOOL,42.5178848,-71.7524451,Private,LEOMINSTER,Worcester, , , , , , , 
ST LEO SCHOOL,42.5298811,-71.7573917,Private,LEOMINSTER,Worcester,56%,74%,76%,100%,76%,56%,0%
LEVERETT ELEMENTARY,42.4631442,-72.4967537,Public,LEVERETT,Franklin, , , , , , , 
ARMENIAN SISTERS,42.4376,-71.2178,Private,LEXINGTON,Middlesex, , , , , , , 
BOWMAN,42.4164102,-71.2016591,Public,LEXINGTON,Middlesex,98%,98%,99%,99%,99%,94%,1.10%
BRIDGE,42.4339432,-71.2380741,Public,LEXINGTON,Middlesex,97%,96%,99%,97%,100%,92%,0%
COTTING SCHOOL,42.4200197,-71.2375974,Private,LEXINGTON,Middlesex, , , , , , , 
FISKE SCHOOL,42.4584944,-71.2202099,Public,LEXINGTON,Middlesex,93%,99%,93%,99%,96%,90%,1.40%
HARRINGTON ELEMENTARY,42.445824,-71.1993751,Public,LEXINGTON,Middlesex,92%,95%,95%,100%,97%,87%,1.60%
JOSEPH ESTABROOK SCHOOL,42.4778724,-71.2375564,Public,LEXINGTON,Middlesex,100%,100%,100%,100%,100%,98%,0%
LEXINGTON MONTESSORI,42.4176,-71.2153,Private,LEXINGTON,Middlesex, , , , , , , 
MARIA HASTINGS SCHOOL,42.4454344,-71.2533613,Public,LEXINGTON,Middlesex,93%,95%,97%,97%,95%,93%,3.40%
WALDORF SCHOOL,42.4297465,-71.2058902,Private,LEXINGTON,Middlesex, , , , , , , 
PEARL RHODES ELEMENTARY,42.691411,-72.6277172,Public,LEYDEN,Franklin, , , , , , , 
BIRCHES SCHOOL,42.4278195,-71.3031264,Private,LINCOLN,Middlesex, , , , , , , 
HANSCOM PRIMARY,42.4572362,-71.277044,Public,LINCOLN,Middlesex,94%,97%,97%,97%,96%,94%,4.30%
LINCOLN SCHOOL,42.4241832,-71.3155996,Public,LINCOLN,Middlesex,94%,91%,97%,94%,94%,88%,4.60%
OAK MEADOW MONTESSORI,42.5372893,-71.5128022,Private,LITTLETON,Middlesex, , , , , , , 
SHAKER LANE,42.531789,-71.455266,Public,LITTLETON,Middlesex,99%,100%,100%,100%,100%,98%,0.90%
BLUEBERRY HILL,42.0593165,-72.5597582,Public,LONGMEADOW,Hampden,95%,96%,98%,96%,98%,95%,1.80%
CENTER SCHOOL,42.0484971,-72.581858,Public,LONGMEADOW,Hampden,98%,98%,98%,98%,100%,98%,2.00%
HERITAGE ACADEMY,42.0669272,-72.5574733,Private,LONGMEADOW,Hampden, , , , , , , 
LONGMEADOW MONTESSORI,42.0521276,-72.5826098,Private,LONGMEADOW,Hampden,69%,88%,83%,93%,83%,64%,2.40%
ST MARYS,42.056789,-72.578764,Private,LONGMEADOW,Hampden, , , , , , , 
WILLIE ROSS SCHOOL,42.0309852,-72.5782385,Private,LONGMEADOW,Hampden, , , , , , , 
WOLF SWAMP ROAD SCHOOL,42.0381512,-72.5603654,Public,LONGMEADOW,Hampden,98%,100%,100%,100%,100%,98%,0%
YESHIVA ACADEMY,42.0501022,-72.5828642,Private,LONGMEADOW,Hampden, , , , , , , 
BARTLETT COMMUNITY PARTNERSHIP,42.6454124,-71.328907,Public,LOWELL,Middlesex,96%,100%,100%,96%,96%,92%,0%
CHARLES W. MOREY ELEMENTRY,42.6334247,-71.3161718,Public,LOWELL,Middlesex,98%,99%,99%,99%,99%,98%,1.00%
CHARLOTTE M MURKLAND ELEMENTARY,42.6466504,-71.3210608,Public,LOWELL,Middlesex,98%,100%,100%,100%,100%,98%,0%
CHRISTA MCAULIFFE ELEMENTARY,42.6601587,-71.3025012,Public,LOWELL,Middlesex,100%,100%,99%,100%,99%,99%,1.00%
COMMUNITY CHRISTIAN ACADEMY,42.6355758,-71.335221,Private,LOWELL,Middlesex, , , , , , , 
DR GERTRUDE BAILEY,42.6228004,-71.335055,Public,LOWELL,Middlesex,99%,99%,99%,100%,99%,99%,1.00%
FRANCO AMERICAN SCHOOL,42.6487247,-71.3287659,Private,LOWELL,Middlesex, , , , , , , 
GREENHALGE,42.6574025,-71.3092188,Public,LOWELL,Middlesex,100%,99%,100%,100%,100%,99%,0%
HELLENIC AMERICAN ACADEMY,42.6443375,-71.3158091,Private,LOWELL,Middlesex, , , , , , , 
IMMACULATE CONCEPTION,42.6446472,-71.3013685,Private,LOWELL,Middlesex,98%,99%,98%,99%,98%,97%,1.10%
J G PYNE ARTS MAGNET SCHOOL,42.6334247,-71.3161718,Public,LOWELL,Middlesex,96%,100%,100%,100%,100%,96%,0%
JOSEPH MCAVINNUE ELEMENTARY,42.6334247,-71.3161718,Public,LOWELL,Middlesex,96%,99%,100%,99%,100%,96%,0%
LINCOLN SCHOOL,42.6303715,-71.3202892,Public,LOWELL,Middlesex,95%,100%,98%,99%,100%,95%,0%
LOWELL COLLEGIATE CHARTER SCHOOL,42.646972,-71.3220563,Public,LOWELL,Middlesex,98%,100%,98%,98%,96%,96%,0%
LOWELL COMMUNITY CHARTER SCHOOL,42.6413523,-71.3121558,Public,LOWELL,Middlesex,93%,97%,100%,99%,100%,99%,0%
LOWELL DAY NURSERY,42.6514949,-71.3165642,Private,LOWELL,Middlesex, , , , , , , 
MOODY SCHOOL,42.6368995,-71.2973407,Public,LOWELL,Middlesex,88%,92%,100%,96%,98%,82%,0%
PAWTUCKETVILLE MEMORIAL,42.647669,-71.3504261,Public,LOWELL,Middlesex,95%,98%,99%,99%,99%,94%,1.00%
PETER W REILLY,42.6409152,-71.2800231,Public,LOWELL,Middlesex,87%,98%,100%,98%,96%,79%,0%
ROGERS EARLY LEARNING CENTER,42.6334247,-71.3161718,Public,LOWELL,Middlesex,80%,91%,88%,95%,86%,55%,0%
SHAUGHNESSY,42.6160705,-71.3030786,Public,LOWELL,Middlesex,96%,99%,99%,100%,99%,96%,0%
ST LOUIS ELEMENTARY,42.6563702,-71.3089916,Private,LOWELL,Middlesex,72%,91%,81%,97%,59%,50%,3.10%
ST MARGARET ELEMENTARY,42.626581,-71.331831,Private,LOWELL,Middlesex, , , , , , , 
ST MICHAEL ELEMENTARY,42.6515149,-71.3019694,Private,LOWELL,Middlesex,68%,79%,82%,92%,79%,68%,0%
ST PATRICK,42.6464022,-71.3191039,Private,LOWELL,Middlesex,*,*,*,*,*,*,*
STE JEANNE D'ARC SCHOOL,42.6567464,-71.3305721,Private,LOWELL,Middlesex,100%,100%,100%,100%,100%,100%,0%
WASHINGTON SCHOOL,42.6240016,-71.3285218,Public,LOWELL,Middlesex,100%,100%,100%,100%,100%,100%,0%
EAST ST ELEMENTARY,42.1600936,-72.475919,Public,LUDLOW,Hampden,99%,99%,99%,99%,99%,97%,2.50%
ST JOHN THE BAPTIST SCHOOL,42.1594448,-72.4762058,Private,LUDLOW,Hampden, , , , , , , 
LUNENBURG PRIMARY SCHOOL,42.6003275,-71.7012839,Public,LUNENBURG,Worcester,97%,95%,98%,96%,97%,95%,2.70%
TWIN CITY CHRISTIAN SCHOOL,42.5855969,-71.7533627,Private,LUNENBURG,Worcester, , , , , , , 
A DREWICZ ELEMENTARY,42.4606105,-70.9693192,Public,LYNN,Essex,93%,97%,97%,94%,96%,89%,0%
ABORN ELEMENTARY,42.4792001,-70.9331225,Public,LYNN,Essex,100%,100%,100%,100%,100%,100%,0%
CALLAHAN SCHOOL,42.4675036,-70.9846519,Public,LYNN,Essex,97%,98%,98%,97%,98%,95%,1.60%
CAPT WM SHOEMAKER SCHOOL,42.5048176,-70.9836619,Public,LYNN,Essex,100%,100%,100%,100%,100%,100%,0%
CATHOLIC CHARITIES DAY CARE CTR,42.466763,-70.9494938,Private,LYNN,Essex, , , , , , , 
COBBET ELEMENTARY,42.4648429,-70.9550021,Public,LYNN,Essex,79%,86%,82%,96%,80%,76%,0%
E J HARRINGTON,42.4376913,-70.9691161,Public,LYNN,Essex,95%,96%,97%,98%,99%,95%,0%
EARLY CHILDHOOD CENTER,42.466763,-70.9494938,Public,LYNN,Essex,94%,95%,93%,98%,91%,86%,0%
FALLON SCHOOL,42.4687657,-70.9706009,Public,LYNN,Essex, , , , , , , 
GREGG HOUSE,42.4776331,-70.9382579,Private,LYNN,Essex, , , , , , , 
HATHAWAY SCHOOL,42.484204,-70.9582125,Private,LYNN,Essex, , , , , , , 
HOOD SCHOOL,42.466763,-70.9494938,Public,LYNN,Essex,95%,98%,99%,100%,99%,97%,1.20%
INGALLS SCHOOL,42.4716912,-70.936515,Public,LYNN,Essex,89%,94%,92%,98%,80%,80%,0%
LINCOLN-THOMSON,42.4678819,-70.9770713,Public,LYNN,Essex,98%,100%,98%,98%,98%,96%,0%
LITTLE THEATRE NURSERY & KINDERG,42.466763,-70.9494938,Private,LYNN,Essex, , , , , , , 
LYNN WOODS SCHOOL,42.466763,-70.9494938,Public,LYNN,Essex, , , , , , , 
NORTH SHORE CHRISTIAN SCHOOL,42.4883,-70.9536,Private,LYNN,Essex, , , , , , , 
SACRED HEART ELEMENTARY,42.4681518,-70.9703277,Private,LYNN,Essex,94%,100%,97%,97%,97%,94%,0%
SEWELL-ANDERSON,42.466763,-70.9494938,Public,LYNN,Essex,98%,100%,100%,100%,100%,98%,0%
SISSON,42.472523,-70.9362063,Public,LYNN,Essex,96%,100%,99%,100%,97%,93%,2.90%
ST PIUS V,42.4798755,-70.9493922,Private,LYNN,Essex,89%,94%,89%,100%,92%,89%,0%
WASHINGTON ELEMENTARY,42.4612074,-70.9536606,Public,LYNN,Essex,88%,96%,97%,99%,86%,82%,0%
WM P CONNERY,42.466763,-70.9494938,Public,LYNN,Essex,96%,98%,99%,98%,95%,91%,1.00%
HUCKLEBERRY HILL,42.522595,-71.0225521,Public,LYNNFIELD,Essex,99%,97%,99%,100%,99%,97%,1.30%
OUR LADY OF ASSUMPTION,42.5152092,-71.0057382,Private,LYNNFIELD,Essex, , , , , , , 
SUMMER STREET,42.5277774,-71.030272,Public,LYNNFIELD,Essex,100%,100%,100%,100%,100%,99%,0%
BEEBE SCHOOL,42.4271649,-71.0794857,Public,MALDEN,Middlesex,97%,100%,100%,100%,100%,97%,0%
CHEVERUS ELEMENTARY,42.4250964,-71.066163,Private,MALDEN,Middlesex,100%,100%,100%,100%,100%,100%,0%
FERRYWAY SCHOOL,42.4214157,-71.0595501,Public,MALDEN,Middlesex,99%,100%,100%,100%,100%,99%,0%
FORESTDALE SCHOOL,42.4403993,-71.0537406,Public,MALDEN,Middlesex,69%,91%,97%,99%,96%,96%,0%
LINDEN,42.433746,-71.0347871,Public,MALDEN,Middlesex,95%,98%,96%,99%,95%,92%,0%
MYSTIC VALLEY REG CHARTER SCHOOL,42.4344016,-71.0455391,Public,MALDEN,Middlesex,98%,98%,98%,98%,98%,98%,2.30%
ROCKLAND MONTESSORI ACADEMY,42.4286167,-71.0786639,Private,MALDEN,Middlesex, , , , , , , 
SALEMWOOD SCHOOL,42.4316,-71.0502999,Public,MALDEN,Middlesex,90%,88%,100%,100%,100%,90%,0%
BROOKWOOD SCHOOL,42.572336,-70.796751,Private,MANCHESTER,Essex,94%,97%,97%,97%,94%,94%,3.00%
MANCHESTER MEMORIAL SCHOOL,42.5790534,-70.7641867,Public,MANCHESTER,Essex,95%,98%,98%,95%,95%,89%,2.30%
EVERETT W ROBINSON SCHOOL,42.0334565,-71.2190578,Public,MANSFIELD,Bristol,97%,99%,100%,99%,99%,97%,0.40%
HANDS ON MONTESSORI SCHOOL,42.0291305,-71.2273109,Private,MANSFIELD,Bristol, , , , , , , 
ST MARYS,42.031737,-71.1892839,Private,MANSFIELD,Bristol, , , , , , , 
BELL SCHOOL,42.4969578,-70.8708457,Public,MARBLEHEAD,Essex,96%,99%,100%,100%,100%,95%,0%
COHEN HILLEL ACADEMY,42.4851023,-70.8751707,Private,MARBLEHEAD,Essex, , , , , , , 
DEVEREUX SCHOOL,42.4941423,-70.8667569,Private,MARBLEHEAD,Essex, , , , , , , 
GERRY SCHOOL,42.5064797,-70.8501688,Public,MARBLEHEAD,Essex,99%,100%,99%,100%,97%,97%,4.30%
GLOVER SCHOOL,42.4905117,-70.8795535,Public,MARBLEHEAD,Essex,95%,96%,95%,100%,96%,93%,5.50%
TOWER SCHOOL,42.4972753,-70.8738361,Private,MARBLEHEAD,Essex, , , , , , , 
SIPPICAN SCHOOL,41.7040442,-70.767648,Public,MARION,Plymouth,96%,93%,96%,96%,96%,91%,4.40%
CHARLES JAWOREK SCHOOL,42.3658322,-71.5318107,Public,MARLBORO,Middlesex,99%,100%,99%,100%,100%,97%,0.60%
FRANCIS J KANE SCHOOL,42.3430107,-71.5202162,Public,MARLBORO,Middlesex,99%,99%,98%,98%,99%,93%,3.10%
IMMACULATE CONCEPTION,42.347628,-71.5499736,Private,MARLBORO,Middlesex, , , , , , , 
RICHER SCHOOL,42.3383203,-71.5784436,Public,MARLBORO,Middlesex,98%,99%,98%,99%,98%,95%,0%
DANIEL WEBSTER,42.096407,-70.6870056,Public,MARSHFIELD,Plymouth,96%,98%,98%,98%,98%,96%,2.10%
EAMES WAY SCHOOL,42.1320893,-70.7286381,Public,MARSHFIELD,Plymouth,100%,100%,100%,100%,100%,100%,0%
GOV EDWARD WINSLOW SCHOOL,42.0704228,-70.66962,Public,MARSHFIELD,Plymouth,100%,100%,100%,100%,100%,100%,0%
MARTINSON ELEMENTARY SCHOOL,42.1112132,-70.7403176,Public,MARSHFIELD,Plymouth,99%,99%,99%,97%,97%,96%,3.00%
SOUTH RIVER,42.0945466,-70.7153166,Public,MARSHFIELD,Plymouth,100%,100%,100%,100%,100%,100%,0%
WEST VILLAGES ELEMENTARY SCHOOL,41.6626884,-70.3872852,Public,MARSTONS MILLS,Barnstable,96%,96%,97%,96%,96%,96%,3.70%
K C COOMBS SCHOOL,41.6202096,-70.4930767,Public,MASHPEE,Barnstable,98%,98%,98%,98%,98%,98%,1.80%
BEREA SDA ACADEMY,42.2826323,-71.0878192,Private,MATTAPAN,Suffolk, , , , , , , 
CHARLES TAYLOR ELEM SCHOOL,42.2771417,-71.0913748,Public,MATTAPAN,Suffolk,57%,62%,61%,79%,83%,68%,0%
EDWARD BROOKE CHARTER SCHOOL 2,42.2818841,-71.1218834,Public,MATTAPAN,Suffolk,92%,95%,98%,98%,98%,88%,0%
ELLISON/PARKS EARLY EDUCATION SCHOOL,42.2717653,-71.0916852,Public,MATTAPAN,Suffolk,49%,62%,44%,100%,53%,51%,0%
JAMES CHITTICK,42.2675986,-71.1044958,Public,MATTAPAN,Suffolk,76%,73%,73%,81%,73%,73%,0%
MATTAHUNT,42.2757242,-71.1035763,Public,MATTAPAN,Suffolk,27%,29%,26%,47%,26%,21%,0%
POPE JOHN PAUL II (MATTAPAN CAMPUS],42.2771417,-71.0913748,Private,MATTAPAN,Suffolk,80%,77%,89%,94%,94%,83%,0%
YOUNG ACHIEVERS SCIENCE & MATH SCH,42.2771417,-71.0913748,Public,MATTAPAN,Suffolk,75%,80%,82%,91%,82%,80%,2.30%
CENTER SCHOOL,41.6599384,-70.8130887,Public,MATTAPOISETT,Plymouth,95%,98%,98%,100%,100%,93%,1.80%
GREEN MEADOW SCHOOL,42.4250251,-71.4560604,Public,MAYNARD,Middlesex,91%,96%,97%,95%,97%,91%,5.30%
IMAGO SCHOOL,42.4279731,-71.4597143,Private,MAYNARD,Middlesex, , , , , , , 
MEMORIAL SCHOOL,42.1943224,-71.3124938,Public,MEDFIELD,Norfolk,99%,99%,99%,99%,99%,99%,1.30%
BROOKS SCHOOL,42.4212385,-71.1280899,Public,MEDFORD,Middlesex,96%,95%,96%,96%,98%,96%,2.50%
CHRISTOPHER COLUMBUS SCHOOL,42.4015182,-71.1019692,Public,MEDFORD,Middlesex,99%,100%,99%,99%,99%,96%,1.40%
ELIOT-PEARSON CHILDREN SCHOOL,42.4102821,-71.1143805,Private,MEDFORD,Middlesex, , , , , , , 
JOHN J MCGLYNN,42.4118332,-71.098312,Public,MEDFORD,Middlesex,100%,100%,100%,99%,100%,99%,0%
ROBERTS SCHOOL,42.4219629,-71.0993846,Public,MEDFORD,Middlesex,96%,97%,96%,97%,96%,94%,3.20%
ST CLEMENT ELEMENTARY,42.4032601,-71.1143347,Private,MEDFORD,Middlesex, , , , , , , 
ST JOSEPH ELEMENTARY,42.4194712,-71.1141083,Private,MEDFORD,Middlesex,49%,65%,51%,56%,49%,47%,1.80%
ST RAPHAEL SCHOOL,42.4210757,-71.1349096,Private,MEDFORD,Middlesex, , , , , , , 
JOHN D MCGOVERN SCHOOL,42.1548194,-71.4131151,Public,MEDWAY,Norfolk,94%,96%,96%,96%,96%,92%,4.30%
HERBERT CLARK HOOVER,42.4495405,-71.0503295,Public,MELROSE,Middlesex,100%,100%,100%,100%,100%,100%,0%
HORACE MANN,42.4714751,-71.0542339,Public,MELROSE,Middlesex,98%,98%,98%,100%,98%,95%,2.30%
LINCOLN ELEMENTARY,42.4528063,-71.0720047,Public,MELROSE,Middlesex,97%,99%,99%,100%,99%,97%,1.50%
MELROSE MONTESSORI SCHOOL,42.4587313,-71.0665953,Private,MELROSE,Middlesex, , , , , , , 
ROOSEVELT,42.4656513,-71.071719,Public,MELROSE,Middlesex,97%,98%,98%,97%,97%,97%,1.60%
ST MARY ELEMENTARY,42.4532341,-71.0681571,Private,MELROSE,Middlesex,91%,94%,94%,100%,94%,91%,5.70%
WINTHROP,42.4578738,-71.0519963,Public,MELROSE,Middlesex,98%,98%,98%,98%,98%,98%,1.60%
BETHANY CHRISTIAN ACADEMY,42.1002159,-71.5043583,Private,MENDON,Worcester, , , , , , , 
HENRY P CLOUGH SCHOOL,42.1092237,-71.5559894,Public,MENDON,Worcester,97%,100%,99%,99%,99%,96%,2.80%
DR FREDERICK N SWEETSIR,42.8414787,-71.0120011,Public,MERRIMAC,Essex,95%,95%,95%,95%,95%,95%,4.80%
COMPREHENSIVE GRAMMAR SCHOOL,42.7475361,-71.1757528,Public,METHUEN,Essex,96%,99%,99%,99%,98%,95%,0%
DONALD P TIMONY GRAMMAR SCHOOL,42.7262016,-71.1908924,Public,METHUEN,Essex,97%,98%,98%,98%,98%,97%,0%
FELLOWSHIP CHRISTIAN ACADEMY,42.7427,-71.2238986,Private,METHUEN,Essex, , , , , , , 
MARSH GRAMMAR SCHOOL,42.7291274,-71.232647,Public,METHUEN,Essex,99%,100%,100%,100%,100%,99%,0%
ST ANNS SCHOOL,42.70342,-71.196924,Private,METHUEN,Essex, , , , , , , 
ST MONICA ELEMENTARY,42.7264794,-71.1833922,Private,METHUEN,Essex,*,*,*,*,*,*,*
TENNEY GRAMMAR SCHOOL,42.7321287,-71.1774121,Public,METHUEN,Essex,97%,98%,98%,98%,98%,97%,1.60%
THE ISLAMIC ACADEMY,42.72,-71.1925,Private,METHUEN,Essex, , , , , , , 
MEMORIAL EARLY CHILDHOOD CTR,41.8952338,-70.9059019,Public,MIDDLEBORO,Plymouth,98%,100%,100%,100%,100%,98%,0%
SAMUEL FULLER SCHOOL,41.908676,-70.883938,Private,MIDDLEBORO,Plymouth,*,*,*,*,*,*,*
FULLER MEADOW SCHOOL,42.5845385,-71.0092194,Public,MIDDLETON,Essex,97%,99%,99%,99%,99%,97%,1.30%
KNOWLEDGE ACADEMY,42.6159498,-71.0451245,Private,MIDDLETON,Essex, , , , , , , 
BROOKSIDE ELEMENTARY,42.1499526,-71.5294597,Public,MILFORD,Worcester,98%,100%,99%,100%,99%,95%,0%
MEMORIAL ELEMENTARY,42.145144,-71.5211959,Public,MILFORD,Worcester,96%,97%,97%,97%,96%,94%,1.30%
MILFORD CATHOLIC ELEM,42.1438915,-71.511657,Private,MILFORD,Worcester, , , , , , , 
ASSUMPTION SCHOOL,42.191461,-71.7632199,Private,MILLBURY,Worcester, , , , , , , 
ELMWOOD ST SCHOOL,42.1875269,-71.7731881,Public,MILLBURY,Worcester,97%,99%,99%,99%,99%,97%,1.40%
CLYDE BROWN SCHOOL,42.1656531,-71.3608914,Public,MILLIS,Norfolk,88%,88%,99%,98%,97%,88%,1.00%
WOODSIDE MONTESSORI,42.1436761,-71.3663195,Private,MILLIS,Norfolk, , , , , , , 
MILLVILLE ELEMENTARY SCHOOL,42.0325342,-71.5779544,Public,MILLVILLE,Worcester,94%,91%,91%,100%,94%,88%,0%
COLLICOT,42.2537024,-71.0522475,Public,MILTON,Norfolk,99%,99%,99%,99%,99%,97%,0.90%
CUNNINGHAM,42.2473752,-71.0548722,Public,MILTON,Norfolk,100%,99%,100%,100%,100%,99%,0%
DELPHI ACADEMY,42.2469345,-71.1032901,Private,MILTON,Norfolk, , , , , , , 
GLOVER SCHOOL,42.261465,-71.075303,Public,MILTON,Norfolk,100%,98%,99%,100%,99%,94%,2.30%
MILTON ACADEMY,42.2551731,-71.0718226,Private,MILTON,Norfolk, , , , , , , 
ST AGATHA ELEMENTARY,42.2495321,-71.0661653,Private,MILTON,Norfolk,100%,100%,97%,100%,100%,97%,0%
ST MARY OF THE HILLS,42.2617653,-71.0871674,Private,MILTON,Norfolk, , , , , , , 
THACHER MONTESSORI,42.2224944,-71.119199,Private,MILTON,Norfolk, , , , , , , 
TUCKER SCHOOL,42.2609321,-71.0944954,Public,MILTON,Norfolk,100%,97%,100%,100%,100%,97%,0%
QUARRY HILL SCHOOL,42.1042451,-72.3189519,Public,MONSON,Hampden,98%,98%,98%,97%,97%,97%,1.60%
JOHNSON SCHOOL,42.4239859,-70.9322708,Public,NAHANT,Essex, , , , , , , 
NANTUCKET ELEMENTARY,41.269266,-70.0983995,Public,NANTUCKET,Nantucket,94%,94%,95%,98%,95%,93%,2.40%
NANTUCKET LIGHTHOUSE SCHOOL,41.2628355,-70.0922414,Private,NANTUCKET,Nantucket, , , , , , , 
NANTUCKET NEW SCHOOL,41.265679,-70.061587,Private,NANTUCKET,Nantucket, , , , , , , 
BENNETT-HEMENWAY SCHOOL,42.3080717,-71.3585548,Public,NATICK,Middlesex,98%,99%,99%,99%,99%,98%,0.80%
BROWN SCHOOL,42.2913222,-71.3842785,Public,NATICK,Middlesex,98%,99%,99%,99%,99%,96%,0.90%
CROSSROADS SCHOOL FOR CHILDREN,42.2775281,-71.3468091,Private,NATICK,Middlesex, , , , , , , 
JOHNSON ELEMENTARY,42.2784744,-71.3507522,Public,NATICK,Middlesex,100%,100%,98%,100%,100%,98%,1.80%
LILJA ELEMENTARY,42.2952077,-71.3275721,Public,NATICK,Middlesex,99%,100%,100%,100%,100%,99%,0%
MEMORIAL ELEMENTARY,42.270691,-71.3233552,Public,NATICK,Middlesex,99%,99%,99%,98%,99%,97%,2.00%
RCS LEARNING CENTER,42.295398,-71.387814,Private,NATICK,Middlesex, , , , , , , 
RIVERBEND SCHOOL,42.2736647,-71.313528,Private,NATICK,Middlesex, , , , , , , 
TOBIN SCHOOL,42.2727796,-71.3458712,Private,NATICK,Middlesex, , , , , , , 
BROADMEADOW,42.2793326,-71.2085731,Public,NEEDHAM,Norfolk,100%,99%,100%,97%,100%,96%,0%
ELIOT ELEMENTARY,42.306122,-71.2400776,Public,NEEDHAM,Norfolk,100%,100%,100%,100%,100%,100%,0%
HILLSIDE ELEMENTARY,42.2953753,-71.2403332,Public,NEEDHAM,Norfolk,100%,100%,100%,100%,100%,100%,0%
NEWMAN SCHOOL,42.2816215,-71.2552005,Public,NEEDHAM,Norfolk,99%,99%,100%,99%,99%,99%,1.00%
ST JOSEPH SCHOOL,42.2826154,-71.2346974,Private,NEEDHAM,Norfolk,98%,100%,100%,100%,100%,98%,1.70%
WALKER HOME AND SCHOOL,42.2599747,-71.2692773,Private,NEEDHAM,Norfolk, , , , , , , 
WILLIAM MITCHELL SCHOOL,42.2889866,-71.2225549,Public,NEEDHAM,Norfolk,99%,99%,99%,99%,99%,99%,1.30%
ABRAHAM LINCOLN,41.6692704,-70.9319832,Public,NEW BEDFORD,Bristol,98%,100%,100%,100%,100%,98%,0%
ALFRED J GOMES,41.6259339,-70.922144,Public,NEW BEDFORD,Bristol,95%,100%,99%,99%,95%,92%,1.30%
ALL SAINTS CATHOLIC SCHOOL,41.683261,-70.931623,Private,NEW BEDFORD,Bristol, , , , , , , 
ALMA DEL MAR CHARTER SCHOOL,41.665394,-70.9243195,Public,NEW BEDFORD,Bristol,*,*,*,*,*,*,*
BETSY WINSLOW SCHOOL,41.6256597,-70.9447608,Public,NEW BEDFORD,Bristol,97%,99%,97%,99%,97%,96%,2.90%
CARLOS PACHECO ELEMENTARY,41.6362152,-70.934205,Public,NEW BEDFORD,Bristol,96%,96%,99%,100%,99%,94%,1.50%
CARNEY ACADEMY,41.6361104,-70.9327707,Public,NEW BEDFORD,Bristol,97%,98%,98%,98%,98%,97%,1.80%
CHARLES S ASHLEY,41.6762931,-70.9334576,Public,NEW BEDFORD,Bristol,100%,100%,100%,100%,100%,100%,0%
E G CAMPBELL PERFORMING ARTS MAGNET,41.6362152,-70.934205,Public,NEW BEDFORD,Bristol,100%,100%,100%,100%,100%,100%,0%
E R HATHAWAY SCHOOL,41.6331596,-70.9400385,Public,NEW BEDFORD,Bristol,98%,100%,100%,100%,99%,96%,1.00%
ELIZABETH C BROOKS,41.6431879,-70.9533825,Public,NEW BEDFORD,Bristol,97%,100%,97%,100%,97%,94%,5.90%
H A KEMPTON,41.6360651,-70.9434488,Public,NEW BEDFORD,Bristol, , , , , , , 
HAYDEN-MCFADDEN,41.6547721,-70.9318165,Public,NEW BEDFORD,Bristol,99%,99%,99%,100%,98%,95%,0%
HOLY FAMILY - HOLY NAME,41.6380934,-70.932658,Private,NEW BEDFORD,Bristol, , , , , , , 
JAMES B CONGDON,41.6220545,-70.9319552,Public,NEW BEDFORD,Bristol,89%,96%,99%,100%,99%,89%,1.40%
JIREH SWIFT,41.634758,-70.931619,Public,NEW BEDFORD,Bristol,98%,98%,100%,100%,100%,96%,0%
JOHN AVERY PARKER,41.6444312,-70.9320947,Public,NEW BEDFORD,Bristol,98%,100%,100%,100%,100%,98%,0%
JOHN B DEVALLES,41.6184376,-70.9283713,Public,NEW BEDFORD,Bristol,99%,100%,100%,100%,100%,99%,0%
KENNEDY DONOVAN CENTER SCHOOL,41.6299058,-70.9298296,Private,NEW BEDFORD,Bristol, , , , , , , 
NAZARENE CHRISTIAN ACADEMY,41.6503406,-70.9643982,Private,NEW BEDFORD,Bristol, , , , , , , 
PULASKI,41.7283758,-70.9448209,Public,NEW BEDFORD,Bristol,98%,98%,98%,98%,98%,97%,2.20%
RENAISSANCE COMMUNITY SCHOOL FOR THE ARTS,41.6362152,-70.934205,Public,NEW BEDFORD,Bristol,98%,100%,100%,100%,100%,98%,0%
ST JAMES-ST JOHN,41.6285077,-70.9301892,Private,NEW BEDFORD,Bristol, , , , , , , 
THOMAS R RODMAN SCHOOL,41.636328,-70.948643,Public,NEW BEDFORD,Bristol, , , , , , , 
WILLIAM H TAYLOR,41.609197,-70.911425,Public,NEW BEDFORD,Bristol,96%,98%,98%,98%,98%,96%,2.10%
NEW BRAINTREE GRADE SCHOOL,42.3173136,-72.1248003,Public,NEW BRAINTREE,Worcester,91%,94%,94%,97%,91%,91%,6.10%
SWIFT RIVER,42.5216619,-72.3571392,Public,NEW SALEM,Franklin, , , , , , , 
NEWBURY ELEMENTARY,42.7902951,-70.870683,Public,NEWBURY,Essex,77%,94%,87%,90%,77%,69%,1.90%
GEORGE W BROWN ELEMENTARY,42.8125913,-70.8772751,Public,NEWBURYPORT,Essex,98%,99%,98%,99%,98%,97%,1.50%
IMMACULATE CONCEPTION,42.808821,-70.874154,Private,NEWBURYPORT,Essex,90%,93%,93%,90%,93%,83%,6.70%
NEWBURYPORT MONTESSORI,42.8105051,-70.870885,Private,NEWBURYPORT,Essex, , , , , , , 
RIVER VALLEY CHARTER SCHOOL,42.807227,-70.8866218,Public,NEWBURYPORT,Essex,97%,97%,100%,94%,94%,91%,6.20%
JACKSON SCHOOL,42.3564251,-71.1947685,Private,NEWTON,Middlesex, , , , , , , 
LINCOLN-ELIOT,42.3597728,-71.1940677,Public,NEWTON,Middlesex,96%,96%,100%,98%,100%,93%,1.80%
NEWTON MONTESSORI SCHOOL,42.3290816,-71.1967216,Private,NEWTON,Middlesex,81%,88%,84%,91%,86%,74%,0%
UNDERWOOD,42.3551361,-71.1836631,Public,NEWTON,Middlesex,94%,98%,100%,100%,100%,94%,0%
WALNUT PARK MONTESSORI,42.3565433,-71.1941623,Private,NEWTON,Middlesex, , , , , , , 
BOWEN ELEMENTARY,42.3300503,-71.1948255,Public,NEWTON CENTRE,Middlesex,98%,100%,98%,100%,100%,95%,1.50%
JOHN WARD,42.3385211,-71.1803364,Public,NEWTON CENTRE,Middlesex,100%,100%,100%,100%,100%,100%,0%
MASON-RICE,42.3325734,-71.1996223,Public,NEWTON CENTRE,Middlesex,99%,100%,100%,99%,99%,98%,2.50%
MEMORIAL SPAULDING SCHOOL,42.3021316,-71.1777762,Public,NEWTON CENTRE,Middlesex,97%,97%,97%,100%,97%,96%,0%
SOLOMON SCHECHTER DAY SCHOOL,42.2919861,-71.1884624,Private,NEWTON CENTRE,Middlesex,100%,100%,98%,94%,98%,96%,4.20%
COUNTRYSIDE,42.3128402,-71.2024945,Public,NEWTON HIGHLANDS,Middlesex,90%,89%,93%,93%,93%,89%,6.90%
CABOT,42.347709,-71.202701,Public,NEWTONVILLE,Middlesex,100%,100%,100%,98%,100%,98%,0%
HORACE MANN,42.3546429,-71.2134924,Public,NEWTONVILLE,Middlesex,97%,97%,98%,98%,97%,97%,3.10%
H OLIVE DAY SCHOOL,42.1203238,-71.3347466,Public,NORFOLK,Norfolk,98%,99%,99%,99%,99%,99%,1.10%
BRAYTON ELEMENTARY,42.698346,-73.136872,Public,NORTH ADAMS,Berkshire,98%,98%,98%,100%,100%,98%,2.00%
GREYLOCK,42.6973054,-73.1559258,Public,NORTH ADAMS,Berkshire,97%,100%,100%,100%,100%,97%,0%
SULLIVAN SCHOOL,42.6945263,-73.0989921,Public,NORTH ADAMS,Berkshire,100%,100%,100%,100%,100%,100%,0%
ANNIE L SARGENT SCHOOL,42.6712314,-71.0972716,Public,NORTH ANDOVER,Essex,92%,96%,95%,98%,95%,88%,3.20%
ATKINSON SCHOOL,42.6897308,-71.1230929,Public,NORTH ANDOVER,Essex,99%,100%,100%,100%,99%,99%,0%
FRANKLIN SCHOOL,42.6766791,-71.1197052,Public,NORTH ANDOVER,Essex,97%,100%,99%,100%,99%,97%,2.60%
KINDER CARE #1485,42.6970324,-71.1193622,Private,NORTH ANDOVER,Essex, , , , , , , 
KITTREDGE SCHOOL,42.6921022,-71.1193625,Public,NORTH ANDOVER,Essex,*,*,*,*,*,*,*
ST MICHAEL ELEMENTARY,42.7004058,-71.1309699,Private,NORTH ANDOVER,Essex,62%,91%,71%,98%,67%,62%,0%
THOMSON SCHOOL,42.6965934,-71.135047,Public,NORTH ANDOVER,Essex,100%,100%,98%,98%,96%,89%,1.90%
ALLEN AVENUE SCHOOL,41.9453,-71.3522,Public,NORTH ATTLEBORO,Bristol, , , , , , , 
AMVET BLVD SCHOOL,41.9764595,-71.3427458,Public,NORTH ATTLEBORO,Bristol,98%,96%,96%,100%,100%,94%,2.10%
COMMUNITY SCHOOL,41.98054,-71.334753,Public,NORTH ATTLEBORO,Bristol,95%,95%,95%,95%,93%,69%,5.40%
FALLS ELEMENTARY SCHOOL,41.9722919,-71.3144812,Public,NORTH ATTLEBORO,Bristol, , , , , , , 
JOSEPH W MARTIN SCHOOL,41.9971037,-71.2958687,Public,NORTH ATTLEBORO,Bristol,100%,100%,100%,100%,100%,100%,0%
ROOSEVELT AVENUE SCHOOL,41.9453,-71.3522,Public,NORTH ATTLEBORO,Bristol,93%,98%,98%,98%,95%,82%,4.50%
ST MARY-SACRED HEART,41.9824799,-71.3352403,Private,NORTH ATTLEBORO,Bristol, , , , , , , 
NE PEDIATRIC SCHOOL,42.5932199,-71.2942948,Private,NORTH BILLERICA,Middlesex, , , , , , , 
NORTH BROOKFIELD ELEMENTARY,42.2784371,-72.0799618,Public,NORTH BROOKFIELD,Worcester,94%,92%,94%,97%,94%,94%,5.60%
CHARLES D HARRINGTON,42.6227874,-71.3792017,Public,NORTH CHELMSFORD,Middlesex,97%,100%,100%,100%,98%,95%,2.00%
KEYSTONE MONTESSORI SCHOOL,42.6373349,-71.378807,Private,NORTH CHELMSFORD,Middlesex, , , , , , , 
LIGHTHOUSE SCHOOL,42.644637,-71.38599,Private,NORTH CHELMSFORD,Middlesex, , , , , , , 
FRIENDS ACADEMY,41.6240468,-70.9822706,Private,NORTH DARTMOUTH,Bristol, , , , , , , 
GEORGE H POTTER ELEMENTARY,41.6455811,-71.0082905,Public,NORTH DARTMOUTH,Bristol,97%,99%,97%,100%,97%,97%,2.90%
KIDDIE KAMPUS,41.667489,-70.991104,Private,NORTH DARTMOUTH,Bristol, , , , , , , 
SCHWARTZ CENTER SCHOOL,41.640396,-70.9694555,Private,NORTH DARTMOUTH,Bristol, , , , , , , 
MOREAU HALL,42.061629,-71.086228,Public,NORTH EASTON,Bristol,100%,95%,99%,99%,99%,92%,1.30%
PARKVIEW,42.050903,-71.107817,Public,NORTH EASTON,Bristol,96%,97%,95%,100%,97%,93%,4.40%
NORTH FALMOUTH ELEMENTARY,41.6379261,-70.6224946,Public,NORTH FALMOUTH,Barnstable,95%,97%,100%,97%,100%,95%,2.60%
NORTH GRAFTON ELEMENTARY,42.2383509,-71.7026278,Public,NORTH GRAFTON,Worcester,93%,96%,90%,99%,89%,87%,0%
E ETHEL LITTLE SCHOOL,42.570409,-71.121038,Public,NORTH READING,Middlesex,100%,100%,100%,100%,100%,100%,0%
J TURNER HOOD SCHOOL,42.595385,-71.090061,Public,NORTH READING,Middlesex,95%,95%,95%,98%,94%,95%,1.60%
L D BATCHELDER,42.5988234,-71.1223505,Public,NORTH READING,Middlesex,100%,100%,100%,100%,100%,100%,0%
ST JEROME ELEMENTARY,42.2446304,-70.9418117,Private,NORTH WEYMOUTH,Norfolk, , , , , , , 
WESSAGUSSET ELEMENTARY,42.2466152,-70.9448956,Public,NORTH WEYMOUTH,Norfolk,100%,100%,100%,99%,100%,99%,1.40%
BRIDGE STREET SCHOOL,42.3235268,-72.6263282,Public,NORTHAMPTON,Hampshire,100%,94%,100%,94%,100%,90%,0%
CLARKE SCHOOL,42.3224027,-72.6397266,Private,NORTHAMPTON,Hampshire,*,*,*,*,*,*,*
CUTCHINS PROGRAM,42.3250896,-72.6412013,Private,NORTHAMPTON,Hampshire, , , , , , , 
JACKSON ST SCHOOL,42.3344767,-72.6448911,Public,NORTHAMPTON,Hampshire,96%,96%,100%,94%,100%,88%,2.00%
LANDER-GRINSPOON ACADEMY,42.3297539,-72.6419778,Private,NORTHAMPTON,Hampshire, , , , , , , 
MONTESSORI SCHOOL OF NORTHAMPTON,42.3325834,-72.6277189,Private,NORTHAMPTON,Hampshire, , , , , , , 
SMITH COLLEGE CAMPUS SCHOOL,42.3210965,-72.6356816,Private,NORTHAMPTON,Hampshire,97%,97%,92%,95%,92%,90%,5.10%
CORNERSTONE ACADEMY,42.3150063,-71.6594154,Private,NORTHBORO,Worcester, , , , , , , 
FANNIE PROCTOR,42.3025937,-71.6531233,Public,NORTHBORO,Worcester,100%,100%,95%,100%,95%,95%,4.80%
LINCOLN STREET,42.3163854,-71.658264,Public,NORTHBORO,Worcester,100%,100%,100%,100%,100%,97%,0%
MARGUERITE PEASLEE,42.3223446,-71.6281426,Public,NORTHBORO,Worcester,98%,94%,100%,98%,100%,92%,2.10%
MARION E ZEH SCHOOL,42.4072107,-71.3824374,Public,NORTHBORO,Worcester,98%,98%,98%,98%,98%,98%,2.50%
ST BERNADETTE SCHOOL,42.3268656,-71.6214415,Private,NORTHBORO,Worcester,100%,100%,100%,100%,100%,100%,0%
NORTHFIELD ELEMENTARY,42.6984932,-72.4548215,Public,NORTHFIELD,Franklin, , , , , , , 
JOSEPH C SOLMONESE,41.9667703,-71.1869963,Public,NORTON,Bristol,96%,97%,99%,99%,99%,96%,1.00%
L G NOURSE SCHOOL,41.9684333,-71.1667154,Public,NORTON,Bristol,100%,100%,100%,99%,99%,99%,1.40%
NEW TESTAMENT CHRISTIAN,41.9453204,-71.1737063,Private,NORTON,Bristol, , , , , , , 
GRACE FARRAR COLE,42.1672719,-70.8803038,Public,NORWELL,Plymouth,94%,94%,94%,95%,94%,92%,0%
SOUTH SHORE CHARTER SCHOOL,42.156762,-70.88182,Public,NORWELL,Plymouth,77%,88%,77%,100%,77%,67%,2.30%
WILLIAM G VINAL,42.1762919,-70.796179,Public,NORWELL,Plymouth,96%,99%,93%,100%,95%,95%,1.30%
GEORGE F WILLETT ELEMENTARY,42.1943909,-71.1989695,Public,NORWOOD,Norfolk,98%,98%,99%,99%,99%,98%,1.50%
KEHILLAH SCHECHTER ACADEMY,42.1661929,-71.2025861,Private,NORWOOD,Norfolk,*,*,*,*,*,*,*
ST CATHERINE OF SIENA SCHOOL,42.1959672,-71.2013124,Private,NORWOOD,Norfolk,72%,78%,88%,100%,94%,72%,0%
OAK BLUFFS ELEMENTARY,41.446414,-70.568836,Public,OAK BLUFFS,Dukes,87%,87%,87%,87%,85%,83%,10.60%
FISHER HILL,42.5972369,-72.3110756,Public,ORANGE,Franklin,97%,97%,96%,100%,95%,96%,1.30%
ORLEANS ELEMENTARY,41.781574,-69.993431,Public,ORLEANS,Barnstable,*,*,*,*,*,*,*
CAPE COD ACADEMY,41.6423803,-70.3882328,Private,OSTERVILLE,Barnstable, , , , , , , 
FARMINGTON RIVER ELEMENTARY,42.1930224,-73.0919689,Public,OTIS,Berkshire, , , , , , , 
ALFRED M CHAFFEE ELEMENTARY,42.1167606,-71.8647577,Public,OXFORD,Worcester,99%,100%,99%,99%,99%,99%,0%
OLD MILL POND SCHOOL,42.1855118,-72.3419463,Public,PALMER,Hampden,93%,98%,99%,99%,99%,93%,1.00%
PAXTON CENTER,42.3100435,-71.9296655,Public,PAXTON,Worcester,100%,100%,100%,98%,100%,98%,0%
CATHOLIC CHARITIES NORTH,42.5222984,-70.9917312,Private,PEABODY,Essex, , , , , , , 
CENTER SCHOOL,42.5296023,-70.9442331,Public,PEABODY,Essex,95%,100%,100%,97%,100%,97%,3.10%
COVENANT CHRISTIAN ACADEMY,42.5433388,-71.0020322,Private,PEABODY,Essex, , , , , , , 
JOHN E BURKE ELEMENTARY,42.5621136,-71.0239939,Public,PEABODY,Essex,98%,98%,98%,100%,100%,98%,0%
JOHN E MCCARTHY SCHOOL,42.5392,-71.0017,Public,PEABODY,Essex,100%,100%,100%,100%,100%,100%,0%
NORTH SHORE ACADEMY LOWER SCHOOL,42.5278731,-70.9286609,Private,PEABODY,Essex, , , , , , , 
SAMUEL BROWN SCHOOL,42.5071011,-70.9506351,Public,PEABODY,Essex,98%,96%,96%,94%,96%,92%,3.80%
SOUTH MEMORIAL SCHOOL,42.5149535,-70.948385,Public,PEABODY,Essex,98%,98%,98%,100%,98%,98%,0%
ST JOHN THE BAPTIST SCHOOL,42.5257125,-70.9302852,Private,PEABODY,Essex, , , , , , , 
THOMAS CARROLL SCHOOL,42.5322068,-70.9175901,Public,PEABODY,Essex,93%,99%,96%,98%,94%,93%,0%
WEST MEMORIAL SCHOOL,42.5480696,-71.0138084,Public,PEABODY,Essex, , , , , , , 
WILLIAM A WELCH SCHOOL,42.5178886,-70.930303,Public,PEABODY,Essex,100%,100%,100%,100%,100%,98%,0%
PELHAM ELEMENTARY,42.3781411,-72.4684998,Public,PELHAM,Hampshire, , , , , , , 
BRYANTVILLE ELEMENTARY,42.0443291,-70.8236969,Public,PEMBROKE,Plymouth,99%,99%,99%,100%,99%,99%,1.40%
HOBOMOCK ELEMENTARY,42.0534354,-70.795318,Public,PEMBROKE,Plymouth,100%,100%,100%,98%,100%,98%,2.00%
NORTH PEMBROKE ELEMENTARY,42.0973241,-70.7794849,Public,PEMBROKE,Plymouth,99%,99%,99%,99%,99%,99%,1.20%
PILGRIM AREA COLLABORATIVE,42.0711,-70.8091,Private,PEMBROKE,Plymouth, , , , , , , 
MAPLE DENE ELEMENTARY,42.681193,-71.581045,Private,PEPPERELL,Middlesex, , , , , , , 
VARNUM BROOK ELEMENTARY,42.6691954,-71.5895057,Public,PEPPERELL,Middlesex,98%,98%,97%,98%,97%,97%,3.30%
PETERSHAM CENTER SCHOOL,42.4837752,-72.186669,Public,PETERSHAM,Worcester, , , , , , , 
PETERSHAM MONTESSORI SCHOOL,42.4829759,-72.1892319,Private,PETERSHAM,Worcester,*,*,*,*,*,*,*
PHILLIPSTON MEMORIAL,42.5484215,-72.1336916,Public,PHILLIPSTON,Worcester, , , , , , , 
ALLENDALE ELEMENTARY,42.4586902,-73.2201916,Public,PITTSFIELD,Berkshire,83%,90%,88%,98%,88%,81%,0%
CROSBY ELEMENTARY,42.4494881,-73.2728421,Public,PITTSFIELD,Berkshire,95%,96%,98%,100%,98%,95%,0%
EGREMONT SCHOOL,42.4372841,-73.2293832,Public,PITTSFIELD,Berkshire,93%,95%,95%,98%,96%,93%,2.50%
MORNINGSIDE COMMUNITY,42.456902,-73.2444251,Public,PITTSFIELD,Berkshire,92%,100%,98%,100%,98%,90%,0%
ROBERT CAPELESS SCHOOL,42.4804878,-73.260573,Public,PITTSFIELD,Berkshire,97%,97%,97%,97%,97%,97%,2.90%
SILVIO CONTE COMMUNITY SCHOOL,42.4556628,-73.2685295,Public,PITTSFIELD,Berkshire,89%,92%,94%,99%,92%,87%,1.10%
ST MARK SCHOOL,42.453589,-73.268748,Private,PITTSFIELD,Berkshire, , , , , , , 
STEARNS,42.45697,-73.2490265,Public,PITTSFIELD,Berkshire,87%,93%,91%,96%,91%,87%,4.40%
WILLIAMS ELEMENTARY,42.4347865,-73.2089798,Public,PITTSFIELD,Berkshire,98%,100%,98%,100%,98%,98%,0%
ANNA WARE JACKSON SCHOOL,42.0042655,-71.3328331,Public,PLAINVILLE,Norfolk,96%,99%,99%,100%,98%,94%,0%
COLD SPRING SCHOOL,41.9626033,-70.6778135,Public,PLYMOUTH,Plymouth,100%,100%,100%,97%,97%,97%,2.70%
FEDERAL FURNACE,41.9156887,-70.7053747,Public,PLYMOUTH,Plymouth,94%,96%,97%,97%,97%,93%,2.80%
HEDGE ELEMENTARY,41.9737143,-70.6878141,Public,PLYMOUTH,Plymouth,100%,100%,100%,100%,100%,100%,0%
INDIAN BROOK ELEMENTARY,41.8894734,-70.5399579,Public,PLYMOUTH,Plymouth,99%,99%,99%,100%,99%,99%,0%
MANOMET ELEMENTARY,41.9200257,-70.5529856,Public,PLYMOUTH,Plymouth,100%,100%,100%,100%,100%,100%,0%
NATHANIEL MORTON SCHOOL,41.954,-70.6596,Public,PLYMOUTH,Plymouth,89%,89%,87%,89%,87%,87%,3.60%
NEW TESTAMENT CHRISTIAN SCHOOL,41.8131958,-70.5595901,Private,PLYMOUTH,Plymouth, , , , , , , 
RADIUS PEDIATRIC SCHOOL,41.943151,-70.6588947,Private,PLYMOUTH,Plymouth, , , , , , , 
SOUTH SCHOOL,42.2006561,-70.8850446,Public,PLYMOUTH,Plymouth,98%,99%,98%,100%,98%,98%,1.90%
WEST SCHOOL,41.893713,-70.9258742,Public,PLYMOUTH,Plymouth,98%,98%,98%,98%,98%,98%,2.30%
DENNETT ELEMENTARY,41.9724426,-70.7974565,Public,PLYMPTON,Plymouth, , , , , , , 
THOMAS PRINCE ELEMENTARY,42.4424039,-71.8438971,Public,PRINCETON,Worcester,95%,98%,95%,95%,95%,95%,4.70%
PROVINCETOWN SCHOOLS,42.0513879,-70.1896656,Public,PROVINCETOWN,Barnstable, , , , , , , 
ATHERTON HOUGH,42.266731,-70.9574973,Public,QUINCY,Norfolk,100%,100%,100%,100%,98%,98%,0%
BEECHWOOD KNOLL ELEMENTARY,42.26937,-71.0053414,Public,QUINCY,Norfolk,95%,98%,98%,100%,98%,92%,1.50%
CHARLES BERNAZZANI SCHOOL,42.2558177,-71.0224441,Public,QUINCY,Norfolk,95%,96%,98%,100%,98%,93%,1.80%
CLIFFORD MARSHALL SCHOOL,42.2535711,-71.0005952,Public,QUINCY,Norfolk,96%,98%,99%,99%,99%,96%,0%
FRANCIS W PARKER ELEMENTARY,42.2528772,-71.0022705,Public,QUINCY,Norfolk,94%,100%,100%,98%,100%,87%,0%
LINCOLN- HANCOCK ELEMENTARY,42.2426827,-71.0113241,Public,QUINCY,Norfolk,96%,99%,97%,100%,96%,92%,0%
MERRYMOUNT,42.2625993,-70.9953259,Public,QUINCY,Norfolk,97%,100%,98%,98%,98%,97%,1.70%
MONTCLAIR ELEMENTARY,42.2707193,-71.0321204,Public,QUINCY,Norfolk,92%,97%,100%,100%,100%,92%,0%
MUTANAFISUN ACADEMY,42.2433376,-70.9793163,Private,QUINCY,Norfolk, , , , , , , 
QUINCY CATHOLIC ACADEMY,42.274734,-71.0263895,Private,QUINCY,Norfolk,73%,91%,84%,100%,78%,73%,0%
SNUG HARBOR,42.2539127,-70.9648422,Public,QUINCY,Norfolk,100%,100%,100%,100%,98%,98%,0%
SQUANTUM ELEMENTARY,42.2973785,-71.0120032,Public,QUINCY,Norfolk,97%,98%,98%,100%,98%,97%,0%
WOLLASTON SCHOOL,42.2632743,-71.0236027,Public,QUINCY,Norfolk,94%,98%,94%,98%,94%,92%,1.90%
ELIZABETH G LYONS ELEMENTARY,42.1774183,-71.040524,Public,RANDOLPH,Norfolk,100%,100%,100%,100%,100%,100%,0%
J F KENNEDY ELEMENTARY,42.1661469,-71.0342938,Public,RANDOLPH,Norfolk,100%,100%,100%,100%,100%,100%,0%
MARGARET L DONOVAN SCHOOL,42.1899772,-71.0702361,Public,RANDOLPH,Norfolk,100%,100%,100%,100%,100%,100%,0%
MARTIN E YOUNG ELEMENTARY,42.1528515,-71.0424175,Public,RANDOLPH,Norfolk,93%,99%,100%,100%,100%,93%,0%
MAY INSTITUTE CHILD DEVELOP CTR,42.1619739,-71.042551,Private,RANDOLPH,Norfolk, , , , , , , 
MERRILL ELEMENTARY,41.9323989,-71.030636,Public,RAYNHAM,Bristol,100%,100%,100%,99%,100%,99%,0.70%
ALICE BARROWS,42.5216213,-71.1240778,Public,READING,Middlesex,98%,100%,100%,100%,100%,98%,0%
BIRCH MEADOW SCHOOL,42.5379984,-71.1132577,Public,READING,Middlesex,100%,100%,100%,98%,100%,98%,0%
J WARREN KILLAM,42.5409277,-71.0903316,Public,READING,Middlesex,96%,97%,99%,100%,99%,96%,0%
JOSHUA EATON,42.5145967,-71.1106582,Public,READING,Middlesex,95%,96%,97%,97%,97%,95%,0%
READING MONTESSORI SCHOOL,42.5280493,-71.1266496,Private,READING,Middlesex, , , , , , , 
WOOD END ELEMENTARY,42.551369,-71.1163805,Public,READING,Middlesex,97%,100%,100%,100%,100%,97%,0%
CEDAR BROOK SDA SCHOOL,41.8470056,-71.2393933,Private,REHOBOTH,Bristol, , , , , , , 
PALMER RIVER ELEMENTARY,41.8470056,-71.2393933,Public,REHOBOTH,Bristol,97%,97%,97%,97%,97%,96%,3.30%
PINECROFT SCHOOL,41.9030909,-71.2159315,Private,REHOBOTH,Bristol, , , , , , , 
A C WHELAN ELEMENTARY,42.4193889,-71.0200305,Public,REVERE,Suffolk,100%,100%,100%,100%,100%,100%,0%
ABRAHAM LINCOLN,42.4167635,-71.0097726,Public,REVERE,Suffolk,99%,100%,99%,99%,98%,98%,1.10%
BEACHMONT,42.3959305,-70.986994,Public,REVERE,Suffolk,99%,100%,100%,100%,100%,97%,0%
GARFIELD ELEMENTARY,42.4036464,-70.9925628,Public,REVERE,Suffolk,92%,96%,97%,96%,95%,92%,0%
IMMACULATE CONCEPTION,42.406847,-71.009994,Private,REVERE,Suffolk,100%,100%,100%,100%,100%,100%,0%
PAUL REVERE,42.441908,-71.020185,Public,REVERE,Suffolk,99%,100%,99%,100%,99%,99%,0%
WILLIAM MCKINLEY,42.4096712,-71.0146496,Public,REVERE,Suffolk,99%,99%,99%,100%,99%,99%,0%
RICHMOND CONSOLIDATED,42.3815892,-73.3673212,Public,RICHMOND,Berkshire, , , , , , , 
ROCHESTER MEMORIAL,41.7460073,-70.8668978,Public,ROCHESTER,Plymouth,92%,96%,92%,98%,92%,76%,4.10%
CALVARY CHAPEL ACADEMY,42.1198788,-70.912657,Private,ROCKLAND,Plymouth, , , , , , , 
HOLY FAMILY SCHOOL,42.1337,-70.9151736,Private,ROCKLAND,Plymouth, , , , , , , 
JEFFERSON ELEMENTARY,42.1236412,-70.9105507,Public,ROCKLAND,Plymouth,98%,99%,99%,100%,99%,87%,1.00%
ROCKPORT ELEMENTARY,42.6509425,-70.6110728,Public,ROCKPORT,Essex,94%,95%,95%,92%,89%,80%,3.10%
CHARLES SUMNER SCHOOL,42.286471,-71.1269097,Public,ROSLINDALE,Suffolk,78%,81%,80%,84%,77%,79%,0%
DENNIS HALEY,42.2865657,-71.1074571,Public,ROSLINDALE,Suffolk,94%,94%,96%,99%,96%,96%,1.50%
EDWARD BROOKE CHARTER SCHOOL,42.2818841,-71.1218834,Public,ROSLINDALE,Suffolk,100%,100%,100%,100%,100%,100%,0%
GEORGE CONLEY,42.2747761,-71.1271083,Public,ROSLINDALE,Suffolk,*,*,*,*,*,*,*
JOHN PHILBRICK,42.2853995,-71.1177445,Public,ROSLINDALE,Suffolk,84%,87%,87%,97%,87%,87%,0%
MOZART SCHOOL,42.2812654,-71.1410989,Public,ROSLINDALE,Suffolk, , , , , , , 
PHINEAS BATES,42.2777234,-71.1353662,Public,ROSLINDALE,Suffolk,91%,100%,94%,100%,94%,94%,0%
SACRED HEART,42.2784317,-71.1222742,Private,ROSLINDALE,Suffolk,100%,99%,100%,100%,100%,99%,0%
ROWE ELEMENTARY,42.7042499,-72.8895419,Public,ROWE,Franklin, , , , , , , 
PINE GROVE,42.7169949,-70.874446,Public,ROWLEY,Essex,92%,98%,89%,100%,89%,82%,0%
DAVID A ELLIS,42.3162,-71.0931,Public,ROXBURY,Suffolk,34%,38%,36%,53%,36%,32%,0%
DUDLEY ST NEIGHBORHOOD CHARTER SCHOOL,42.32364,-71.073134,Public,ROXBURY,Suffolk,42%,53%,47%,64%,42%,22%,0%
ELLIS MENDELL,42.316592,-71.1016609,Public,ROXBURY,Suffolk,*,*,*,*,*,*,*
HAYNES EARLY EDUCATION CTR,42.3150712,-71.0789179,Public,ROXBURY,Suffolk,*,*,*,*,*,*,*
HIGGINSON SCHOOL,42.3176454,-71.0920076,Public,ROXBURY,Suffolk,88%,88%,89%,95%,89%,79%,0%
HIGGINSON/LEWIS K-8 SCHOOL,42.3151978,-71.0913748,Public,ROXBURY,Suffolk,89%,89%,89%,92%,89%,88%,3.00%
MANVILLE SCHOOL,42.3151978,-71.0913748,Private,ROXBURY,Suffolk, , , , , , , 
MAURICE J TOBIN SCHOOL,42.3329551,-71.0987406,Public,ROXBURY,Suffolk,73%,76%,76%,100%,73%,73%,0%
MISSION GRAMMAR SCHOOL,42.333111,-71.1010832,Private,ROXBURY,Suffolk, , , , , , , 
NATHAN HALE SCHOOL,42.3252277,-71.0911904,Public,ROXBURY,Suffolk,97%,97%,97%,97%,95%,95%,0%
ORCHARD GARDENS SCHOOL,42.3306072,-71.0772682,Public,ROXBURY,Suffolk,*,*,*,*,*,*,*
PAIGE ACADEMY,42.3151978,-71.0913748,Private,ROXBURY,Suffolk,*,*,*,*,*,*,*
RAFAEL HERNANDEZ,42.3139281,-71.0978417,Public,ROXBURY,Suffolk,80%,86%,82%,100%,84%,82%,0%
SAMUEL W MASON SCHOOL,42.3261079,-71.0713203,Public,ROXBURY,Suffolk,84%,88%,94%,84%,81%,81%,0%
ST PATRICK,42.3256509,-71.0747946,Private,ROXBURY,Suffolk, , , , , , , 
ROYALSTON COMMUNITY SCHOOL,42.6776794,-72.1438801,Public,ROYALSTON,Worcester, , , , , , , 
VILLAGE SCHOOL,42.6761689,-72.1874874,Private,ROYALSTON,Worcester, , , , , , , 
NAQUAG ELEMENTARY,42.3739934,-71.9570237,Public,RUTLAND,Worcester,96%,98%,98%,97%,97%,96%,2.10%
BRIDGEVIEW MONTESSORI SCHOOL,41.7804907,-70.535438,Private,SAGAMORE,Barnstable, , , , , , , 
BATES ELEMENTARY,42.5348416,-70.9057349,Public,SALEM,Essex,100%,100%,100%,100%,98%,98%,0%
BENTLEY SCHOOL,42.5281369,-70.881055,Public,SALEM,Essex,91%,94%,94%,94%,94%,89%,0%
CARLTON SCHOOL,42.5317941,-70.8904477,Public,SALEM,Essex,97%,100%,100%,100%,100%,97%,0%
GREENHOUSE SCHOOL,42.4976796,-70.8946661,Private,SALEM,Essex,*,*,*,*,*,*,*
HORACE MANN LABORATORY,42.503751,-70.891739,Public,SALEM,Essex,97%,98%,97%,98%,97%,97%,1.70%
NATHANIEL BOWDITCH SCHOOL,42.5071406,-70.9092164,Public,SALEM,Essex,89%,100%,96%,100%,95%,89%,1.80%
PHOENIX,42.5168539,-70.8962369,Private,SALEM,Essex, , , , , , , 
SALTONSTALL SCHOOL,42.5135347,-70.8915567,Public,SALEM,Essex,82%,95%,90%,97%,90%,77%,0%
WITCHCRAFT HEIGHTS,42.5163525,-70.9201767,Public,SALEM,Essex,99%,99%,100%,100%,100%,99%,0%
SALISBURY ELEMENTARY,42.8545618,-70.86707,Public,SALISBURY,Essex,95%,98%,98%,96%,98%,96%,1.80%
H.T. WING SCHOOL,41.7521789,-70.4960328,Public,SANDWICH,Barnstable,100%,96%,100%,98%,98%,96%,2.10%
OAK RIDGE SCHOOL,41.7195341,-70.4632034,Public,SANDWICH,Barnstable,95%,97%,97%,100%,97%,93%,3.30%
DOUGLAS WAYBRIGHT ELEMENTARY,42.4624651,-71.0139441,Public,SAUGUS,Essex, , , , , , , 
LYNNHURST,42.4762606,-71.0019014,Public,SAUGUS,Essex,100%,100%,100%,100%,100%,100%,0%
OAKLANDVALE ELEMENTARY,42.4651421,-71.0110473,Public,SAUGUS,Essex,87%,90%,87%,93%,87%,87%,0%
SHINING STARS LEARNING CENTER,42.4602972,-71.0076004,Private,SAUGUS,Essex, , , , , , , 
VETERANS MEMORIAL,42.4542629,-71.0039395,Public,SAUGUS,Essex,96%,97%,94%,96%,94%,86%,1.40%
SAVOY ELEMENTARY,42.5690841,-72.9954209,Public,SAVOY,Berkshire, , , , , , , 
CUSHING ELEMENTARY,42.204439,-70.7680382,Public,SCITUATE,Plymouth,98%,98%,98%,98%,98%,98%,2.10%
HATHERLY ELEMENTARY,42.2154457,-70.7636155,Public,SCITUATE,Plymouth,95%,97%,97%,95%,97%,82%,7.90%
INLY SCHOOL,42.1719719,-70.7594315,Private,SCITUATE,Plymouth, , , , , , , 
JENKINS ELEMENTARY,42.1905865,-70.7307969,Public,SCITUATE,Plymouth,100%,100%,98%,98%,97%,97%,1.70%
WAMPATUCK ELEMENTARY,42.2098236,-70.7422636,Public,SCITUATE,Plymouth,98%,98%,98%,98%,98%,90%,2.40%
GEORGE R MARTIN SCHOOL,41.7974428,-71.3163932,Public,SEEKONK,Bristol,98%,100%,100%,100%,100%,98%,0%
MILDRED AITKEN SCHOOL,41.8449355,-71.3345943,Public,SEEKONK,Bristol,100%,100%,100%,100%,100%,100%,0%
COTTAGE ST SCHOOL,42.1188763,-71.1723485,Public,SHARON,Norfolk,100%,97%,100%,97%,100%,94%,3.00%
EAST ELEMENTARY,42.1145913,-71.1481565,Public,SHARON,Norfolk,100%,100%,99%,100%,100%,99%,0%
HEIGHTS ELEMENTARY,42.1206916,-71.1780258,Public,SHARON,Norfolk,99%,100%,99%,100%,99%,96%,2.40%
ISLAMIC ACADEMY OF NEW ENGLAND,42.0965656,-71.1948537,Private,SHARON,Norfolk, , , , , , , 
STRIAR HEBREW ACADEMY,42.1155384,-71.1738078,Private,SHARON,Norfolk, , , , , , , 
MONTEREY,42.1863127,-73.3006316,Public,SHEFFIELD,Berkshire, , , , , , , 
NEW MARLBORO CENTRAL SCHOOL,42.1099885,-73.3551436,Public,SHEFFIELD,Berkshire, , , , , , , 
SOUTH EGREMONT,42.1605679,-73.4154169,Public,SHEFFIELD,Berkshire, , , , , , , 
UNDERMOUNTAIN ELEMENTARY,42.1099885,-73.3551436,Public,SHEFFIELD,Berkshire,65%,76%,74%,91%,65%,50%,2.20%
BUCKLAND SHELBURNE REGIONAL,42.6089935,-72.7344026,Public,SHELBURNE FALLS,Franklin,92%,89%,92%,95%,92%,84%,2.60%
PINE HILL,42.2459301,-71.3614477,Public,SHERBORN,Middlesex,98%,98%,100%,100%,100%,94%,0%
LURA WHITE ELEMENTARY,42.5437035,-71.6495176,Public,SHIRLEY,Middlesex,97%,98%,98%,98%,98%,97%,1.60%
AL-HAMRA ACADEMY,42.2710909,-71.6825876,Private,SHREWSBURY,Worcester, , , , , , , 
BEAL SCHOOL,42.2955565,-71.715725,Public,SHREWSBURY,Worcester,95%,97%,99%,99%,99%,95%,1.30%
CALVIN COOLIDGE SCHOOL,42.2653319,-71.7486654,Public,SHREWSBURY,Worcester,92%,98%,92%,100%,95%,88%,8.30%
LILLIPUT SCHOOL,42.2959267,-71.7128471,Private,SHREWSBURY,Worcester, , , , , , , 
SHREWSBURY CHILDREN'S CTR KINDERGARTEN,42.2959267,-71.7128471,Private,SHREWSBURY,Worcester, , , , , , , 
SHREWSBURY MONTESSORI SCHOOL,42.281729,-71.728709,Private,SHREWSBURY,Worcester, , , , , , , 
SPRING STREET SCHOOL,42.3043786,-71.7020966,Public,SHREWSBURY,Worcester,100%,100%,100%,100%,100%,100%,0%
ST MARY SCHOOL,42.2960822,-71.70997,Private,SHREWSBURY,Worcester, , , , , , , 
WALTER J PATON SCHOOL,42.2926773,-71.7131339,Public,SHREWSBURY,Worcester, , , , , , , 
SHUTESBURY ELEMENTARY,42.44883,-72.428421,Public,SHUTESBURY,Franklin, , , , , , , 
CHACE STREET SCHOOL,41.7695425,-71.1286194,Public,SOMERSET,Bristol,100%,100%,100%,100%,100%,100%,0%
NORTH ELEMENTARY,41.7772744,-71.1466548,Public,SOMERSET,Bristol,97%,98%,97%,97%,97%,97%,3.30%
SOUTH SCHOOL,41.7369398,-71.1656023,Public,SOMERSET,Bristol,96%,98%,96%,98%,98%,94%,1.90%
ARGENZIANO SCHOOL @ LINCOLN,42.378866,-71.0987821,Public,SOMERVILLE,Middlesex,98%,98%,98%,98%,98%,98%,2.20%
ARTHUR D HEALEY SCHOOL,42.3975844,-71.0953226,Public,SOMERVILLE,Middlesex,95%,100%,100%,100%,98%,93%,0%
BENJAMIN BROWN SCHOOL,42.3973754,-71.1141076,Public,SOMERVILLE,Middlesex,100%,100%,98%,100%,98%,98%,2.50%
BRIGHT HORIZONS TEELE SQUARE,42.4011175,-71.1285122,Private,SOMERVILLE,Middlesex, , , , , , , 
CAPUANO EARLY CHILDHOOD CTR,42.3875968,-71.0994968,Public,SOMERVILLE,Middlesex,100%,100%,99%,100%,100%,99%,0%
EAST SOMERVILLE COMMUNITY SCHOOL,42.38595,-71.0865761,Public,SOMERVILLE,Middlesex,99%,99%,100%,100%,100%,99%,0%
JOHN F KENNEDY ELEMENTARY,42.3892128,-71.1156848,Public,SOMERVILLE,Middlesex,95%,98%,100%,93%,84%,68%,0%
PROSPECT HILL ACADEMY CHARTER,42.3788,-71.0965,Public,Somerville,Middlesex,*,*,*,*,*,*,*
ST CATHERINE OF GENOA,42.3870318,-71.1086953,Private,SOMERVILLE,Middlesex,95%,95%,95%,100%,95%,95%,0%
WEST SOMERVILLE NEIGHBORHOOD SCHOOL,42.4062364,-71.126566,Public,SOMERVILLE,Middlesex,100%,100%,100%,100%,100%,100%,0%
WINTER HILL COMMUNITY,42.3917106,-71.0987482,Public,SOMERVILLE,Middlesex,100%,100%,100%,100%,100%,100%,0%
DAY SPRING CHRISTIAN ACADEMY,41.9059513,-71.3558594,Private,SOUTH ATTLEBORO,Bristol, , , , , , , 
HILL-ROBERTS ELEMENTARY,41.9174999,-71.3498,Public,SOUTH ATTLEBORO,Bristol,100%,100%,100%,100%,100%,100%,0%
JAMES CONDON,42.3380213,-71.0519753,Public,SOUTH BOSTON,Suffolk,65%,66%,66%,92%,82%,62%,0%
JOSEPH TYNAN,42.3346042,-71.0389815,Public,SOUTH BOSTON,Suffolk,51%,51%,51%,94%,51%,51%,0%
OLIVER H PERRY,42.3320424,-71.03005,Public,SOUTH BOSTON,Suffolk,49%,49%,49%,67%,49%,49%,27.90%
PERKINS ELEMENTARY SCHOOL,42.3381437,-71.0475773,Public,SOUTH BOSTON,Suffolk,*,*,*,*,*,*,*
SOUTH BOSTON CATHOLIC ACADEMY,42.3360191,-71.0296446,Private,SOUTH BOSTON,Suffolk,88%,85%,82%,97%,88%,75%,1.40%
ST PETER ACADEMY,42.3365863,-71.0499469,Private,SOUTH BOSTON,Suffolk,84%,90%,90%,97%,90%,90%,3.20%
DARTMOUTH EARLY LEARNING CTR,41.581074,-70.970532,Private,SOUTH DARTMOUTH,Bristol, , , , , , , 
DEERFIELD ELEMENTARY,42.480992,-72.60839,Public,SOUTH DEERFIELD,Franklin,94%,92%,94%,94%,94%,92%,6.10%
CENTER SCHOOL,42.0345094,-71.0993406,Public,SOUTH EASTON,Bristol,100%,100%,100%,100%,100%,100%,0%
SOUTH GRAFTON ELEMENTARY,42.1792207,-71.6956419,Public,SOUTH GRAFTON,Worcester,98%,99%,99%,97%,99%,96%,0.80%
PLAINS ELEMENTARY,42.2261307,-72.5733514,Public,SOUTH HADLEY,Hampshire,96%,98%,97%,98%,98%,96%,1.40%
CUTLER SCHOOL,42.6209274,-70.8772723,Public,SOUTH HAMILTON,Essex,98%,98%,98%,98%,100%,95%,0%
BROWNING ELEMENTARY @ SOUTH LANCASTER,42.4463,-71.6871,Private,SOUTH LANCASTER,Worcester, , , , , , , 
FIRST BAPTIST CHRISTIAN SCHOOL,42.1880487,-70.958573,Private,SOUTH WEYMOUTH,Norfolk, , , , , , , 
RALPH TALBOT SCHOOL,42.1763003,-70.9353245,Public,SOUTH WEYMOUTH,Norfolk,97%,97%,97%,97%,97%,97%,3.20%
ST FRANCIS XAVIER,42.1779321,-70.9478168,Private,SOUTH WEYMOUTH,Norfolk,100%,100%,100%,100%,100%,100%,0%
THOMAS W HAMILTON SCHOOL,42.165925,-70.9356684,Public,SOUTH WEYMOUTH,Norfolk,99%,99%,100%,100%,100%,99%,0%
ST PIUS X SCHOOL,41.672643,-70.186093,Private,SOUTH YARMOUTH,Barnstable, , , , , , , 
STATION AVENUE ELEMENTARY,41.6802275,-70.1975204,Public,SOUTH YARMOUTH,Barnstable,98%,99%,98%,98%,98%,96%,1.00%
WILLIAM E NORRIS,42.241707,-72.724285,Public,SOUTHAMPTON,Hampshire,93%,95%,97%,95%,95%,92%,5.00%
MARY E FINN SCHOOL,42.2746413,-71.5339825,Public,SOUTHBORO,Worcester,100%,100%,100%,98%,100%,98%,1.70%
NEW ENGLAND CTR FOR CHILDREN SCHOOL,42.4072107,-71.3824374,Private,SOUTHBORO,Worcester, , , , , , , 
EASTFORD ROAD,42.0674829,-72.0393503,Public,SOUTHBRIDGE,Worcester,99%,100%,100%,100%,99%,99%,0.60%
MONTESSORI CHILDRENS HOUSE,42.0881002,-72.0237986,Private,SOUTHBRIDGE,Worcester,*,*,*,*,*,*,*
SOUTHBRIDGE CHRISTIAN ACADEMY,42.0903729,-72.0009077,Private,SOUTHBRIDGE,Worcester, , , , , , , 
TRINITY CATHOLIC ACADEMY,42.0809936,-72.0372699,Private,SOUTHBRIDGE,Worcester,*,*,*,*,*,*,*
WOODLAND ELEMENTARY,42.0600111,-72.7512931,Public,SOUTHWICK,Hampden,98%,97%,98%,97%,98%,96%,3.20%
LAKE STREET,42.250254,-71.986883,Public,SPENCER,Worcester,100%,100%,100%,100%,99%,99%,0%
ALFRED G ZANETTI,42.120986,-72.587807,Public,SPRINGFIELD,Hampden,98%,98%,98%,100%,98%,98%,2.30%
ALICE BEAL ELEMENTARY,42.07395,-72.544371,Public,SPRINGFIELD,Hampden,100%,98%,98%,100%,98%,98%,0%
ARTHUR T TALMADGE SCHOOL,42.0957839,-72.5142865,Public,SPRINGFIELD,Hampden,98%,100%,100%,98%,100%,98%,0%
BRIGHTWOOD SCHOOL,42.1198957,-72.6149868,Public,SPRINGFIELD,Hampden,98%,98%,98%,98%,98%,98%,2.10%
DANIEL B BRUNTON SCHOOL,42.0969849,-72.491852,Public,SPRINGFIELD,Hampden,*,*,*,*,*,*,*
DRYDEN MEMORIAL SCHOOL,42.0991531,-72.5436861,Public,SPRINGFIELD,Hampden,88%,94%,90%,100%,90%,88%,0%
EDWARD P BOLAND ELEMENTARY,42.1200234,-72.5870261,Public,SPRINGFIELD,Hampden,86%,92%,94%,96%,92%,86%,0%
ELIAS BROOKINGS SCHOOL,42.0986549,-72.5651681,Public,SPRINGFIELD,Hampden,90%,90%,90%,98%,90%,80%,0%
FRANK H FREEDMAN SCHOOL,42.1092611,-72.5250869,Public,SPRINGFIELD,Hampden,100%,100%,100%,100%,100%,100%,0%
FREDRICK HARRIS SCHOOL,42.0928088,-72.5353904,Public,SPRINGFIELD,Hampden,100%,100%,100%,100%,100%,100%,0%
GERENA SCHOOL,42.1187681,-72.6106275,Public,SPRINGFIELD,Hampden,95%,99%,100%,100%,100%,95%,0%
GLENWOOD SCHOOL,42.1322658,-72.5905643,Public,SPRINGFIELD,Hampden,84%,89%,98%,96%,56%,89%,2.20%
GLICKMAN ELEMENTARY,42.1142131,-72.5112906,Public,SPRINGFIELD,Hampden,98%,100%,100%,100%,100%,98%,0%
HIRAM L DORMAN SCHOOL,42.1281495,-72.5395318,Public,SPRINGFIELD,Hampden,100%,100%,100%,100%,100%,100%,0%
HOMER STREET SCHOOL,42.1130168,-72.5554833,Public,SPRINGFIELD,Hampden,95%,96%,96%,96%,96%,95%,0%
KENSINGTON AVENUE SCHOOL,42.091118,-72.5615852,Public,SPRINGFIELD,Hampden,91%,93%,97%,94%,94%,90%,2.90%
LIBERTY SCHOOL,42.1292604,-72.5792552,Public,SPRINGFIELD,Hampden,92%,98%,98%,86%,100%,96%,0%
LINCOLN ELEMENTARY,42.1198317,-72.6055735,Public,SPRINGFIELD,Hampden,100%,100%,100%,100%,100%,100%,0%
MAKE WAY FOR DUCKLINGS,42.1041817,-72.5461046,Private,SPRINGFIELD,Hampden, , , , , , , 
MARGARET C ELLS SCHOOL,42.1239828,-72.5556433,Public,SPRINGFIELD,Hampden,*,*,*,*,*,*,*
MARTIN LUTHER KING CHARTER SCHOOL,42.0839523,-72.5362183,Public,SPRINGFIELD,Hampden,87%,88%,92%,97%,90%,78%,0%
MARY M LYNCH SCHOOL,42.1291011,-72.5105041,Public,SPRINGFIELD,Hampden,100%,100%,100%,100%,98%,98%,0%
MARY M WALSH SCHOOL,42.11565,-72.4939748,Public,SPRINGFIELD,Hampden,96%,94%,94%,98%,94%,91%,0%
MARY O POTTENGER SCHOOL,42.13816,-72.5681293,Public,SPRINGFIELD,Hampden,99%,99%,99%,99%,99%,99%,0%
MILTON BRADLEY SCHOOL,42.1014143,-72.5803428,Public,SPRINGFIELD,Hampden,90%,94%,97%,84%,96%,94%,0%
PIONEER VALLEY CHRISTIAN SCHOOL,42.103479,-72.516244,Private,SPRINGFIELD,Hampden, , , , , , , 
PIONEER VALLEY MONTESSORI,42.1055934,-72.4975156,Private,SPRINGFIELD,Hampden, , , , , , , 
REBECCA JOHNSON SCHOOL,42.1130595,-72.5646222,Public,SPRINGFIELD,Hampden,82%,90%,87%,96%,86%,82%,2.40%
SABIS CHARTER SCHOOL,42.1259342,-72.4848011,Public,SPRINGFIELD,Hampden,94%,97%,94%,100%,98%,94%,0%
SAMUEL BOWLES SCHOOL,42.1439824,-72.5620325,Public,SPRINGFIELD,Hampden,99%,99%,100%,100%,100%,99%,0%
SPRINGFIELD PUBLIC DAY ELEMENTARY,42.1023165,-72.562588,Public,SPRINGFIELD,Hampden, , , , , , , 
ST MICHAELS ELEMENTARY,42.1043282,-72.5845656,Private,SPRINGFIELD,Hampden,74%,87%,80%,89%,80%,74%,0%
SUMNER AVE ELEMENTARY,42.0822488,-72.5746537,Public,SPRINGFIELD,Hampden,91%,96%,96%,97%,96%,90%,0%
THOMAS M BALLIET SCHOOL,42.1289854,-72.5274701,Public,SPRINGFIELD,Hampden,95%,95%,100%,100%,100%,95%,0%
TRINITY NURSERY SCHOOL & KIND,42.1014831,-72.589811,Private,SPRINGFIELD,Hampden, , , , , , , 
WARNER SCHOOL,42.1404712,-72.4952417,Public,SPRINGFIELD,Hampden,98%,100%,98%,98%,98%,98%,0%
WASHINGTON SCHOOL,42.0827147,-72.5496001,Public,SPRINGFIELD,Hampden,92%,94%,93%,97%,93%,92%,3.40%
WHITE STREET SCHOOL,42.090079,-72.5536699,Public,SPRINGFIELD,Hampden,97%,99%,99%,100%,97%,96%,0%
WILLIAM N DEBERRY SCHOOL,42.1091845,-72.5662792,Public,SPRINGFIELD,Hampden,100%,100%,100%,100%,100%,100%,0%
HOUGHTON SCHOOL,42.4134605,-71.7774987,Public,STERLING,Worcester,98%,100%,98%,98%,98%,98%,0%
CENTRAL SCHOOL,42.4848886,-71.0963194,Public,STONEHAM,Middlesex,*,*,*,*,*,*,*
COLONIAL PARK,42.4684321,-71.0858725,Public,STONEHAM,Middlesex,89%,98%,96%,100%,93%,89%,0%
EDGEWOOD SCHOOL,42.4802469,-71.0999719,Private,STONEHAM,Middlesex, , , , , , , 
ROBIN HOOD SCHOOL,42.4934405,-71.107586,Public,STONEHAM,Middlesex,91%,91%,91%,96%,91%,91%,1.90%
SOUTH SCHOOL,42.4734462,-71.1000891,Public,STONEHAM,Middlesex,87%,98%,95%,98%,93%,87%,0%
ST PATRICK,42.4824244,-71.0983039,Private,STONEHAM,Middlesex,100%,100%,100%,100%,100%,100%,0%
HELEN HANSEN SCHOOL,42.130922,-71.130306,Public,STOUGHTON,Norfolk,98%,98%,98%,100%,98%,98%,2.20%
JOSEPH H GIBBONS ELEMENTARY,42.1229099,-71.1092012,Public,STOUGHTON,Norfolk,100%,100%,100%,100%,100%,100%,0%
JOSEPH R DAWE ELEMENTARY,42.1394971,-71.0913366,Public,STOUGHTON,Norfolk,97%,98%,97%,98%,97%,97%,3.20%
SOUTH ELEMENTARY,42.111372,-71.0832271,Public,STOUGHTON,Norfolk,100%,98%,100%,100%,100%,95%,0%
WEST ELEMENTARY,42.1325143,-71.112789,Public,STOUGHTON,Norfolk,100%,100%,100%,100%,100%,100%,0%
STEPPINGSTONES SCHOOL,42.4345978,-71.5054984,Private,STOW,Middlesex, , , , , , , 
THE CENTER SCHOOL,42.4377236,-71.5081795,Public,STOW,Middlesex,95%,98%,98%,98%,98%,95%,1.90%
BURGESS ELEMENTARY,42.1139835,-72.095354,Public,STURBRIDGE,Worcester,97%,97%,97%,97%,97%,95%,2.70%
GENERAL JOHN NIXON SCHOOL,42.3915211,-71.4028291,Public,SUDBURY,Middlesex,100%,100%,100%,100%,100%,100%,0%
ISRAEL LORING SCHOOL,42.3497377,-71.4075805,Public,SUDBURY,Middlesex,96%,98%,100%,98%,98%,63%,1.90%
JOSIAH HAYNES SCHOOL,42.4150941,-71.414228,Public,SUDBURY,Middlesex,86%,90%,85%,93%,83%,76%,1.70%
PETER NOYES,42.3825881,-71.409105,Public,SUDBURY,Middlesex,98%,97%,99%,99%,99%,95%,1.20%
SUNDERLAND ELMENTARY,42.4588271,-72.575197,Public,SUNDERLAND,Franklin, , , , , , , 
SUTTON ELEMENTARY,42.1431997,-71.7726375,Public,SUTTON,Worcester,100%,100%,100%,100%,100%,100%,0%
CLARKE SCHOOL,42.4748122,-70.9170234,Public,SWAMPSCOTT,Essex,100%,100%,100%,100%,100%,100%,0%
HADLEY ELEMENTARY,42.4686165,-70.9159401,Public,SWAMPSCOTT,Essex,98%,100%,100%,98%,98%,93%,0%
STANLEY SCHOOL,42.4722302,-70.8975237,Public,SWAMPSCOTT,Essex,98%,100%,100%,100%,100%,98%,0%
GARDNER ELEMENTARY,41.7237815,-71.2011779,Public,SWANSEA,Bristol,96%,100%,100%,100%,100%,96%,0%
M.G. HOYLE ELEMENTARY,41.7652656,-71.2408644,Public,SWANSEA,Bristol,96%,99%,99%,100%,99%,96%,2.70%
EDMUND HATCH BENNETT,41.9030524,-71.1382193,Public,TAUNTON,Bristol,100%,100%,100%,100%,100%,100%,0%
ELIZABETH POLE SCHOOL,41.9021198,-71.0655442,Public,TAUNTON,Bristol,96%,97%,97%,98%,98%,96%,2.60%
H H GALLIGAN SCHOOL,41.9007999,-71.1079,Public,TAUNTON,Bristol,94%,100%,100%,100%,100%,94%,0%
HOPEWELL,41.9199396,-71.0939069,Public,TAUNTON,Bristol,91%,94%,94%,100%,95%,91%,6.10%
JOSEPH C CHAMBERLAIN,41.9182442,-71.1362585,Public,TAUNTON,Bristol,100%,100%,100%,100%,100%,100%,0%
MULCAHEY ELEMENTARY SCHOOL,41.900101,-71.0897674,Public,TAUNTON,Bristol,100%,100%,100%,100%,100%,100%,0%
OUR LADY OF LOURDES,41.8885296,-71.0944672,Private,TAUNTON,Bristol, , , , , , , 
ST MARYS SCHOOL,41.9065464,-71.093704,Private,TAUNTON,Bristol, , , , , , , 
TEMPLETON CENTER ELEMENTARY,42.555644,-72.067579,Public,TEMPLETON,Worcester,96%,99%,100%,100%,100%,95%,0%
HEATH BROOK,42.5834262,-71.2181129,Public,TEWKSBURY,Middlesex,99%,100%,99%,99%,99%,98%,1.90%
L F DEWING,42.6417303,-71.2470996,Public,TEWKSBURY,Middlesex,99%,100%,100%,99%,100%,98%,1.50%
STEWARD ELEMENTARY,42.6475019,-70.9223377,Public,TOPSFIELD,Essex,97%,99%,99%,97%,96%,94%,2.50%
SPAULDING MEMORIAL SCHOOL,42.670368,-71.713762,Public,TOWNSEND,Middlesex,98%,98%,97%,98%,98%,98%,3.20%
TRURO CENTRAL SCHOOL,42.0180529,-70.0710032,Public,TRURO,Barnstable, , , , , , , 
HILLCREST ELEMENTARY,42.6042523,-72.5564777,Public,TURNERS FALLS,Franklin,98%,98%,98%,98%,98%,98%,1.90%
ACADEMY OF NOTRE DAME,42.6704999,-71.4263,Private,TYNGSBORO,Middlesex,94%,100%,100%,100%,100%,94%,0%
TYNGSBORO ELEMENTARY SCHOOL,42.6542771,-71.4452838,Public,TYNGSBORO,Middlesex,92%,99%,95%,98%,95%,87%,1.90%
MEMORIAL SCHOOL,42.1704634,-71.6134313,Public,UPTON,Worcester,95%,97%,94%,98%,92%,91%,3.00%
OUR LADY OF THE VALLEY,42.0777648,-71.624861,Private,UXBRIDGE,Worcester, , , , , , , 
TAFT EARLY LEARNING CENTER,42.0772429,-71.6302532,Public,UXBRIDGE,Worcester,91%,91%,89%,99%,89%,87%,0.70%
TISBURY ELEMENTARY,41.452647,-70.609781,Public,VINEYARD HAVEN,Dukes,95%,97%,97%,95%,92%,81%,10.80%
VINEYARD MONTESSORI,41.4621,-70.603199,Private,VINEYARD HAVEN,Dukes, , , , , , , 
ANGIER SCHOOL,42.3265807,-71.232528,Public,WABAN,Middlesex,97%,98%,100%,100%,100%,97%,0%
ZERVAS SCHOOL,42.3270215,-71.2309935,Public,WABAN,Middlesex,98%,100%,100%,100%,100%,100%,0%
DOLBEARE SCHOOL,42.5185026,-71.0655723,Public,WAKEFIELD,Middlesex,99%,98%,99%,99%,99%,98%,1.20%
DOYLE EARLY CHILDHOOD CENTER,42.5039395,-71.0723391,Public,WAKEFIELD,Middlesex,94%,97%,94%,94%,94%,94%,6.20%
GREENWOOD SCHOOL,42.4809288,-71.064219,Public,WAKEFIELD,Middlesex,100%,100%,100%,100%,100%,100%,0%
ODYSSEY DAY SCHOOL,42.5144475,-71.0421293,Private,WAKEFIELD,Middlesex, , , , , , , 
ST JOSEPH SCHOOL,42.5008318,-71.0783417,Private,WAKEFIELD,Middlesex,100%,100%,100%,100%,100%,100%,0%
WOODVILLE SCHOOL,42.4979315,-71.0505957,Public,WAKEFIELD,Middlesex,95%,99%,96%,97%,95%,93%,1.40%
WALES ELEMENTARY,42.0714838,-72.2225785,Public,WALES,Hampden, , , , , , , 
BLESSED SACRAMENT,42.1468,-71.2452,Private,WALPOLE,Norfolk,79%,85%,76%,94%,79%,76%,5.90%
BOYDEN ELEMENTARY,42.1058428,-71.2588301,Public,WALPOLE,Norfolk,*,*,*,*,*,*,*
ELM ST SCHOOL,42.1540075,-71.2674419,Public,WALPOLE,Norfolk,98%,98%,98%,98%,98%,98%,1.70%
FISHER ELEMENTARY SCHOOL,42.1417442,-71.2495096,Public,WALPOLE,Norfolk,97%,99%,99%,99%,99%,97%,1.30%
LEAGUE SCHOOL,42.149311,-71.2122654,Private,WALPOLE,Norfolk, , , , , , , 
DOUGLAS MACARTHUR,42.404039,-71.2500081,Public,WALTHAM,Middlesex,95%,97%,97%,97%,97%,94%,0%
HENRY WHITTEMORE ELEMENTARY,42.3649238,-71.2296117,Public,WALTHAM,Middlesex,89%,67%,96%,87%,97%,49%,1.30%
JAMES FITZGERALD ELEMENTARY,42.3805924,-71.209654,Public,WALTHAM,Middlesex,100%,100%,100%,100%,100%,100%,0%
NORTHEAST SCHOOL,42.4030648,-71.2238255,Public,WALTHAM,Middlesex,97%,96%,95%,99%,96%,91%,2.70%
OUR LADY'S ACADEMY,42.4087504,-71.2299557,Private,WALTHAM,Middlesex,100%,100%,100%,100%,100%,100%,0%
ST JUDE ELEMENTARY,42.3764852,-71.2356113,Private,WALTHAM,Middlesex, , , , , , , 
THOMAS R PLYMPTON SCHOOL,42.3820538,-71.2427041,Public,WALTHAM,Middlesex,96%,100%,99%,99%,96%,95%,0%
WILLIAM STANLEY ELEMENTARY,42.3673647,-71.251826,Public,WALTHAM,Middlesex,97%,99%,99%,97%,97%,96%,1.40%
ST MARYS,42.2559258,-72.2392464,Private,WARE,Hampshire, , , , , , , 
STANLEY M KOZIOL SCHOOL,42.2518147,-72.2624807,Public,WARE,Hampshire,94%,97%,98%,98%,98%,93%,1.10%
JOHN WILLIAM DECAS SCHOOL,41.7709716,-70.7465404,Public,WAREHAM,Plymouth,90%,92%,90%,94%,90%,88%,0.40%
WARWICK COMMUNITY SCHOOL,42.6867547,-72.3400439,Public,WARWICK,Franklin, , , , , , , 
ATRIUM SCHOOL,42.3693923,-71.1531882,Private,WATERTOWN,Middlesex, , , , , , , 
CUNNIFF,42.3767013,-71.1992683,Public,WATERTOWN,Middlesex,98%,98%,100%,100%,100%,98%,0%
HOSMER-EAST,42.3672846,-71.1672839,Public,WATERTOWN,Middlesex,93%,97%,99%,100%,99%,93%,1.10%
JAMES RUSSELL LOWELL,42.3769846,-71.1835255,Public,WATERTOWN,Middlesex,93%,97%,99%,100%,99%,93%,1.30%
JEWISH COMMUNITY DAY SCHOOL,42.3683171,-71.2095837,Private,WATERTOWN,Middlesex, , , , , , , 
PERKINS SCHOOL FOR THE BLIND,42.3609588,-71.1753024,Private,WATERTOWN,Middlesex, , , , , , , 
ST STEPHENS ARMENIAN SCHOOL,42.3682021,-71.1584458,Private,WATERTOWN,Middlesex, , , , , , , 
CLAYPIT HILL SCHOOL,42.3731583,-71.3447739,Public,WAYLAND,Middlesex,92%,96%,93%,92%,90%,92%,2.70%
HAPPY HOLLOW,42.3367099,-71.3626183,Public,WAYLAND,Middlesex,100%,100%,100%,100%,100%,100%,0%
LOKER SCHOOL,42.3296466,-71.3469139,Public,WAYLAND,Middlesex,100%,100%,100%,100%,100%,100%,0%
VERITAS CHRISTIAN ACADEMY,42.3245109,-71.3498153,Private,WAYLAND,Middlesex, , , , , , , 
PARK AVENUE ELEMENTARY,42.0540422,-71.8669046,Public,WEBSTER,Worcester,99%,99%,99%,100%,99%,99%,1.30%
ST ANNE SCHOOL,42.0557171,-71.8773881,Private,WEBSTER,Worcester, , , , , , , 
ST JOSEPH,42.049281,-71.878309,Private,WEBSTER,Worcester, , , , , , , 
ST LOUIS,42.049281,-71.878309,Private,WEBSTER,Worcester, , , , , , , 
EARNEST F UPHAM ELEMENTARY,42.296797,-71.2923877,Public,WELLESLEY,Norfolk,94%,100%,100%,100%,100%,92%,0%
HUNNEWELL,42.2955532,-71.2898392,Public,WELLESLEY,Norfolk,98%,100%,100%,100%,100%,98%,0%
JOHN D HARDY SCHOOL,42.3039855,-71.3117243,Public,WELLESLEY,Norfolk,100%,100%,100%,100%,100%,98%,0%
JOSEPH E FISKE,42.3128738,-71.2476769,Public,WELLESLEY,Norfolk,96%,95%,98%,96%,96%,95%,1.80%
KATHARINE LEE BATES SCHOOL,42.3125965,-71.3153356,Public,WELLESLEY,Norfolk,96%,96%,100%,100%,100%,92%,0%
SCHOFIELD ELEMENTARY,42.3205592,-71.2539428,Public,WELLESLEY,Norfolk,98%,100%,100%,100%,100%,98%,0%
SPRAGUE ELEMENTARY,42.304492,-71.2975843,Public,WELLESLEY,Norfolk,100%,100%,100%,100%,100%,100%,0%
ST JOHN THE EVANGELIST,42.3247622,-71.2624398,Private,WELLESLEY,Norfolk,73%,85%,85%,100%,83%,73%,1.70%
ST PAUL SCHOOL,42.2981573,-71.2875601,Private,WELLESLEY,Norfolk, , , , , , , 
TENACRE COUNTRY DAY SCHOOL,42.288037,-71.2861423,Private,WELLESLEY,Norfolk, , , , , , , 
WELLFLEET ELEMENTARY,41.941522,-70.0229799,Public,WELLFLEET,Barnstable, , , , , , , 
BESSIE BUKER ELEMENTARY,42.6086316,-70.8852602,Public,WENHAM,Essex,98%,98%,98%,98%,98%,98%,2.40%
NOTRE DAME CHILDRENS CLASS,42.596004,-70.84714,Private,WENHAM,Essex, , , , , , , 
VERITAS ACADEMY,41.6770017,-70.3697722,Private,WEST BARNSTABLE,Barnstable, , , , , , , 
WEST BARNSTABLE ELEMENTARY,41.6987314,-70.3269705,Public,WEST BARNSTABLE,Barnstable,100%,100%,100%,100%,100%,100%,0%
MAJOR EDWARDS ELEMENTARY,42.3723552,-71.7869621,Public,WEST BOYLSTON,Worcester,96%,100%,98%,100%,98%,96%,0%
NEW ENGLAND BAPTIST ACADEMY,42.0339625,-71.0094237,Private,WEST BRIDGEWATER,Plymouth, , , , , , , 
SPRING ST SCHOOL,42.0201005,-71.011155,Public,WEST BRIDGEWATER,Plymouth,99%,100%,97%,99%,97%,97%,0%
WARREN SDA SCHOOL,42.1800079,-72.162249,Private,WEST BROOKFIELD,Worcester, , , , , , , 
WEST BROOKFIELD ELEMENTARY,42.238759,-72.1341509,Public,WEST BROOKFIELD,Worcester,97%,100%,97%,97%,97%,92%,7.90%
EZRA H BAKER,41.6685119,-70.152619,Public,WEST DENNIS,Barnstable,97%,99%,99%,99%,98%,96%,2.20%
CHILDRENS CASTLE INC,42.8076079,-70.9612206,Private,WEST NEWBURY,Essex, , , , , , , 
DR JOHN C PAGE ELEMENTARY,42.8085161,-70.9615606,Public,WEST NEWBURY,Essex,98%,98%,98%,94%,98%,96%,6.00%
FESSENDEN SCHOOL,42.3578291,-71.2198556,Private,WEST NEWTON,Middlesex, , , , , , , 
FRANKLIN,42.3500962,-71.1821692,Public,WEST NEWTON,Middlesex,99%,96%,99%,99%,99%,99%,1.30%
PEIRCE,42.320986,-71.2908964,Public,WEST NEWTON,Middlesex,96%,100%,100%,98%,100%,94%,0%
BEETHOVEN,42.2635282,-71.1558837,Public,WEST ROXBURY,Suffolk,74%,81%,62%,97%,49%,57%,0%
HOLY NAME SCHOOL,42.2883911,-71.1482916,Private,WEST ROXBURY,Suffolk,100%,100%,100%,98%,98%,98%,0%
JOYCE KILMER,42.2718788,-71.162585,Public,WEST ROXBURY,Suffolk,93%,93%,93%,89%,89%,93%,0%
LYNDON SCHOOL,42.2931535,-71.1522752,Public,WEST ROXBURY,Suffolk,98%,98%,100%,100%,100%,98%,0%
ST THERESA SCHOOL,42.2781213,-71.1579923,Private,WEST ROXBURY,Suffolk,100%,97%,100%,100%,100%,97%,0%
JOHN ASHLEY,42.1070383,-72.6203675,Public,WEST SPRINGFIELD,Hampden,96%,98%,98%,99%,99%,94%,1.20%
MAY CENTER FOR CHILD DEVELOPMENT,42.1028805,-72.6087533,Private,WEST SPRINGFIELD,Hampden, , , , , , , 
MONTESSORI CHILDRENS HOUSE,42.1109272,-72.6189785,Private,WEST SPRINGFIELD,Hampden, , , , , , , 
PHIILIP G COBURN SCHOOL,42.1070383,-72.6203675,Public,WEST SPRINGFIELD,Hampden,74%,79%,95%,95%,95%,76%,3.20%
ST THOMAS THE APOSTLE,42.1056907,-72.6410357,Private,WEST SPRINGFIELD,Hampden,88%,94%,94%,97%,91%,85%,0%
MARTHA'S VINEYARD CHARTER,41.4190896,-70.6644034,Public,WEST TISBURY,Dukes, , , , , , , 
WEST TISBURY SCHOOL,41.403136,-70.662105,Public,WEST TISBURY,Dukes,95%,95%,95%,92%,95%,89%,8.10%
WARREN ELEMENTARY,42.19097,-72.2233142,Public,WEST WARREN,Worcester,97%,97%,98%,100%,95%,94%,1.60%
MARGUERITE E SMALL ELEMENTARY,41.6735674,-70.246088,Public,WEST YARMOUTH,Barnstable,91%,96%,98%,100%,100%,91%,0%
ANNIE E FALES SCHOOL,42.2504016,-71.6217628,Public,WESTBORO,Worcester,97%,96%,99%,99%,99%,96%,1.30%
ELISE A HASTINGS SCHOOL,42.2695216,-71.6161294,Public,WESTBORO,Worcester,94%,98%,100%,100%,100%,91%,0%
J HARDING ARMSTRONG,42.2698165,-71.6231223,Public,WESTBORO,Worcester,99%,98%,99%,99%,99%,98%,1.00%
ABNER GIBBS,42.1142598,-72.7537049,Public,WESTFIELD,Hampden,97%,97%,100%,100%,100%,97%,0%
COMMUNITY CHRISTIAN SCHOOL,42.1104879,-72.748947,Private,WESTFIELD,Hampden, , , , , , , 
FRANKLIN AVE SCHOOL,42.1292594,-72.7578717,Public,WESTFIELD,Hampden,94%,94%,94%,94%,94%,94%,5.60%
HIGHLAND SCHOOL,42.1194357,-72.7689676,Public,WESTFIELD,Hampden,74%,80%,79%,82%,70%,66%,13.20%
JUNIPER PARK,42.1321123,-72.7997128,Public,WESTFIELD,Hampden,93%,95%,90%,100%,90%,90%,9.50%
MUNGER HILL ELEMENTARY,42.09731,-72.733408,Public,WESTFIELD,Hampden,98%,100%,100%,100%,100%,100%,0%
PAPER MILL SCHOOL,42.1286593,-72.7040632,Public,WESTFIELD,Hampden,99%,99%,99%,100%,99%,99%,1.40%
SOUTHAMPTON ROAD,42.1661432,-72.7265309,Public,WESTFIELD,Hampden,94%,95%,97%,97%,97%,94%,4.50%
ST MARYS SCHOOL,42.124594,-72.7462922,Private,WESTFIELD,Hampden, , , , , , , 
COL JOHN ROBINSON ELEMENTARY,42.5700914,-71.4642307,Public,WESTFORD,Middlesex,98%,100%,100%,98%,98%,97%,3.20%
NABNASSET ELEMENTARY,42.6089,-71.4218999,Public,WESTFORD,Middlesex,94%,95%,99%,99%,99%,94%,0.90%
NEXT GENERATION CHILDREN'S CTR,42.5545911,-71.4396946,Private,WESTFORD,Middlesex, , , , , , , 
RITA MILLER ELEMENTARY,42.6416152,-71.4316151,Public,WESTFORD,Middlesex,93%,93%,98%,99%,96%,91%,1.00%
WESTHAMPTON ELEMENTARY,42.3171428,-72.7673678,Public,WESTHAMPTON,Hampshire, , , , , , , 
CAPS COLLABORATIVE SCHOOL,42.5459227,-71.9106308,Private,WESTMINSTER,Worcester, , , , , , , 
MEETINGHOUSE ELEMENTARY,42.5442561,-71.9111864,Public,WESTMINSTER,Worcester,100%,100%,100%,97%,97%,97%,2.70%
COUNTRY ELEMENTARY,42.3667625,-71.3031132,Public,WESTON,Middlesex,99%,100%,100%,100%,99%,99%,0%
MEADOWBROOK SCHOOL OF WESTON,42.3541119,-71.272057,Private,WESTON,Middlesex, , , , , , , 
WOODLAND,42.333374,-71.244301,Public,WESTON,Middlesex,99%,100%,100%,100%,100%,99%,0%
ALICE A MACOMBER,41.6526334,-71.082419,Public,WESTPORT,Bristol,99%,99%,99%,99%,99%,99%,0.90%
MONTESSORI SCHOOL OF THE ANGELS,41.6362259,-71.0511785,Private,WESTPORT,Bristol, , , , , , , 
DEERFIELD SCHOOL,42.2262106,-71.2195683,Public,WESTWOOD,Norfolk,100%,100%,100%,100%,100%,100%,0%
DOWNEY SCHOOL,42.2139873,-71.2244987,Public,WESTWOOD,Norfolk, , , , , , , 
MARTHA JONES SCHOOL,42.2001052,-71.2349773,Public,WESTWOOD,Norfolk,100%,100%,100%,100%,100%,100%,0%
PAUL HANLON,42.2265074,-71.1915135,Public,WESTWOOD,Norfolk,100%,97%,100%,97%,100%,97%,0%
WILLIAM E SHEEHAN SCHOOL,42.207584,-71.23625,Public,WESTWOOD,Norfolk,100%,100%,100%,100%,100%,98%,0%
ACADEMY AVE SCHOOL,42.2206785,-70.9424591,Public,WEYMOUTH,Norfolk,98%,100%,100%,100%,100%,98%,0%
FREDERICK MURPHY SCHOOL,42.2180724,-70.9410356,Public,WEYMOUTH,Norfolk,100%,100%,100%,100%,100%,100%,0%
LAWRENCE W PINGREE,42.2177338,-70.9251932,Public,WEYMOUTH,Norfolk,95%,95%,95%,95%,95%,95%,5.00%
SACRED HEART ELEMENTARY,42.2200532,-70.9666639,Private,WEYMOUTH,Norfolk, , , , , , , 
SOUTH SHORE CHRISTIAN ACADEMY,42.2147962,-70.9651131,Private,WEYMOUTH,Norfolk,*,*,*,*,*,*,*
THOMAS V NASH SCHOOL,42.1862112,-70.9578236,Public,WEYMOUTH,Norfolk,98%,100%,98%,100%,95%,95%,4.90%
WM. SEACH SCHOOL,42.1966941,-70.9441084,Public,WEYMOUTH,Norfolk,100%,100%,100%,100%,100%,100%,0%
WHATELY ELEMENTARY,42.4507324,-72.6097503,Public,WHATELY,Franklin, , , , , , , 
NORTHBRIDGE ELEMENTARY SCHOOL,42.110675,-71.6601167,Public,WHITINSVILLE,Worcester,95%,95%,90%,99%,89%,89%,0.50%
WHITINSVILLE CHRISTIAN SCHOOL,42.1062076,-71.6536779,Private,WHITINSVILLE,Worcester,92%,94%,92%,94%,92%,86%,8.30%
HOPE CHRISTIAN SCHOOL,42.0839349,-70.9197632,Private,WHITMAN,Plymouth, , , , , , , 
JOHN H DUVAL SCHOOL,42.0872459,-70.9174469,Public,WHITMAN,Plymouth,100%,100%,100%,99%,99%,97%,1.50%
LOUISE A CONLEY SCHOOL,42.0837858,-70.9522833,Public,WHITMAN,Plymouth,96%,100%,100%,100%,100%,96%,0%
MILE TREE ELEMENTARY,42.1121564,-72.4353561,Public,WILBRAHAM,Hampden,98%,98%,98%,98%,98%,98%,2.30%
WILLIAMSBURG ELEMENTARY,42.3927234,-72.7304975,Public,WILLIAMSBURG,Hampshire, , , , , , , 
PINE COBBLE SCHOOL,42.6945883,-73.2069166,Private,WILLIAMSTOWN,Berkshire, , , , , , , 
WILLIAMSTOWN ELEMENTARY,42.7156195,-73.1968685,Public,WILLIAMSTOWN,Berkshire,95%,98%,98%,98%,97%,2%,0%
ABUNDANT LIFE CHRISTIAN,42.5567591,-71.1646471,Private,WILMINGTON,Middlesex, , , , , , , 
BOUTWELL SCHOOL,42.5467555,-71.188433,Public,WILMINGTON,Middlesex,99%,100%,99%,100%,99%,98%,1.00%
WILDWOOD SCHOOL,42.5507363,-71.1536477,Public,WILMINGTON,Middlesex,100%,100%,100%,100%,100%,98%,0%
MEMORIAL SCHOOL,42.6963492,-72.0400937,Public,WINCHENDON,Worcester,99%,99%,99%,99%,99%,99%,1.10%
ACERA SCHOOL,42.4663408,-71.1340743,Private,WINCHESTER,Middlesex, , , , , , , 
AMBROSE ELEMENTARY,42.4456653,-71.1562702,Public,WINCHESTER,Middlesex,100%,99%,100%,97%,100%,97%,0%
CHILDRENS OWN SCHOOL,42.4389867,-71.1332605,Private,WINCHESTER,Middlesex,*,*,*,*,*,*,*
CREATIVE CORNER SCHOOL,42.452303,-71.1369959,Private,WINCHESTER,Middlesex,*,*,*,*,*,*,*
FRANCIS J MURACO ELEMENTARY,42.452303,-71.1369959,Public,WINCHESTER,Middlesex,98%,98%,100%,100%,100%,98%,0%
LINCOLN ELEMENTARY,42.4512529,-71.1346396,Public,WINCHESTER,Middlesex,100%,98%,100%,100%,100%,98%,0%
LYNCH ELEMENTARY,42.4609372,-71.1507347,Public,WINCHESTER,Middlesex,99%,99%,99%,97%,97%,97%,2.70%
ST MARYS SCHOOL,42.4551756,-71.132111,Private,WINCHESTER,Middlesex,95%,98%,95%,98%,95%,95%,2.30%
VINSON OWEN ELEMENTARY,42.4498272,-71.1749754,Public,WINCHESTER,Middlesex,98%,100%,98%,98%,98%,98%,0%
FORT BANKS ELEMENTARY,42.3853384,-70.9802877,Public,WINTHROP,Suffolk,98%,99%,100%,100%,99%,97%,1.90%
CLYDE REEVES ELEMENTARY,42.4792618,-71.1522765,Public,WOBURN,Middlesex,100%,100%,100%,100%,100%,100%,0%
DANIEL HURLD SCHOOL,42.485095,-71.1667214,Public,WOBURN,Middlesex,100%,100%,100%,100%,100%,100%,0%
GOODYEAR ELEMENTARY,42.4792618,-71.1522765,Public,WOBURN,Middlesex,96%,100%,100%,100%,100%,96%,0%
LINSCOTT-RUMFORD,42.5076724,-71.1617951,Public,WOBURN,Middlesex,97%,97%,100%,100%,100%,97%,0%
MALCOLM WHITE ELEMENTARY,42.4845937,-71.1416541,Public,WOBURN,Middlesex,100%,98%,98%,100%,98%,98%,1.70%
MARY D ALTAVESTA,42.5138909,-71.1623043,Public,WOBURN,Middlesex,96%,100%,100%,98%,100%,94%,0%
MAY INSTITUTE,42.4792618,-71.1522765,Private,WOBURN,Middlesex, , , , , , , 
SHAMROCK,42.5016723,-71.1880631,Public,WOBURN,Middlesex,100%,100%,100%,100%,100%,97%,0%
ST CHARLES ELEMENTARY,42.47693,-71.1510621,Private,WOBURN,Middlesex, , , , , , , 
WYMAN SCHOOL,42.4920393,-71.1533878,Public,WOBURN,Middlesex,100%,100%,100%,100%,100%,100%,0%
ABBY KELLEY FOSTER REG CHARTER SCH,42.2625932,-71.8022934,Public,WORCESTER,Worcester,100%,100%,100%,100%,100%,100%,0%
ALHUDA ACADEMY,42.3154211,-71.7738832,Private,WORCESTER,Worcester, , , , , , , 
BANCROFT,42.2591029,-71.8183928,Private,WORCESTER,Worcester, , , , , , , 
BELMONT ST COMMUNITY,42.2719703,-71.7878093,Public,WORCESTER,Worcester,81%,91%,89%,98%,87%,81%,0%
BURNCOAT STREET,42.312154,-71.7891407,Public,WORCESTER,Worcester,85%,90%,90%,100%,90%,79%,0%
CANTERBURY ST SCHOOL,42.2464821,-71.8342384,Public,WORCESTER,Worcester,81%,84%,81%,94%,84%,81%,1.60%
CHANDLER ELEM. COMMUNITY SCHOOL,42.2602397,-71.8107725,Public,WORCESTER,Worcester,79%,86%,86%,99%,84%,67%,0%
CHANDLER MAGNET,42.2708773,-71.8427947,Public,WORCESTER,Worcester,95%,97%,94%,97%,94%,91%,1.30%
CITY VIEW ELEMENTARY,42.2664091,-71.7906594,Public,WORCESTER,Worcester,58%,58%,58%,100%,58%,58%,0%
CLARK ST ELEMENTARY,42.3122571,-71.7723703,Public,WORCESTER,Worcester,71%,74%,79%,98%,79%,76%,0%
COLUMBUS PARK PREP ACADEMY,42.2625932,-71.8022934,Public,WORCESTER,Worcester,82%,87%,87%,96%,85%,79%,0%
ELM PARK COMMUNITY,42.2690657,-71.8073065,Public,WORCESTER,Worcester,95%,96%,99%,96%,96%,95%,0%
F J MCGRATH ELEMENTARY,42.2851289,-71.812848,Public,WORCESTER,Worcester,93%,100%,98%,100%,95%,89%,0%
FLAGG STREET SCHOOL,42.2625932,-71.8022934,Public,WORCESTER,Worcester,100%,100%,100%,100%,100%,100%,0%
GATES LANE,42.247227,-71.843523,Public,WORCESTER,Worcester,96%,99%,98%,100%,98%,98%,2.10%
GODDARD SCHOOL OF SCIENCE & TECH,42.2625932,-71.8022934,Public,WORCESTER,Worcester,98%,100%,100%,100%,98%,98%,0%
GRAFTON STREET,42.2503495,-71.7699033,Public,WORCESTER,Worcester,84%,87%,82%,99%,82%,82%,0%
HEARD STREET SCHOOL,42.2313713,-71.8434071,Public,WORCESTER,Worcester,98%,100%,100%,100%,100%,98%,0%
JACOB HIATT MAGNET SCHOOL,42.2570485,-71.8105498,Public,WORCESTER,Worcester,100%,100%,100%,100%,100%,100%,0%
LAKE VIEW,42.2667601,-71.759237,Public,WORCESTER,Worcester,96%,100%,100%,100%,100%,96%,0%
LINCOLN STREET,42.2908536,-71.7833598,Public,WORCESTER,Worcester,96%,96%,96%,98%,96%,96%,0%
MAY STREET,42.2618432,-71.8347915,Public,WORCESTER,Worcester,92%,94%,86%,92%,86%,82%,2.00%
MIDLAND STREET,42.271734,-71.827973,Public,WORCESTER,Worcester,95%,95%,98%,98%,98%,95%,2.40%
NELSON PLACE,42.295154,-71.823004,Public,WORCESTER,Worcester,86%,91%,85%,100%,85%,84%,0%
NORRBACK AVENUE,42.328366,-71.794187,Public,WORCESTER,Worcester,99%,100%,100%,100%,100%,99%,0%
OUR LADY OF THE ANGELS,42.2432419,-71.8412911,Private,WORCESTER,Worcester, , , , , , , 
QUINSIGAMOND STREET SCHOOL,42.1900156,-71.761467,Public,WORCESTER,Worcester,94%,94%,98%,100%,99%,97%,0.90%
RICE SQUARE,42.2479303,-71.7771215,Public,WORCESTER,Worcester,78%,88%,75%,95%,64%,64%,1.70%
ROOSEVELT SCHOOL,42.2431935,-71.7571411,Public,WORCESTER,Worcester,91%,92%,96%,97%,93%,92%,1.00%
SEVEN HILLS CHARTER SCHOOL,42.26555,-71.789637,Public,WORCESTER,Worcester,97%,97%,100%,100%,100%,97%,0%
ST MARYS,42.2511252,-71.797275,Private,WORCESTER,Worcester, , , , , , , 
ST PETER CENTRAL CATHOLIC,42.3064162,-71.8241937,Private,WORCESTER,Worcester,100%,100%,100%,100%,100%,100%,0%
ST STEPHEN ELEMENTARY,42.2552902,-71.7840852,Private,WORCESTER,Worcester, , , , , , , 
SUMMIT ACADEMY,42.2833038,-71.8280268,Private,WORCESTER,Worcester, , , , , , , 
TATNUCK ELEMENTARY,42.2787785,-71.8509377,Public,WORCESTER,Worcester,95%,97%,100%,98%,100%,93%,1.70%
THORNDYKE ROAD,42.3022909,-71.7872703,Public,WORCESTER,Worcester,100%,100%,98%,100%,98%,98%,1.90%
UNION HILL,42.2531218,-71.7889374,Public,WORCESTER,Worcester,100%,100%,100%,100%,100%,100%,0%
VENERINI ACADEMY,42.2698392,-71.7916407,Private,WORCESTER,Worcester,100%,100%,100%,100%,100%,100%,0%
VERNON HILL,42.2445457,-71.794868,Public,WORCESTER,Worcester,63%,75%,67%,91%,62%,67%,1.20%
WAWECUS ROAD,42.2919238,-71.789473,Public,WORCESTER,Worcester, , , , , , , 
WEST TATNUCK,42.2819371,-71.8630625,Public,WORCESTER,Worcester,100%,100%,100%,100%,100%,100%,0%
WOODLAND ACADEMY,42.2545404,-71.8185369,Public,WORCESTER,Worcester,70%,71%,73%,87%,70%,56%,0.90%
WORCESTER ARTS MAGNET SCHOOL,42.3039306,-71.7751377,Public,WORCESTER,Worcester,98%,100%,100%,100%,100%,98%,0%
R H CONWELL COMMUNITY EDUCATION CTR,42.4000113,-72.9377417,Private,WORTHINGTON,Hampshire, , , , , , , 
DELANEY SCHOOL,42.060569,-71.3259194,Public,WRENTHAM,Norfolk,97%,97%,98%,97%,98%,96%,0.90%
